{
"type": "FeatureCollection",
"name": "comunas_buffer",
"crs": { "type": "name", "properties": { "name": "urn:ogc:def:crs:OGC:1.3:CRS84" } },
"features": [
{ "type": "Feature", "properties": { "comuna": "Estación Central" }, "geometry": { "type": "Polygon", "coordinates": [ [ [ -70.742111327002632, -33.462511556828304 ], [ -70.742820294116953, -33.462377575424313 ], [ -70.740994250070358, -33.443807576355177 ], [ -70.726277864141991, -33.446624715860736 ], [ -70.722463575306691, -33.447362577367031 ], [ -70.718072021673947, -33.44821194752236 ], [ -70.719484778304292, -33.440295409603642 ], [ -70.707847875578125, -33.439797073905439 ], [ -70.705849212904809, -33.439547974377739 ], [ -70.704309750980769, -33.439351787956156 ], [ -70.703072037030367, -33.439198867377648 ], [ -70.702203193185966, -33.439086630003558 ], [ -70.70196024729492, -33.435988806840527 ], [ -70.690280183611094, -33.435371762004607 ], [ -70.685581577442022, -33.435148863587287 ], [ -70.682428410573877, -33.434999543711172 ], [ -70.669287211409468, -33.434592413545133 ], [ -70.668895970847885, -33.442040488660204 ], [ -70.667010410965688, -33.450378327880358 ], [ -70.667201970048012, -33.452940189429818 ], [ -70.667271959440228, -33.454019110364179 ], [ -70.667354472612971, -33.45513187658991 ], [ -70.667418955928866, -33.456073058099804 ], [ -70.667504497311953, -33.457287159941131 ], [ -70.667612061867956, -33.45877007746433 ], [ -70.667815574195345, -33.461618290136201 ], [ -70.662347337739519, -33.46161932115907 ], [ -70.662180505218146, -33.470552404419514 ], [ -70.660992658167146, -33.471242633960458 ], [ -70.661711297604555, -33.486125495422854 ], [ -70.670779646867061, -33.485635482973478 ], [ -70.67094426731299, -33.487487060946343 ], [ -70.677818487618993, -33.48748301090076 ], [ -70.694266023272618, -33.497069573041202 ], [ -70.693198691154407, -33.487718253313261 ], [ -70.693622739538156, -33.487849331870557 ], [ -70.694178559867481, -33.488020774353451 ], [ -70.694898467484819, -33.488246742601028 ], [ -70.695959226347867, -33.488567325169974 ], [ -70.697114116307134, -33.48880413631143 ], [ -70.698235353414617, -33.489025054272055 ], [ -70.699341770622851, -33.489156741207353 ], [ -70.699584717875965, -33.48918325798946 ], [ -70.699650174102715, -33.489193264250758 ], [ -70.699721513386621, -33.48920429905899 ], [ -70.69992006926104, -33.489243013843996 ], [ -70.700275404217393, -33.489318753902467 ], [ -70.702515082022003, -33.489882192977952 ], [ -70.702846502991264, -33.489957647921358 ], [ -70.702854586951602, -33.489965534393086 ], [ -70.706199061232567, -33.490720870386077 ], [ -70.707305411698528, -33.490972712126386 ], [ -70.707313759013857, -33.490972597151199 ], [ -70.717692910555556, -33.493315913018826 ], [ -70.721160418393723, -33.487293458741462 ], [ -70.722699095400415, -33.4859246324324 ], [ -70.724668516983513, -33.484172414905778 ], [ -70.726323817633116, -33.482792575225467 ], [ -70.726590127627119, -33.482412688504489 ], [ -70.726739430611246, -33.48227177194574 ], [ -70.727486700506915, -33.481580914772188 ], [ -70.727733676447627, -33.481351498174341 ], [ -70.73083143135932, -33.480399866257265 ], [ -70.730987825335603, -33.480072825015604 ], [ -70.73100409108801, -33.480068250262576 ], [ -70.731588104519361, -33.479892923832146 ], [ -70.732230879664627, -33.479708655205506 ], [ -70.734333487959304, -33.479061295813374 ], [ -70.734436515800169, -33.479029574005835 ], [ -70.734989982209598, -33.478875867560312 ], [ -70.736079442165192, -33.478539742402731 ], [ -70.737127839600404, -33.478215329745353 ], [ -70.755955661799902, -33.472110109540701 ], [ -70.742121765224582, -33.463561204768979 ], [ -70.742111327002632, -33.462511556828304 ] ] ] } },
{ "type": "Feature", "properties": { "comuna": "La Reina" }, "geometry": { "type": "Polygon", "coordinates": [ [ [ -70.636541989553876, -33.443097847957809 ], [ -70.637421719139525, -33.439718206882404 ], [ -70.586544538471728, -33.422780126040351 ], [ -70.580903478607439, -33.422447057570402 ], [ -70.579161553341748, -33.42234550118792 ], [ -70.57506910527394, -33.422225280308453 ], [ -70.574713528186379, -33.422221291658857 ], [ -70.570519784927853, -33.422051650850527 ], [ -70.565482271166402, -33.421928119315425 ], [ -70.564283584776945, -33.421881481670297 ], [ -70.560330272058792, -33.421709902377415 ], [ -70.558018019792542, -33.421580409055665 ], [ -70.555109426453569, -33.421433031563524 ], [ -70.554832797869054, -33.421425924367696 ], [ -70.552779529338139, -33.421235285075049 ], [ -70.545032824953694, -33.42046259443552 ], [ -70.544889580362351, -33.420532468371157 ], [ -70.543857005976193, -33.420411425004836 ], [ -70.542624221942731, -33.420266902255214 ], [ -70.54158226119489, -33.420149138514581 ], [ -70.528211747725848, -33.41789476723519 ], [ -70.52826623695141, -33.423139271534268 ], [ -70.527666407832527, -33.423066589116807 ], [ -70.526558891220517, -33.422929333188968 ], [ -70.524427149798484, -33.422664981693373 ], [ -70.520819575905819, -33.422375438424808 ], [ -70.519544648275243, -33.422947397636854 ], [ -70.518386649975511, -33.422879013547877 ], [ -70.518034257582613, -33.423125129237903 ], [ -70.517078184776182, -33.422832649141178 ], [ -70.512124199658501, -33.426488196238168 ], [ -70.509718172255248, -33.426607623469621 ], [ -70.50682602345266, -33.42688567599005 ], [ -70.50294821237803, -33.428183163523428 ], [ -70.500795295579607, -33.42948041123153 ], [ -70.497834020659823, -33.431103624198599 ], [ -70.495856205850586, -33.4326928033665 ], [ -70.494526870586483, -33.433839904613123 ], [ -70.493057063430157, -33.435655231670019 ], [ -70.491492563224824, -33.437789352053848 ], [ -70.490514069288977, -33.438513214030927 ], [ -70.488989625486781, -33.439937781175495 ], [ -70.488279259661894, -33.440367425668711 ], [ -70.485444985756004, -33.444045443313286 ], [ -70.485191496053943, -33.447133381516416 ], [ -70.485193065741754, -33.447225459969275 ], [ -70.484894898547779, -33.447431372400409 ], [ -70.484724740733427, -33.447555599295406 ], [ -70.483357485131563, -33.448232577335816 ], [ -70.479337111251922, -33.451699479460473 ], [ -70.479149055022063, -33.453332532694652 ], [ -70.478643231591548, -33.454211805771813 ], [ -70.478572458609193, -33.454566044366089 ], [ -70.47780177051358, -33.455436084004432 ], [ -70.477671140926574, -33.455943029678373 ], [ -70.477503698939188, -33.456116434060327 ], [ -70.476315160204408, -33.459253667841615 ], [ -70.476214728056064, -33.460997224600575 ], [ -70.475753086468885, -33.471080433351183 ], [ -70.494206137170337, -33.47057601380407 ], [ -70.504458698216496, -33.470089128646713 ], [ -70.508557768617322, -33.46978824606515 ], [ -70.508975670989514, -33.469724123476489 ], [ -70.512631883731558, -33.469310507058367 ], [ -70.516544767025323, -33.469050218834042 ], [ -70.519059435305167, -33.469019161607598 ], [ -70.520512694840136, -33.468842471156179 ], [ -70.520787443228429, -33.468785564772141 ], [ -70.521178405588174, -33.468738060076824 ], [ -70.52149645157634, -33.469263842892062 ], [ -70.524474735113159, -33.474187077121236 ], [ -70.533042826235331, -33.474542419783795 ], [ -70.535505321067475, -33.473799932164908 ], [ -70.535740079150813, -33.473734873340199 ], [ -70.536483983483919, -33.473529674653328 ], [ -70.537825572647392, -33.473151710480188 ], [ -70.539059619235005, -33.472795690848642 ], [ -70.539215403840572, -33.472753863433496 ], [ -70.539403979261721, -33.472701362509042 ], [ -70.540193228091795, -33.472481621122313 ], [ -70.540600228950396, -33.472360128067216 ], [ -70.540856969245354, -33.47228936173574 ], [ -70.54253755597405, -33.47291076563797 ], [ -70.546292582128885, -33.47252572895443 ], [ -70.547089414517558, -33.472423004476596 ], [ -70.547706453140222, -33.472347102576201 ], [ -70.549544113286274, -33.472096477143126 ], [ -70.550820227978406, -33.471880357624151 ], [ -70.552102494306212, -33.471661012625937 ], [ -70.55219866855947, -33.471643641820272 ], [ -70.553109645164838, -33.471631913411585 ], [ -70.55365558950848, -33.471625072333467 ], [ -70.554927935692405, -33.471617524220086 ], [ -70.556472130691276, -33.471620074106703 ], [ -70.556819702116485, -33.471613576043232 ], [ -70.557975068298617, -33.471591964791919 ], [ -70.559656654478218, -33.471585657373836 ], [ -70.560653082141656, -33.471554396475625 ], [ -70.560763605122077, -33.471549768005225 ], [ -70.560966386271701, -33.471549324949002 ], [ -70.561282327612346, -33.471547067472962 ], [ -70.561580718092074, -33.471546235977115 ], [ -70.562832225760559, -33.471530457991918 ], [ -70.563923647719321, -33.471408914020614 ], [ -70.564981244853215, -33.471242728840345 ], [ -70.566143161003751, -33.470932539752518 ], [ -70.566758265253583, -33.470732404233502 ], [ -70.567859809631358, -33.470809322790323 ], [ -70.570302725589002, -33.469532858026419 ], [ -70.571370822283342, -33.469174680381741 ], [ -70.572105916784196, -33.468898888489491 ], [ -70.572531079559198, -33.468742153756416 ], [ -70.573553396885089, -33.468365270842675 ], [ -70.573906840159879, -33.468214658829943 ], [ -70.574380075620184, -33.468030196146877 ], [ -70.574586705296184, -33.467946600688713 ], [ -70.574816700249912, -33.467858861179785 ], [ -70.575281613736024, -33.467700919984033 ], [ -70.57540057654947, -33.46765920118898 ], [ -70.576236929531618, -33.467401276638476 ], [ -70.576313036472257, -33.467372100349216 ], [ -70.585517629324372, -33.464614040789584 ], [ -70.582429665395026, -33.455567786095315 ], [ -70.581916656203617, -33.453447535576309 ], [ -70.581727184257815, -33.452845575160715 ], [ -70.582903909199274, -33.445515660330912 ], [ -70.583148949226512, -33.444619467922038 ], [ -70.583272455690846, -33.443943006238349 ], [ -70.583549329947516, -33.443848271176122 ], [ -70.585935546404642, -33.442660444224671 ], [ -70.588195804231603, -33.441309794218633 ], [ -70.588678833766707, -33.441000129796734 ], [ -70.636541989553876, -33.443097847957809 ] ] ] } },
{ "type": "Feature", "properties": { "comuna": "Ñuñoa" }, "geometry": { "type": "Polygon", "coordinates": [ [ [ -70.636755385159915, -33.469906017574239 ], [ -70.636877692913842, -33.469477938812553 ], [ -70.637590949874308, -33.466946858613184 ], [ -70.638227802953494, -33.464740089803627 ], [ -70.639008413171496, -33.462050069313925 ], [ -70.640066393371342, -33.458378906903953 ], [ -70.640294570880059, -33.457559227325213 ], [ -70.641325165852905, -33.454150621759119 ], [ -70.641906658134332, -33.452229663382944 ], [ -70.64453111556827, -33.442742951576953 ], [ -70.633588116079181, -33.440985947197035 ], [ -70.632676585230044, -33.440808027960102 ], [ -70.631410966653732, -33.440564506058024 ], [ -70.630440464469231, -33.440368131663099 ], [ -70.629373321738029, -33.440164254671956 ], [ -70.629257664450179, -33.440135986649764 ], [ -70.62783929510536, -33.43978772281632 ], [ -70.627350111367278, -33.439713207070639 ], [ -70.626178032505067, -33.439477386039499 ], [ -70.62572287293105, -33.439389813938156 ], [ -70.624786305424806, -33.439196983553614 ], [ -70.623362143060007, -33.438910526055999 ], [ -70.622321391225597, -33.438709776749022 ], [ -70.611213457793212, -33.436456384708535 ], [ -70.611055157257823, -33.436928952796642 ], [ -70.609801022366824, -33.436735313604885 ], [ -70.608567704767367, -33.436600068090506 ], [ -70.607791200489629, -33.43651380887394 ], [ -70.607762222716673, -33.436510574177547 ], [ -70.607001422312052, -33.436403437528618 ], [ -70.6058891744444, -33.436247642987432 ], [ -70.605151105974429, -33.436174484063706 ], [ -70.604218908577991, -33.436079220187011 ], [ -70.603527131272429, -33.43600609190915 ], [ -70.602833855968157, -33.435936059903263 ], [ -70.602208239885726, -33.435883806692999 ], [ -70.601765232684926, -33.435843562801558 ], [ -70.601566798076547, -33.435825587888552 ], [ -70.601122430745846, -33.435785201782608 ], [ -70.598106551861065, -33.435511347909625 ], [ -70.597791080401763, -33.435445646896142 ], [ -70.597684953290766, -33.435473059065608 ], [ -70.596803328158217, -33.435392986652651 ], [ -70.596729762323747, -33.435282992257839 ], [ -70.59668270978193, -33.435212638000536 ], [ -70.596401734550724, -33.434781928396596 ], [ -70.596044495851487, -33.434326799020162 ], [ -70.595833424373907, -33.434057883137648 ], [ -70.595485863142656, -33.433661063874546 ], [ -70.595314581950589, -33.433465507669162 ], [ -70.594649955518435, -33.43271547167523 ], [ -70.594051996651558, -33.432051177957938 ], [ -70.593727890532065, -33.431666860245507 ], [ -70.593166414118542, -33.431058795239174 ], [ -70.592475268356381, -33.430290157199913 ], [ -70.591741663440686, -33.429454569484413 ], [ -70.591606968600587, -33.429303072720074 ], [ -70.591528262868707, -33.429214546455867 ], [ -70.585753894665331, -33.420172492573393 ], [ -70.575417831140015, -33.426799045057685 ], [ -70.574182641250289, -33.427537084382628 ], [ -70.573942438236386, -33.427656646335222 ], [ -70.572825927965823, -33.42803862947153 ], [ -70.570703180224996, -33.428770178896663 ], [ -70.569522504011914, -33.429444704180639 ], [ -70.568812452779284, -33.429594709965556 ], [ -70.564351678819762, -33.432609632623524 ], [ -70.562856791923494, -33.436513106268215 ], [ -70.562606101196678, -33.437844400143142 ], [ -70.562488642161, -33.438533354921304 ], [ -70.562409617254403, -33.438892447347413 ], [ -70.562291181845978, -33.439604863977401 ], [ -70.562211655211627, -33.440176896855505 ], [ -70.562067634299652, -33.440888465287358 ], [ -70.562004449543082, -33.4412340758509 ], [ -70.561715548770323, -33.442289728268264 ], [ -70.560178166948376, -33.45185149973814 ], [ -70.560161863677422, -33.452146564071654 ], [ -70.559918951397492, -33.453131062474931 ], [ -70.559246704358912, -33.453332390409166 ], [ -70.562352582193924, -33.462834110827515 ], [ -70.563681085138995, -33.465765509839052 ], [ -70.563876891139401, -33.466288438755228 ], [ -70.564751200869267, -33.468307198503823 ], [ -70.566041391468417, -33.471534026971447 ], [ -70.569594791836707, -33.4814844984964 ], [ -70.57588718322809, -33.479889844852408 ], [ -70.576191025228013, -33.480048891539326 ], [ -70.576490820428617, -33.480204106759636 ], [ -70.577705053271728, -33.480832756699911 ], [ -70.578556635411687, -33.481237185633717 ], [ -70.579801151003778, -33.481748997502983 ], [ -70.580530001558969, -33.481957219554772 ], [ -70.581305939705885, -33.482304597123864 ], [ -70.581888335190001, -33.482365695972199 ], [ -70.585343602975769, -33.483292552942245 ], [ -70.587930692634416, -33.483487077675633 ], [ -70.58927927883343, -33.483357800550365 ], [ -70.589469118559975, -33.48337522264756 ], [ -70.59136088702158, -33.483080593661334 ], [ -70.591650150310684, -33.4830449030989 ], [ -70.592129081036717, -33.482985851744637 ], [ -70.593064976640534, -33.48287197583015 ], [ -70.593183581212244, -33.482858467957222 ], [ -70.593406184015308, -33.482846124210909 ], [ -70.593926913964395, -33.482820634595484 ], [ -70.59507594731032, -33.482753469776704 ], [ -70.59564633752268, -33.482728869494721 ], [ -70.596649011709729, -33.482665043051149 ], [ -70.597163636128016, -33.482654197218942 ], [ -70.598123602017267, -33.482698515809133 ], [ -70.598783002454127, -33.482732715586984 ], [ -70.599894911559431, -33.482789852160053 ], [ -70.600544475850796, -33.482824935686594 ], [ -70.602036386362528, -33.482907135657278 ], [ -70.603028805952647, -33.482955547270151 ], [ -70.60377967911225, -33.483015195977082 ], [ -70.604175645480467, -33.48301308342365 ], [ -70.605635772822623, -33.483093960749017 ], [ -70.606850493959413, -33.48315580952066 ], [ -70.607496136028104, -33.483182871774851 ], [ -70.609223229053342, -33.483274176883349 ], [ -70.61035204789556, -33.483330910335191 ], [ -70.611570316668889, -33.483397416836205 ], [ -70.612881605041153, -33.483459793502739 ], [ -70.613224057961759, -33.483471995475497 ], [ -70.614368806080179, -33.483531463297851 ], [ -70.614874732803401, -33.483557784502274 ], [ -70.615609358275151, -33.483595937273812 ], [ -70.616169932083722, -33.483628637076571 ], [ -70.616932087632165, -33.483666900277719 ], [ -70.617986603484866, -33.483718068633991 ], [ -70.618857827789867, -33.483768032295671 ], [ -70.619308628655517, -33.483782622098424 ], [ -70.631498982467548, -33.484381063126634 ], [ -70.633888202019989, -33.475452298187662 ], [ -70.633975212094953, -33.475158321599295 ], [ -70.636625087428484, -33.471754579215485 ], [ -70.636755385159915, -33.469906017574239 ] ] ] } },
{ "type": "Feature", "properties": { "comuna": "Santiago" }, "geometry": { "type": "Polygon", "coordinates": [ [ [ -70.6969596342024, -33.430947821163855 ], [ -70.696538845344094, -33.430507507184799 ], [ -70.695532941873878, -33.430440091697264 ], [ -70.695503361629051, -33.42892456124774 ], [ -70.691409446246823, -33.428830951186157 ], [ -70.691088459002401, -33.426764035293189 ], [ -70.690129810728706, -33.424706827673667 ], [ -70.689130411388646, -33.42318274737702 ], [ -70.687932325451229, -33.421919096714696 ], [ -70.68699925948745, -33.421127426465496 ], [ -70.685516304199524, -33.41986514075306 ], [ -70.68407127971966, -33.41931502965015 ], [ -70.681663802013716, -33.418077174537459 ], [ -70.680359563416872, -33.406407682788739 ], [ -70.668608263670038, -33.417690793249712 ], [ -70.663900542202711, -33.419421575079795 ], [ -70.657870897028161, -33.421373993489681 ], [ -70.653548124479443, -33.422397777468362 ], [ -70.650344886506474, -33.423123025838116 ], [ -70.649016669887516, -33.423394082885359 ], [ -70.648679765447639, -33.423473960856427 ], [ -70.642520335637798, -33.424934275543421 ], [ -70.637754938142962, -33.426105042686181 ], [ -70.624843360037019, -33.428871281964021 ], [ -70.62461630675044, -33.435590022133638 ], [ -70.624267969713259, -33.436920014126393 ], [ -70.624113759986244, -33.437489127302058 ], [ -70.622415484410709, -33.443229224851748 ], [ -70.621070383587551, -33.447718351150414 ], [ -70.621000025140489, -33.447972430704212 ], [ -70.620472254263234, -33.44971452674335 ], [ -70.619389491618406, -33.453292804806459 ], [ -70.619133699794773, -33.454210885257595 ], [ -70.61809849156495, -33.457800010426247 ], [ -70.617318004174933, -33.460487363910346 ], [ -70.616663752595599, -33.462752517828427 ], [ -70.616356825842473, -33.463840766776002 ], [ -70.609970748479654, -33.467809071088134 ], [ -70.616529853715363, -33.476100612097575 ], [ -70.618256276897085, -33.477516194560245 ], [ -70.618794026787953, -33.477901524852278 ], [ -70.619237971324779, -33.478993010538986 ], [ -70.625739491300564, -33.481420224146518 ], [ -70.627547606486431, -33.482053470946745 ], [ -70.631468996527872, -33.483427113047647 ], [ -70.633298379305415, -33.484203433049309 ], [ -70.638147195833298, -33.485536653004395 ], [ -70.640546539350368, -33.485828332032618 ], [ -70.64092462525673, -33.485858567946607 ], [ -70.641091296295684, -33.485871898736931 ], [ -70.642385304553343, -33.485975022950626 ], [ -70.648379986884251, -33.485968172091198 ], [ -70.648641317798152, -33.48596469470904 ], [ -70.648848962602713, -33.485961932071341 ], [ -70.649421827151116, -33.485954305332079 ], [ -70.651026029024734, -33.485965740565916 ], [ -70.652749908577533, -33.485942757420581 ], [ -70.654925806659904, -33.485864374419819 ], [ -70.656690415042931, -33.485638622740105 ], [ -70.657253996620156, -33.485566604877526 ], [ -70.658108009977582, -33.485452633619303 ], [ -70.658566090950714, -33.485391540544285 ], [ -70.659272007942818, -33.485338187759645 ], [ -70.660795523098614, -33.48521942813511 ], [ -70.660751395315359, -33.487492623810368 ], [ -70.692525155454433, -33.487472915913628 ], [ -70.691815768174123, -33.479515667142905 ], [ -70.697383058960312, -33.479411747043059 ], [ -70.690840826660875, -33.468576680715756 ], [ -70.690713396265508, -33.467146636659812 ], [ -70.689991073519693, -33.46716910886753 ], [ -70.689706072894452, -33.46669700812248 ], [ -70.689485613085935, -33.463227445622096 ], [ -70.689164794956369, -33.458753174334582 ], [ -70.689585717087297, -33.453404850944615 ], [ -70.703383608403385, -33.45413349356587 ], [ -70.702391592909123, -33.441488885217176 ], [ -70.702310722038575, -33.439359094853373 ], [ -70.701853465161662, -33.431418811277425 ], [ -70.6969596342024, -33.430947821163855 ] ] ] } }
]
}
