{
"type": "FeatureCollection",
"name": "atracciones_turisticas_filtradas",
"crs": { "type": "name", "properties": { "name": "urn:ogc:def:crs:OGC:1.3:CRS84" } },
"features": [
{ "type": "Feature", "properties": { "addr_city": "Santiago", "addr_country": null, "addr_housenumber": "391", "addr_postcode": "8350485", "addr_street": "Pasaje Lucrecia Valdes De Barros", "addr_unit": null, "amenity": null, "attraction": null, "bicycle": null, "board_type": null, "building": null, "building_levels": null, "description": null, "ele": null, "historic": null, "information": null, "name": "Bed and Breakfast Brothers", "name_en": "BNB Bros", "name_es": null, "opening_hours": null, "operator": null, "phone": null, "ref": null, "source_transform": null, "tourism": "guest_house", "website": null, "wheelchair": null, "zoo": null, "objectid": 6539137, "osm_id2": "5542015021" }, "geometry": { "type": "Point", "coordinates": [ -70.675929699593993, -33.441425799419498 ] } },
{ "type": "Feature", "properties": { "addr_city": "Santiago", "addr_country": "CL", "addr_housenumber": null, "addr_postcode": null, "addr_street": "Santo Domingo", "addr_unit": null, "amenity": null, "attraction": null, "bicycle": null, "board_type": null, "building": null, "building_levels": null, "description": null, "ele": null, "historic": null, "information": null, "name": "Museo Infantil", "name_en": null, "name_es": null, "opening_hours": null, "operator": "Corporación Privada para la Divulgación de la Ciencia y Tecnología (Corpdicyt)", "phone": null, "ref": null, "source_transform": null, "tourism": "museum", "website": "http://www.corpdicyt.cl/minfantil/", "wheelchair": null, "zoo": null, "objectid": 6540492, "osm_id2": "2463424205" }, "geometry": { "type": "Point", "coordinates": [ -70.6837212, -33.4398181 ] } },
{ "type": "Feature", "properties": { "addr_city": "Estación Central", "addr_country": null, "addr_housenumber": "1240", "addr_postcode": null, "addr_street": "San Francisco de Borja", "addr_unit": null, "amenity": null, "attraction": null, "bicycle": null, "board_type": null, "building": null, "building_levels": null, "description": null, "ele": null, "historic": null, "information": null, "name": "Museo Jedimar", "name_en": null, "name_es": null, "opening_hours": null, "operator": "Turbus", "phone": null, "ref": null, "source_transform": null, "tourism": "attraction", "website": null, "wheelchair": null, "zoo": null, "objectid": 10183742, "osm_id2": "10822849636" }, "geometry": { "type": "Point", "coordinates": [ -70.6863356, -33.4534186 ] } },
{ "type": "Feature", "properties": { "addr_city": "Santiago", "addr_country": null, "addr_housenumber": null, "addr_postcode": null, "addr_street": "Matucana", "addr_unit": null, "amenity": null, "attraction": null, "bicycle": null, "board_type": null, "building": null, "building_levels": null, "description": null, "ele": null, "historic": null, "information": null, "name": "Galería de la Memoria", "name_en": null, "name_es": null, "opening_hours": null, "operator": "Museo de la Memoria y los DD.HH.", "phone": null, "ref": null, "source_transform": null, "tourism": "attraction", "website": null, "wheelchair": null, "zoo": null, "objectid": 10375421, "osm_id2": "10975976055" }, "geometry": { "type": "Point", "coordinates": [ -70.6797265, -33.4401607 ] } },
{ "type": "Feature", "properties": { "addr_city": "Santiago", "addr_country": null, "addr_housenumber": null, "addr_postcode": null, "addr_street": "Matucana", "addr_unit": null, "amenity": null, "attraction": null, "bicycle": null, "board_type": null, "building": null, "building_levels": null, "description": null, "ele": null, "historic": null, "information": null, "name": "Sala Pablo Neruda", "name_en": null, "name_es": null, "opening_hours": null, "operator": "Corporación Cultural MetroArte", "phone": null, "ref": null, "source_transform": null, "tourism": "gallery", "website": null, "wheelchair": null, "zoo": null, "objectid": 10375419, "osm_id2": "10975976053" }, "geometry": { "type": "Point", "coordinates": [ -70.6800135, -33.4402211 ] } },
{ "type": "Feature", "properties": { "addr_city": "Santiago", "addr_country": null, "addr_housenumber": "304", "addr_postcode": null, "addr_street": "Libertad", "addr_unit": null, "amenity": null, "attraction": null, "bicycle": null, "board_type": null, "building": null, "building_levels": null, "description": null, "ele": null, "historic": null, "information": null, "name": "Galería Hifas", "name_en": null, "name_es": null, "opening_hours": null, "operator": null, "phone": null, "ref": null, "source_transform": null, "tourism": "gallery", "website": null, "wheelchair": null, "zoo": null, "objectid": 10760271, "osm_id2": "11179738327" }, "geometry": { "type": "Point", "coordinates": [ -70.6741554, -33.4418768 ] } },
{ "type": "Feature", "properties": { "addr_city": "Santiago", "addr_country": null, "addr_housenumber": "232", "addr_postcode": null, "addr_street": "Rafael Sotomayor", "addr_unit": null, "amenity": null, "attraction": null, "bicycle": null, "board_type": null, "building": null, "building_levels": null, "description": null, "ele": null, "historic": null, "information": null, "name": "Galería de Arte Contemporáneo TIM", "name_en": null, "name_es": null, "opening_hours": null, "operator": "The Intuitive Machine", "phone": null, "ref": null, "source_transform": null, "tourism": "gallery", "website": null, "wheelchair": null, "zoo": null, "objectid": 10760272, "osm_id2": "11179738328" }, "geometry": { "type": "Point", "coordinates": [ -70.6732025, -33.4426109 ] } },
{ "type": "Feature", "properties": { "addr_city": "Santiago", "addr_country": null, "addr_housenumber": "1717", "addr_postcode": "8370778", "addr_street": "Francisco Pizarro", "addr_unit": null, "amenity": null, "attraction": null, "bicycle": null, "board_type": null, "building": null, "building_levels": null, "description": null, "ele": null, "historic": null, "information": null, "name": "Gatos de campo, tiernos y traviesos", "name_en": null, "name_es": null, "opening_hours": null, "operator": null, "phone": "+56998913632", "ref": null, "source_transform": null, "tourism": "hotel", "website": null, "wheelchair": null, "zoo": null, "objectid": 6568516, "osm_id2": "8248463356" }, "geometry": { "type": "Point", "coordinates": [ -70.6703447, -33.4696965 ] } },
{ "type": "Feature", "properties": { "addr_city": "Santiago", "addr_country": null, "addr_housenumber": "2780", "addr_postcode": null, "addr_street": "Manuel de Amat", "addr_unit": null, "amenity": null, "attraction": null, "bicycle": null, "board_type": null, "building": null, "building_levels": null, "description": null, "ele": null, "historic": null, "information": null, "name": "Blu", "name_en": null, "name_es": null, "opening_hours": null, "operator": null, "phone": "+56 34 231 7644", "ref": null, "source_transform": null, "tourism": "hotel", "website": "https://hotelblu.cl/", "wheelchair": null, "zoo": null, "objectid": 8837920, "osm_id2": "9519462090" }, "geometry": { "type": "Point", "coordinates": [ -70.6711858, -33.4684775 ] } },
{ "type": "Feature", "properties": { "addr_city": "La Reina", "addr_country": null, "addr_housenumber": null, "addr_postcode": null, "addr_street": null, "addr_unit": null, "amenity": null, "attraction": null, "bicycle": null, "board_type": null, "building": null, "building_levels": null, "description": null, "ele": null, "historic": null, "information": null, "name": "zona de picnic frío", "name_en": null, "name_es": null, "opening_hours": null, "operator": "RENAMU Mawida", "phone": null, "ref": null, "source_transform": null, "tourism": "picnic_site", "website": null, "wheelchair": null, "zoo": null, "objectid": 6376674, "osm_id2": "1406574548" }, "geometry": { "type": "Point", "coordinates": [ -70.515987, -33.4572376 ] } },
{ "type": "Feature", "properties": { "addr_city": "La Reina", "addr_country": null, "addr_housenumber": null, "addr_postcode": null, "addr_street": "Parque Mahuida", "addr_unit": null, "amenity": null, "attraction": null, "bicycle": null, "board_type": null, "building": null, "building_levels": null, "description": null, "ele": null, "historic": null, "information": "office", "name": "Oficinas de Montaña y Educación", "name_en": null, "name_es": null, "opening_hours": null, "operator": "Municipalidad de La Reina", "phone": null, "ref": null, "source_transform": null, "tourism": "information", "website": null, "wheelchair": null, "zoo": null, "objectid": 11032517, "osm_id2": "11409906763" }, "geometry": { "type": "Point", "coordinates": [ -70.5177915, -33.4561824 ] } },
{ "type": "Feature", "properties": { "addr_city": "La Reina", "addr_country": null, "addr_housenumber": "311", "addr_postcode": null, "addr_street": "Álvaro Casanova", "addr_unit": null, "amenity": null, "attraction": null, "bicycle": null, "board_type": null, "building": null, "building_levels": null, "description": null, "ele": null, "historic": null, "information": null, "name": "Casa de Campo de Carabineros", "name_en": null, "name_es": null, "opening_hours": null, "operator": null, "phone": null, "ref": null, "source_transform": null, "tourism": "hotel", "website": null, "wheelchair": null, "zoo": null, "objectid": 6376384, "osm_id2": "4488337992" }, "geometry": { "type": "Point", "coordinates": [ -70.5169782, -33.4484729 ] } },
{ "type": "Feature", "properties": { "addr_city": "La Reina", "addr_country": null, "addr_housenumber": null, "addr_postcode": null, "addr_street": "Sendero Loma Pelada (3 km.)", "addr_unit": null, "amenity": null, "attraction": null, "bicycle": null, "board_type": null, "building": null, "building_levels": null, "description": null, "ele": null, "historic": null, "information": "office", "name": "Caseta de Guardaparques", "name_en": null, "name_es": null, "opening_hours": null, "operator": "Parque Mahuida", "phone": null, "ref": null, "source_transform": null, "tourism": "information", "website": null, "wheelchair": null, "zoo": null, "objectid": 11032530, "osm_id2": "11409913242" }, "geometry": { "type": "Point", "coordinates": [ -70.5132483, -33.4588721 ] } },
{ "type": "Feature", "properties": { "addr_city": "Santiago", "addr_country": "CL", "addr_housenumber": "506", "addr_postcode": null, "addr_street": "Ismael Valdés Vergara", "addr_unit": null, "amenity": null, "attraction": null, "bicycle": null, "board_type": null, "building": null, "building_levels": null, "description": null, "ele": null, "historic": null, "information": null, "name": "Museo de Arte Contemporáneo", "name_en": "Museum of Contemporary Art", "name_es": null, "opening_hours": null, "operator": null, "phone": null, "ref": null, "source_transform": null, "tourism": "gallery", "website": "https://www.mac.uchile.cl/", "wheelchair": "no", "zoo": null, "objectid": 6386221, "osm_id2": "8197637769" }, "geometry": { "type": "Point", "coordinates": [ -70.6444844, -33.4351126 ] } },
{ "type": "Feature", "properties": { "addr_city": "Santiago", "addr_country": "CL", "addr_housenumber": "307", "addr_postcode": null, "addr_street": "José Victorino Lastarria", "addr_unit": null, "amenity": null, "attraction": null, "bicycle": null, "board_type": null, "building": null, "building_levels": null, "description": null, "ele": null, "historic": null, "information": null, "name": "Museo de Artes Visuales", "name_en": null, "name_es": null, "opening_hours": null, "operator": "Fundación Cultural Plaza Mulato", "phone": null, "ref": null, "source_transform": null, "tourism": "gallery", "website": "https://www.mavi.cl/", "wheelchair": "yes", "zoo": null, "objectid": 6386405, "osm_id2": "1773356036" }, "geometry": { "type": "Point", "coordinates": [ -70.6406206, -33.4376249 ] } },
{ "type": "Feature", "properties": { "addr_city": "Santiago", "addr_country": null, "addr_housenumber": "41", "addr_postcode": null, "addr_street": "Concha y Toro", "addr_unit": null, "amenity": null, "attraction": null, "bicycle": null, "board_type": null, "building": null, "building_levels": null, "description": null, "ele": null, "historic": null, "information": null, "name": null, "name_en": null, "name_es": null, "opening_hours": null, "operator": null, "phone": null, "ref": null, "source_transform": null, "tourism": "guest_house", "website": null, "wheelchair": null, "zoo": null, "objectid": 6539599, "osm_id2": "5008531422" }, "geometry": { "type": "Point", "coordinates": [ -70.6655676, -33.4456465 ] } },
{ "type": "Feature", "properties": { "addr_city": "Santiago", "addr_country": "CL", "addr_housenumber": "659", "addr_postcode": null, "addr_street": "Marcoleta", "addr_unit": null, "amenity": null, "attraction": null, "bicycle": null, "board_type": null, "building": null, "building_levels": null, "description": null, "ele": null, "historic": null, "information": null, "name": "Museo Masónico", "name_en": null, "name_es": null, "opening_hours": null, "operator": null, "phone": null, "ref": null, "source_transform": null, "tourism": "museum", "website": null, "wheelchair": null, "zoo": null, "objectid": 6389375, "osm_id2": "1278934534" }, "geometry": { "type": "Point", "coordinates": [ -70.6451672, -33.4437338 ] } },
{ "type": "Feature", "properties": { "addr_city": "Santiago", "addr_country": null, "addr_housenumber": null, "addr_postcode": null, "addr_street": "Mapocho 42k", "addr_unit": null, "amenity": null, "attraction": null, "bicycle": null, "board_type": null, "building": null, "building_levels": null, "description": null, "ele": null, "historic": null, "information": null, "name": "Tajamares del Mapocho", "name_en": null, "name_es": null, "opening_hours": null, "operator": null, "phone": null, "ref": null, "source_transform": null, "tourism": "attraction", "website": null, "wheelchair": null, "zoo": null, "objectid": 6525132, "osm_id2": "7931620608" }, "geometry": { "type": "Point", "coordinates": [ -70.6735956, -33.4262303 ] } },
{ "type": "Feature", "properties": { "addr_city": "Santiago", "addr_country": null, "addr_housenumber": "1199", "addr_postcode": null, "addr_street": "Huérfanos", "addr_unit": null, "amenity": "pharmacy", "attraction": null, "bicycle": null, "board_type": null, "building": null, "building_levels": null, "description": null, "ele": null, "historic": null, "information": null, "name": "La Botica Salcobrand", "name_en": null, "name_es": null, "opening_hours": null, "operator": null, "phone": null, "ref": null, "source_transform": "Reconocimiento cortográfico de campo 2016 por KG", "tourism": "attraction", "website": null, "wheelchair": null, "zoo": null, "objectid": 6536368, "osm_id2": "2584336818" }, "geometry": { "type": "Point", "coordinates": [ -70.6535974, -33.4397814 ] } },
{ "type": "Feature", "properties": { "addr_city": "Santiago", "addr_country": "CL", "addr_housenumber": "834", "addr_postcode": null, "addr_street": "Avenida Libertador Bernardo O'Higgins", "addr_unit": null, "amenity": null, "attraction": null, "bicycle": null, "board_type": null, "building": null, "building_levels": null, "description": null, "ele": null, "historic": null, "information": null, "name": "Museo de Arte Colonial de San Francisco", "name_en": null, "name_es": null, "opening_hours": "Mo-Fr 09:30-13:30,15:00-18:00; Sa,Su 10:00-14:00", "operator": null, "phone": "+56 2 26398737", "ref": null, "source_transform": "survey", "tourism": "museum", "website": "http://www.museosanfrancisco.com", "wheelchair": null, "zoo": null, "objectid": 6537293, "osm_id2": "1297908112" }, "geometry": { "type": "Point", "coordinates": [ -70.647835, -33.4436101 ] } },
{ "type": "Feature", "properties": { "addr_city": "Santiago", "addr_country": "CL", "addr_housenumber": "661", "addr_postcode": null, "addr_street": "Enrique Mac Iver", "addr_unit": null, "amenity": null, "attraction": null, "bicycle": null, "board_type": null, "building": null, "building_levels": null, "description": null, "ele": null, "historic": null, "information": null, "name": "Santiago Backpackers", "name_en": null, "name_es": null, "opening_hours": null, "operator": null, "phone": "+56 2 26648451", "ref": null, "source_transform": null, "tourism": "hostel", "website": "https://www.santiagobackpackers.com/", "wheelchair": null, "zoo": null, "objectid": 6533872, "osm_id2": "1748379180" }, "geometry": { "type": "Point", "coordinates": [ -70.6473144, -33.4353074 ] } },
{ "type": "Feature", "properties": { "addr_city": "Santiago", "addr_country": null, "addr_housenumber": "457", "addr_postcode": null, "addr_street": "Almirante Barroso", "addr_unit": null, "amenity": null, "attraction": null, "bicycle": null, "board_type": null, "building": null, "building_levels": null, "description": null, "ele": null, "historic": null, "information": null, "name": "Walking Santiago Boutique Hostel", "name_en": null, "name_es": null, "opening_hours": null, "operator": null, "phone": null, "ref": null, "source_transform": null, "tourism": "hostel", "website": null, "wheelchair": null, "zoo": null, "objectid": 6536963, "osm_id2": "5118516922" }, "geometry": { "type": "Point", "coordinates": [ -70.6622588, -33.4389311 ] } },
{ "type": "Feature", "properties": { "addr_city": "Santiago", "addr_country": null, "addr_housenumber": "2191", "addr_postcode": null, "addr_street": "Grajales", "addr_unit": null, "amenity": null, "attraction": null, "bicycle": null, "board_type": null, "building": null, "building_levels": null, "description": null, "ele": null, "historic": null, "information": null, "name": "Motel Sol & Luna", "name_en": null, "name_es": null, "opening_hours": null, "operator": null, "phone": null, "ref": null, "source_transform": null, "tourism": "motel", "website": null, "wheelchair": null, "zoo": null, "objectid": 6543795, "osm_id2": "4984101665" }, "geometry": { "type": "Point", "coordinates": [ -70.6660902, -33.4518044 ] } },
{ "type": "Feature", "properties": { "addr_city": "Santiago", "addr_country": "CL", "addr_housenumber": null, "addr_postcode": null, "addr_street": "Avenida Presidente Bulnes", "addr_unit": null, "amenity": null, "attraction": null, "bicycle": null, "board_type": null, "building": "yes", "building_levels": null, "description": null, "ele": null, "historic": null, "information": null, "name": "Altar de la Patria", "name_en": null, "name_es": null, "opening_hours": null, "operator": "Escuela Militar del Libertador Bernardo O'Higgins", "phone": null, "ref": null, "source_transform": null, "tourism": "museum", "website": null, "wheelchair": null, "zoo": null, "objectid": 10020526, "osm_id2": "10702579775" }, "geometry": { "type": "Point", "coordinates": [ -70.6533205, -33.4457192 ] } },
{ "type": "Feature", "properties": { "addr_city": "Santiago", "addr_country": null, "addr_housenumber": null, "addr_postcode": null, "addr_street": "Virginia Opazo", "addr_unit": null, "amenity": null, "attraction": null, "bicycle": null, "board_type": null, "building": null, "building_levels": null, "description": null, "ele": null, "historic": null, "information": null, "name": "Conjunto Virginia Opazo", "name_en": null, "name_es": null, "opening_hours": null, "operator": null, "phone": null, "ref": null, "source_transform": null, "tourism": "attraction", "website": null, "wheelchair": null, "zoo": null, "objectid": 10227513, "osm_id2": "10863898391" }, "geometry": { "type": "Point", "coordinates": [ -70.6691139, -33.4493816 ] } },
{ "type": "Feature", "properties": { "addr_city": "Santiago", "addr_country": "CL", "addr_housenumber": null, "addr_postcode": null, "addr_street": "Plaza de Armas", "addr_unit": null, "amenity": null, "attraction": null, "bicycle": null, "board_type": null, "building": null, "building_levels": null, "description": null, "ele": null, "historic": null, "information": null, "name": "STGO", "name_en": null, "name_es": null, "opening_hours": null, "operator": "Municipalidad de Santiago", "phone": null, "ref": null, "source_transform": null, "tourism": "attraction", "website": null, "wheelchair": null, "zoo": null, "objectid": 10255738, "osm_id2": "10882467334" }, "geometry": { "type": "Point", "coordinates": [ -70.6499774, -33.4373651 ] } },
{ "type": "Feature", "properties": { "addr_city": "Santiago", "addr_country": null, "addr_housenumber": "25", "addr_postcode": null, "addr_street": "Morandé", "addr_unit": null, "amenity": null, "attraction": null, "bicycle": null, "board_type": null, "building": null, "building_levels": null, "description": null, "ele": null, "historic": null, "information": null, "name": "Museo del Ahorro", "name_en": null, "name_es": null, "opening_hours": "Mo-Fr 09:00-14:00", "operator": "Banco Estado", "phone": null, "ref": null, "source_transform": null, "tourism": "museum", "website": null, "wheelchair": null, "zoo": null, "objectid": 10296987, "osm_id2": "10915399287" }, "geometry": { "type": "Point", "coordinates": [ -70.6528467, -33.4436168 ] } },
{ "type": "Feature", "properties": { "addr_city": "Santiago", "addr_country": null, "addr_housenumber": "650", "addr_postcode": null, "addr_street": "José Miguel de la Barra", "addr_unit": null, "amenity": null, "attraction": null, "bicycle": null, "board_type": null, "building": null, "building_levels": null, "description": null, "ele": null, "historic": null, "information": null, "name": "Museo Nacional de Bellas Artes", "name_en": null, "name_es": null, "opening_hours": null, "operator": "Servicio Nacional del Patrimonio Cultural", "phone": null, "ref": null, "source_transform": null, "tourism": "museum", "website": "http://www.mnba.cl/", "wheelchair": null, "zoo": null, "objectid": 10312259, "osm_id2": "10925461823" }, "geometry": { "type": "Point", "coordinates": [ -70.6434401, -33.4353501 ] } },
{ "type": "Feature", "properties": { "addr_city": "Santiago", "addr_country": null, "addr_housenumber": "438", "addr_postcode": null, "addr_street": "Dieciocho", "addr_unit": null, "amenity": null, "attraction": null, "bicycle": null, "board_type": null, "building": null, "building_levels": null, "description": null, "ele": null, "historic": null, "information": null, "name": "Museo Palacio Cousiño", "name_en": null, "name_es": null, "opening_hours": null, "operator": "Santiago Cultura", "phone": null, "ref": null, "source_transform": null, "tourism": "museum", "website": "http://www.palaciocousino.cl/", "wheelchair": null, "zoo": null, "objectid": 10317714, "osm_id2": "10928002663" }, "geometry": { "type": "Point", "coordinates": [ -70.6565849, -33.4523832 ] } },
{ "type": "Feature", "properties": { "addr_city": "Santiago", "addr_country": null, "addr_housenumber": "50", "addr_postcode": null, "addr_street": "Merced", "addr_unit": null, "amenity": null, "attraction": null, "bicycle": null, "board_type": null, "building": null, "building_levels": null, "description": null, "ele": null, "historic": null, "information": null, "name": "Museo de Química y Farmacia", "name_en": null, "name_es": null, "opening_hours": null, "operator": null, "phone": null, "ref": null, "source_transform": null, "tourism": "museum", "website": null, "wheelchair": null, "zoo": null, "objectid": 10317719, "osm_id2": "10927993051" }, "geometry": { "type": "Point", "coordinates": [ -70.63607, -33.4370031 ] } },
{ "type": "Feature", "properties": { "addr_city": "Santiago", "addr_country": null, "addr_housenumber": "1755", "addr_postcode": null, "addr_street": "Domeyko", "addr_unit": null, "amenity": null, "attraction": null, "bicycle": null, "board_type": null, "building": null, "building_levels": null, "description": null, "ele": null, "historic": null, "information": null, "name": "Alojamiento Domeyko Ceer", "name_en": null, "name_es": null, "opening_hours": null, "operator": null, "phone": null, "ref": null, "source_transform": null, "tourism": "guest_house", "website": null, "wheelchair": null, "zoo": null, "objectid": 6544916, "osm_id2": "6103024065" }, "geometry": { "type": "Point", "coordinates": [ -70.6592533, -33.4551264 ] } },
{ "type": "Feature", "properties": { "addr_city": "Santiago", "addr_country": null, "addr_housenumber": null, "addr_postcode": null, "addr_street": "Avenida Libertador Bernardo O'Higgins", "addr_unit": null, "amenity": null, "attraction": null, "bicycle": null, "board_type": null, "building": null, "building_levels": null, "description": null, "ele": null, "historic": null, "information": null, "name": "Sala de Exposiciones Museo de Arte Popular Americano", "name_en": null, "name_es": null, "opening_hours": null, "operator": "Facultad de Artes de la Universidad de Chile", "phone": null, "ref": null, "source_transform": null, "tourism": "gallery", "website": null, "wheelchair": null, "zoo": null, "objectid": 10299342, "osm_id2": "10916736194" }, "geometry": { "type": "Point", "coordinates": [ -70.6393024, -33.4388956 ] } },
{ "type": "Feature", "properties": { "addr_city": "Santiago", "addr_country": null, "addr_housenumber": null, "addr_postcode": null, "addr_street": "Catedral", "addr_unit": null, "amenity": null, "attraction": null, "bicycle": null, "board_type": null, "building": null, "building_levels": null, "description": null, "ele": null, "historic": null, "information": null, "name": "Pinacoteca MINREL", "name_en": null, "name_es": null, "opening_hours": null, "operator": "Ministerio RR.EE.", "phone": null, "ref": null, "source_transform": null, "tourism": "gallery", "website": null, "wheelchair": null, "zoo": null, "objectid": 10299923, "osm_id2": "10917526068" }, "geometry": { "type": "Point", "coordinates": [ -70.6539884, -33.437072 ] } },
{ "type": "Feature", "properties": { "addr_city": "Santiago", "addr_country": null, "addr_housenumber": "741", "addr_postcode": null, "addr_street": "Franklin", "addr_unit": null, "amenity": null, "attraction": null, "bicycle": null, "board_type": null, "building": null, "building_levels": null, "description": null, "ele": null, "historic": null, "information": null, "name": "Galerí AFA", "name_en": null, "name_es": null, "opening_hours": null, "operator": null, "phone": null, "ref": null, "source_transform": null, "tourism": "gallery", "website": null, "wheelchair": null, "zoo": null, "objectid": 10341582, "osm_id2": "10943405360" }, "geometry": { "type": "Point", "coordinates": [ -70.6431705, -33.4726907 ] } },
{ "type": "Feature", "properties": { "addr_city": "Santiago", "addr_country": null, "addr_housenumber": "1381", "addr_postcode": null, "addr_street": "Avenida Libertador Bernardo O'Higgins", "addr_unit": null, "amenity": null, "attraction": null, "bicycle": null, "board_type": null, "building": null, "building_levels": null, "description": null, "ele": null, "historic": null, "information": null, "name": "Galería de Arte Contemporáneo Gabriela Mistral", "name_en": null, "name_es": null, "opening_hours": null, "operator": "MINEDUC", "phone": null, "ref": null, "source_transform": null, "tourism": "gallery", "website": "http://galeriagm.cultura.gob.cl/", "wheelchair": null, "zoo": null, "objectid": 10364161, "osm_id2": "10962883556" }, "geometry": { "type": "Point", "coordinates": [ -70.6553669, -33.4444765 ] } },
{ "type": "Feature", "properties": { "addr_city": "Santiago", "addr_country": null, "addr_housenumber": "1301", "addr_postcode": null, "addr_street": "Avenida Presidente Balmaceda", "addr_unit": null, "amenity": null, "attraction": null, "bicycle": null, "board_type": null, "building": null, "building_levels": null, "description": null, "ele": null, "historic": null, "information": null, "name": "Museo del Circo Nacional", "name_en": null, "name_es": null, "opening_hours": null, "operator": null, "phone": null, "ref": null, "source_transform": null, "tourism": "museum", "website": null, "wheelchair": null, "zoo": null, "objectid": 10341493, "osm_id2": "10943273386" }, "geometry": { "type": "Point", "coordinates": [ -70.6559063, -33.4321095 ] } },
{ "type": "Feature", "properties": { "addr_city": "Santiago", "addr_country": null, "addr_housenumber": "1180", "addr_postcode": null, "addr_street": "Agustinas", "addr_unit": null, "amenity": null, "attraction": null, "bicycle": null, "board_type": null, "building": null, "building_levels": null, "description": null, "ele": null, "historic": null, "information": null, "name": "Museo Numismático", "name_en": null, "name_es": null, "opening_hours": null, "operator": "Banco Central de Chile", "phone": null, "ref": null, "source_transform": null, "tourism": "museum", "website": "https://www.museobancocentral.cl/", "wheelchair": null, "zoo": null, "objectid": 10341494, "osm_id2": "10943273387" }, "geometry": { "type": "Point", "coordinates": [ -70.6528204, -33.4411376 ] } },
{ "type": "Feature", "properties": { "addr_city": "Santiago", "addr_country": null, "addr_housenumber": null, "addr_postcode": null, "addr_street": "Plaza de Armas", "addr_unit": null, "amenity": null, "attraction": null, "bicycle": null, "board_type": null, "building": null, "building_levels": null, "description": null, "ele": null, "historic": null, "information": null, "name": "Museo de Arte Sagrado", "name_en": null, "name_es": null, "opening_hours": null, "operator": "Catedral Metropolitana de Santiago", "phone": null, "ref": null, "source_transform": null, "tourism": "museum", "website": "https://www.iglesiadesantiago.cl/", "wheelchair": null, "zoo": null, "objectid": 10341497, "osm_id2": "10943273390" }, "geometry": { "type": "Point", "coordinates": [ -70.6516195, -33.4378771 ] } },
{ "type": "Feature", "properties": { "addr_city": "Santiago", "addr_country": null, "addr_housenumber": "951", "addr_postcode": null, "addr_street": "Libertador Bernardo O'Higgins", "addr_unit": null, "amenity": null, "attraction": null, "bicycle": null, "board_type": null, "building": "yes", "building_levels": null, "description": null, "ele": null, "historic": null, "information": null, "name": "Museo Histórico Nacional", "name_en": null, "name_es": null, "opening_hours": null, "operator": null, "phone": "+56 2 2360 5272", "ref": null, "source_transform": null, "tourism": "museum", "website": null, "wheelchair": null, "zoo": null, "objectid": 10365024, "osm_id2": "10963945038" }, "geometry": { "type": "Point", "coordinates": [ -70.6506217, -33.4371206 ] } },
{ "type": "Feature", "properties": { "addr_city": "Santiago", "addr_country": null, "addr_housenumber": null, "addr_postcode": null, "addr_street": "Paseo República", "addr_unit": null, "amenity": null, "attraction": null, "bicycle": null, "board_type": null, "building": null, "building_levels": null, "description": null, "ele": null, "historic": null, "information": null, "name": "Casonas de Avenida República", "name_en": null, "name_es": null, "opening_hours": null, "operator": null, "phone": null, "ref": null, "source_transform": null, "tourism": "attraction", "website": null, "wheelchair": null, "zoo": null, "objectid": 10368122, "osm_id2": "10967136577" }, "geometry": { "type": "Point", "coordinates": [ -70.6673731, -33.4530423 ] } },
{ "type": "Feature", "properties": { "addr_city": "Santiago", "addr_country": null, "addr_housenumber": null, "addr_postcode": null, "addr_street": "Avenida Libertador Bernardo O'Higgins", "addr_unit": null, "amenity": null, "attraction": null, "bicycle": null, "board_type": null, "building": null, "building_levels": null, "description": null, "ele": null, "historic": null, "information": null, "name": "Museo del Juguete Chileno", "name_en": null, "name_es": null, "opening_hours": null, "operator": "U. Católica", "phone": null, "ref": null, "source_transform": "https://www.registromuseoschile.cl/663/w3-article-118016.html", "tourism": "museum", "website": null, "wheelchair": null, "zoo": null, "objectid": 10370886, "osm_id2": "10969732660" }, "geometry": { "type": "Point", "coordinates": [ -70.6415304, -33.4412429 ] } },
{ "type": "Feature", "properties": { "addr_city": "Santiago", "addr_country": null, "addr_housenumber": "84", "addr_postcode": null, "addr_street": "Merced", "addr_unit": null, "amenity": null, "attraction": null, "bicycle": null, "board_type": null, "building": null, "building_levels": null, "description": null, "ele": null, "historic": null, "information": null, "name": "Luciano K", "name_en": null, "name_es": null, "opening_hours": null, "operator": null, "phone": null, "ref": null, "source_transform": null, "tourism": "hotel", "website": null, "wheelchair": null, "zoo": null, "objectid": 6386057, "osm_id2": "4919896014" }, "geometry": { "type": "Point", "coordinates": [ -70.6364941, -33.436986 ] } },
{ "type": "Feature", "properties": { "addr_city": "Santiago", "addr_country": null, "addr_housenumber": "136", "addr_postcode": "6513491", "addr_street": "Avenida Libertador Bernardo O'Higgins", "addr_unit": null, "amenity": null, "attraction": null, "bicycle": null, "board_type": null, "building": null, "building_levels": null, "description": null, "ele": null, "historic": null, "information": null, "name": "Le Meridien Hotel", "name_en": null, "name_es": null, "opening_hours": null, "operator": null, "phone": "+56 2 2685 5030", "ref": null, "source_transform": null, "tourism": "hotel", "website": "https://www.marriott.com/es/hotels/sclhp-le-meridien-santiago/overview/", "wheelchair": null, "zoo": null, "objectid": 6386155, "osm_id2": "252528804" }, "geometry": { "type": "Point", "coordinates": [ -70.6369183, -33.438441 ] } },
{ "type": "Feature", "properties": { "addr_city": "Santiago", "addr_country": null, "addr_housenumber": "526", "addr_postcode": null, "addr_street": "Santo Domingo", "addr_unit": null, "amenity": null, "attraction": null, "bicycle": null, "board_type": null, "building": null, "building_levels": null, "description": null, "ele": null, "historic": null, "information": null, "name": "Hotel Altiplanico", "name_en": null, "name_es": null, "opening_hours": null, "operator": null, "phone": null, "ref": null, "source_transform": null, "tourism": "hotel", "website": null, "wheelchair": null, "zoo": null, "objectid": 6386238, "osm_id2": "1841310713" }, "geometry": { "type": "Point", "coordinates": [ -70.6448884, -33.435641 ] } },
{ "type": "Feature", "properties": { "addr_city": "Santiago", "addr_country": "CL", "addr_housenumber": "65", "addr_postcode": null, "addr_street": "Victoria Subercaseaux", "addr_unit": null, "amenity": null, "attraction": null, "bicycle": null, "board_type": null, "building": null, "building_levels": null, "description": null, "ele": null, "historic": null, "information": null, "name": "Hotel Windsor", "name_en": null, "name_es": null, "opening_hours": null, "operator": null, "phone": "+5624693100", "ref": null, "source_transform": null, "tourism": "hotel", "website": "http://www.hotelwindsor.cl", "wheelchair": null, "zoo": null, "objectid": 6388559, "osm_id2": "1130734017" }, "geometry": { "type": "Point", "coordinates": [ -70.641995699599207, -33.440275099813199 ] } },
{ "type": "Feature", "properties": { "addr_city": "Santiago", "addr_country": null, "addr_housenumber": "1060", "addr_postcode": null, "addr_street": "Santo Domingo", "addr_unit": null, "amenity": null, "attraction": null, "bicycle": null, "board_type": null, "building": null, "building_levels": null, "description": null, "ele": null, "historic": null, "information": null, "name": "Espacio Creativo VETA", "name_en": null, "name_es": null, "opening_hours": null, "operator": "Espacio Creativo VETA", "phone": null, "ref": null, "source_transform": null, "tourism": "gallery", "website": null, "wheelchair": null, "zoo": null, "objectid": 11402323, "osm_id2": "11992918662" }, "geometry": { "type": "Point", "coordinates": [ -70.6522735, -33.43641 ] } },
{ "type": "Feature", "properties": { "addr_city": "Santiago", "addr_country": null, "addr_housenumber": "1061", "addr_postcode": null, "addr_street": "Santo Domingo", "addr_unit": null, "amenity": null, "attraction": null, "bicycle": null, "board_type": null, "building": null, "building_levels": null, "description": null, "ele": null, "historic": null, "information": null, "name": "Sala Gasco", "name_en": null, "name_es": null, "opening_hours": null, "operator": null, "phone": null, "ref": null, "source_transform": null, "tourism": "gallery", "website": null, "wheelchair": null, "zoo": null, "objectid": 11402324, "osm_id2": "11992918663" }, "geometry": { "type": "Point", "coordinates": [ -70.6522891, -33.4361956 ] } },
{ "type": "Feature", "properties": { "addr_city": "Santiago", "addr_country": null, "addr_housenumber": "632", "addr_postcode": null, "addr_street": "Avenida Libertador Bernardo O'Higgins", "addr_unit": null, "amenity": null, "attraction": null, "bicycle": null, "board_type": null, "building": null, "building_levels": null, "description": null, "ele": null, "historic": null, "information": null, "name": "Mercure Hotel Santiago Centro", "name_en": null, "name_es": null, "opening_hours": null, "operator": null, "phone": "+56 2 25956622", "ref": null, "source_transform": null, "tourism": "hotel", "website": "https://www.accorhotels.com/gb/hotel-8924-mercure-santiago-centro/index.shtml", "wheelchair": null, "zoo": null, "objectid": 6389321, "osm_id2": "1297908107" }, "geometry": { "type": "Point", "coordinates": [ -70.645226, -33.4429414 ] } },
{ "type": "Feature", "properties": { "addr_city": "Santiago", "addr_country": null, "addr_housenumber": "547", "addr_postcode": null, "addr_street": "Almirante Barroso", "addr_unit": null, "amenity": null, "attraction": null, "bicycle": null, "board_type": null, "building": null, "building_levels": null, "description": null, "ele": null, "historic": null, "information": null, "name": "Hostal Yungay", "name_en": null, "name_es": null, "opening_hours": null, "operator": null, "phone": null, "ref": null, "source_transform": null, "tourism": "hotel", "website": "https://www.hostalyungay.com/", "wheelchair": null, "zoo": null, "objectid": 6534787, "osm_id2": "5265801846" }, "geometry": { "type": "Point", "coordinates": [ -70.662400100336299, -33.437924999402 ] } },
{ "type": "Feature", "properties": { "addr_city": "Santiago", "addr_country": null, "addr_housenumber": "1178", "addr_postcode": null, "addr_street": "Paseo Huérfanos", "addr_unit": null, "amenity": null, "attraction": null, "bicycle": null, "board_type": null, "building": null, "building_levels": null, "description": null, "ele": null, "historic": null, "information": null, "name": "Gran Palace", "name_en": null, "name_es": null, "opening_hours": null, "operator": null, "phone": null, "ref": null, "source_transform": null, "tourism": "hotel", "website": null, "wheelchair": null, "zoo": null, "objectid": 6536370, "osm_id2": "2584336815" }, "geometry": { "type": "Point", "coordinates": [ -70.6533345, -33.4399597 ] } },
{ "type": "Feature", "properties": { "addr_city": "Santiago", "addr_country": "CL", "addr_housenumber": "320", "addr_postcode": "4323315", "addr_street": "Teatinos", "addr_unit": null, "amenity": null, "attraction": null, "bicycle": null, "board_type": null, "building": null, "building_levels": null, "description": null, "ele": null, "historic": null, "information": null, "name": "Panamericano", "name_en": null, "name_es": null, "opening_hours": null, "operator": null, "phone": null, "ref": null, "source_transform": null, "tourism": "hotel", "website": "http://www.hotelpanamericano.cl", "wheelchair": null, "zoo": null, "objectid": 6536388, "osm_id2": "5247229969" }, "geometry": { "type": "Point", "coordinates": [ -70.655561800101793, -33.439804699522298 ] } },
{ "type": "Feature", "properties": { "addr_city": "Santiago", "addr_country": null, "addr_housenumber": "1400", "addr_postcode": null, "addr_street": "Huérfanos", "addr_unit": null, "amenity": null, "attraction": null, "bicycle": null, "board_type": null, "building": null, "building_levels": null, "description": null, "ele": null, "historic": null, "information": null, "name": "Windsor Palace Apartment Hotel", "name_en": null, "name_es": null, "opening_hours": null, "operator": null, "phone": null, "ref": null, "source_transform": null, "tourism": "hotel", "website": null, "wheelchair": null, "zoo": null, "objectid": 6536405, "osm_id2": "1276982845" }, "geometry": { "type": "Point", "coordinates": [ -70.6568912, -33.4403431 ] } },
{ "type": "Feature", "properties": { "addr_city": "Santiago", "addr_country": null, "addr_housenumber": "65", "addr_postcode": "8320263", "addr_street": null, "addr_unit": null, "amenity": null, "attraction": null, "bicycle": null, "board_type": null, "building": null, "building_levels": null, "description": null, "ele": null, "historic": null, "information": null, "name": "Hotel Galerias", "name_en": null, "name_es": null, "opening_hours": null, "operator": null, "phone": "+56 224707400", "ref": null, "source_transform": "Reconocimiento cartográfico de campo 2016 por KG", "tourism": "hotel", "website": "http://www.hotelgalerias.cl", "wheelchair": null, "zoo": null, "objectid": 6536595, "osm_id2": "470355001" }, "geometry": { "type": "Point", "coordinates": [ -70.6476545001875, -33.441878699874202 ] } },
{ "type": "Feature", "properties": { "addr_city": "Santiago", "addr_country": null, "addr_housenumber": "816", "addr_postcode": null, "addr_street": "Avenida Libertador Bernardo O'Higgins", "addr_unit": null, "amenity": null, "attraction": null, "bicycle": null, "board_type": null, "building": null, "building_levels": null, "description": null, "ele": null, "historic": null, "information": null, "name": "Hotel Plaza San Francisco", "name_en": null, "name_es": null, "opening_hours": null, "operator": null, "phone": "+56 226393832", "ref": null, "source_transform": null, "tourism": "hotel", "website": "https://www.plazasanfrancisco.cl/", "wheelchair": null, "zoo": null, "objectid": 6537294, "osm_id2": "373489716" }, "geometry": { "type": "Point", "coordinates": [ -70.648301599805805, -33.443698099909199 ] } },
{ "type": "Feature", "properties": { "addr_city": "Santiago", "addr_country": null, "addr_housenumber": null, "addr_postcode": null, "addr_street": null, "addr_unit": null, "amenity": null, "attraction": null, "bicycle": null, "board_type": null, "building": null, "building_levels": null, "description": null, "ele": null, "historic": null, "information": null, "name": "Sala de Artes Visuales USACH", "name_en": null, "name_es": null, "opening_hours": null, "operator": null, "phone": null, "ref": null, "source_transform": null, "tourism": "gallery", "website": null, "wheelchair": null, "zoo": null, "objectid": 11679677, "osm_id2": "12241457955" }, "geometry": { "type": "Point", "coordinates": [ -70.6651942, -33.4464253 ] } },
{ "type": "Feature", "properties": { "addr_city": "Santiago", "addr_country": null, "addr_housenumber": null, "addr_postcode": null, "addr_street": "Avenida Libertador Bernardo O'Higgins", "addr_unit": null, "amenity": null, "attraction": null, "bicycle": null, "board_type": null, "building": null, "building_levels": null, "description": null, "ele": null, "historic": null, "information": null, "name": "Galería Biophilia", "name_en": null, "name_es": null, "opening_hours": null, "operator": null, "phone": null, "ref": null, "source_transform": null, "tourism": "gallery", "website": "https://www.instagram.com/galeria.biophiliaceramicas/", "wheelchair": null, "zoo": null, "objectid": 11679679, "osm_id2": "12241449380" }, "geometry": { "type": "Point", "coordinates": [ -70.6397609, -33.43893 ] } },
{ "type": "Feature", "properties": { "addr_city": "Santiago", "addr_country": null, "addr_housenumber": "301-A", "addr_postcode": null, "addr_street": "Villavicencio", "addr_unit": null, "amenity": null, "attraction": null, "bicycle": null, "board_type": null, "building": null, "building_levels": null, "description": null, "ele": null, "historic": null, "information": null, "name": "Galeria Fotográfica FLACH", "name_en": null, "name_es": null, "opening_hours": null, "operator": null, "phone": null, "ref": null, "source_transform": null, "tourism": "gallery", "website": "https://flach.cl/", "wheelchair": null, "zoo": null, "objectid": 11679680, "osm_id2": "12241449381" }, "geometry": { "type": "Point", "coordinates": [ -70.6393311, -33.4381346 ] } },
{ "type": "Feature", "properties": { "addr_city": "Santiago", "addr_country": null, "addr_housenumber": null, "addr_postcode": null, "addr_street": null, "addr_unit": null, "amenity": null, "attraction": null, "bicycle": null, "board_type": null, "building": null, "building_levels": null, "description": null, "ele": null, "historic": null, "information": null, "name": "Sala Museo Centro Nacional de la Fotografía", "name_en": null, "name_es": null, "opening_hours": null, "operator": "UDP", "phone": null, "ref": null, "source_transform": "https://www.registromuseoschile.cl/663/w3-article-91541.html", "tourism": "gallery", "website": "https://bibliotecanicanorparra.udp.cl/", "wheelchair": null, "zoo": null, "objectid": 12227548, "osm_id2": "12542607456" }, "geometry": { "type": "Point", "coordinates": [ -70.6609736, -33.4511784 ] } },
{ "type": "Feature", "properties": { "addr_city": "Santiago", "addr_country": null, "addr_housenumber": null, "addr_postcode": null, "addr_street": "La Bolsa", "addr_unit": null, "amenity": null, "attraction": null, "bicycle": null, "board_type": null, "building": null, "building_levels": null, "description": null, "ele": null, "historic": null, "information": "office", "name": "Oficina de Información Turística Regional de Santiago", "name_en": null, "name_es": null, "opening_hours": null, "operator": "Gobierno de Santiago", "phone": null, "ref": null, "source_transform": null, "tourism": "information", "website": null, "wheelchair": null, "zoo": null, "objectid": 11101438, "osm_id2": "11563084820" }, "geometry": { "type": "Point", "coordinates": [ -70.6517573, -33.4423742 ] } },
{ "type": "Feature", "properties": { "addr_city": "Santiago", "addr_country": null, "addr_housenumber": null, "addr_postcode": null, "addr_street": "Avenida Libertador Bernardo O'Higgins", "addr_unit": null, "amenity": null, "attraction": null, "bicycle": null, "board_type": null, "building": null, "building_levels": null, "description": null, "ele": null, "historic": null, "information": null, "name": "Sala Museo Gabriela Mistral", "name_en": null, "name_es": null, "opening_hours": null, "operator": "U. De Chile", "phone": null, "ref": null, "source_transform": null, "tourism": "museum", "website": null, "wheelchair": null, "zoo": null, "objectid": 11359488, "osm_id2": "11949131844" }, "geometry": { "type": "Point", "coordinates": [ -70.6512464, -33.4444723 ] } },
{ "type": "Feature", "properties": { "addr_city": "Santiago", "addr_country": null, "addr_housenumber": null, "addr_postcode": null, "addr_street": "Avenida Viel", "addr_unit": null, "amenity": null, "attraction": null, "bicycle": null, "board_type": null, "building": null, "building_levels": null, "description": null, "ele": null, "historic": null, "information": null, "name": "Insectario del Parque", "name_en": null, "name_es": null, "opening_hours": null, "operator": null, "phone": null, "ref": null, "source_transform": null, "tourism": "museum", "website": null, "wheelchair": null, "zoo": null, "objectid": 11664991, "osm_id2": "12219866036" }, "geometry": { "type": "Point", "coordinates": [ -70.6579763, -33.4623407 ] } },
{ "type": "Feature", "properties": { "addr_city": "Santiago", "addr_country": null, "addr_housenumber": "2267", "addr_postcode": null, "addr_street": "Agustinas", "addr_unit": null, "amenity": null, "attraction": null, "bicycle": null, "board_type": null, "building": null, "building_levels": null, "description": null, "ele": null, "historic": null, "information": null, "name": "Museo Ocean Pacific's", "name_en": null, "name_es": null, "opening_hours": null, "operator": null, "phone": null, "ref": null, "source_transform": null, "tourism": "museum", "website": "https://oceanpacifics.cl/museo/", "wheelchair": null, "zoo": null, "objectid": 11679675, "osm_id2": "12241457953" }, "geometry": { "type": "Point", "coordinates": [ -70.6675178, -33.4421117 ] } },
{ "type": "Feature", "properties": { "addr_city": "Santiago", "addr_country": null, "addr_housenumber": "637", "addr_postcode": null, "addr_street": "Santa Elvira", "addr_unit": null, "amenity": null, "attraction": null, "bicycle": null, "board_type": null, "building": null, "building_levels": null, "description": null, "ele": null, "historic": null, "information": null, "name": "Museo Patrimonial de Salud", "name_en": null, "name_es": null, "opening_hours": null, "operator": null, "phone": null, "ref": null, "source_transform": null, "tourism": "museum", "website": "https://museohospitalsb.wixsite.com/home", "wheelchair": null, "zoo": null, "objectid": 12069010, "osm_id2": "12393038712" }, "geometry": { "type": "Point", "coordinates": [ -70.6411802, -33.4614041 ] } },
{ "type": "Feature", "properties": { "addr_city": "Santiago", "addr_country": null, "addr_housenumber": "674", "addr_postcode": null, "addr_street": "General Baquedano", "addr_unit": null, "amenity": null, "attraction": null, "bicycle": null, "board_type": null, "building": null, "building_levels": null, "description": null, "ele": null, "historic": null, "information": null, "name": "Museo Marista", "name_en": null, "name_es": null, "opening_hours": null, "operator": "Colegio Marista Santiago", "phone": null, "ref": null, "source_transform": "https://www.registromuseoschile.cl/663/w3-article-91142.html", "tourism": "museum", "website": "https://www.maristas.cl/obras_y_servicios/museo_marista", "wheelchair": null, "zoo": null, "objectid": 12227547, "osm_id2": "12542607455" }, "geometry": { "type": "Point", "coordinates": [ -70.6663141, -33.4368794 ] } },
{ "type": "Feature", "properties": { "addr_city": "Santiago", "addr_country": null, "addr_housenumber": "501", "addr_postcode": null, "addr_street": "Curicó", "addr_unit": null, "amenity": null, "attraction": null, "bicycle": null, "board_type": null, "building": null, "building_levels": null, "description": null, "ele": null, "historic": null, "information": null, "name": "Y las aguas se juntaron", "name_en": null, "name_es": null, "opening_hours": null, "operator": null, "phone": null, "ref": null, "source_transform": null, "tourism": "artwork", "website": null, "wheelchair": null, "zoo": null, "objectid": 6389519, "osm_id2": "1279295349" }, "geometry": { "type": "Point", "coordinates": [ -70.6423867, -33.446005 ] } },
{ "type": "Feature", "properties": { "addr_city": "Santiago", "addr_country": null, "addr_housenumber": "813", "addr_postcode": null, "addr_street": "París", "addr_unit": null, "amenity": null, "attraction": null, "bicycle": null, "board_type": null, "building": null, "building_levels": null, "description": null, "ele": null, "historic": null, "information": null, "name": "Hotel Paris", "name_en": null, "name_es": null, "opening_hours": null, "operator": null, "phone": null, "ref": null, "source_transform": null, "tourism": "hotel", "website": null, "wheelchair": null, "zoo": null, "objectid": 6537471, "osm_id2": "3370832893" }, "geometry": { "type": "Point", "coordinates": [ -70.647608, -33.444477 ] } },
{ "type": "Feature", "properties": { "addr_city": "Santiago", "addr_country": null, "addr_housenumber": "62", "addr_postcode": null, "addr_street": "Serrano", "addr_unit": null, "amenity": null, "attraction": null, "bicycle": null, "board_type": null, "building": null, "building_levels": null, "description": null, "ele": null, "historic": null, "information": null, "name": "Plaza Paris Amistar", "name_en": null, "name_es": null, "opening_hours": null, "operator": null, "phone": null, "ref": null, "source_transform": null, "tourism": "hotel", "website": "https://www.amistar.cl/", "wheelchair": null, "zoo": null, "objectid": 6537505, "osm_id2": "5328115016" }, "geometry": { "type": "Point", "coordinates": [ -70.6491239, -33.4451563 ] } },
{ "type": "Feature", "properties": { "addr_city": "Santiago", "addr_country": null, "addr_housenumber": "1485", "addr_postcode": null, "addr_street": "Avenida Libertador Bernardo O'Higgins", "addr_unit": null, "amenity": null, "attraction": null, "bicycle": null, "board_type": null, "building": null, "building_levels": null, "description": null, "ele": null, "historic": null, "information": null, "name": "Hotel Diego de Almagro", "name_en": null, "name_es": null, "opening_hours": null, "operator": null, "phone": null, "ref": null, "source_transform": "Reconocimiento cortográfico de campo 2016 por KG", "tourism": "hotel", "website": null, "wheelchair": null, "zoo": null, "objectid": 6537900, "osm_id2": "470354998" }, "geometry": { "type": "Point", "coordinates": [ -70.657159300222702, -33.444762299498699 ] } },
{ "type": "Feature", "properties": { "addr_city": "Santiago", "addr_country": null, "addr_housenumber": null, "addr_postcode": null, "addr_street": "Cerro Santa Lucía", "addr_unit": null, "amenity": null, "attraction": null, "bicycle": null, "board_type": null, "building": null, "building_levels": null, "description": null, "ele": null, "historic": null, "information": "office", "name": "Oficina de Turismo", "name_en": null, "name_es": null, "opening_hours": null, "operator": "Municipalidad de Santiago", "phone": null, "ref": null, "source_transform": null, "tourism": "information", "website": null, "wheelchair": null, "zoo": null, "objectid": 6388681, "osm_id2": "6878646586" }, "geometry": { "type": "Point", "coordinates": [ -70.6441956, -33.4415502 ] } },
{ "type": "Feature", "properties": { "addr_city": "Santiago", "addr_country": null, "addr_housenumber": "2149", "addr_postcode": null, "addr_street": "Agustinas", "addr_unit": null, "amenity": null, "attraction": null, "bicycle": null, "board_type": null, "building": null, "building_levels": null, "description": null, "ele": null, "historic": null, "information": null, "name": "Matildas Hotel Boutique", "name_en": null, "name_es": null, "opening_hours": null, "operator": null, "phone": null, "ref": null, "source_transform": null, "tourism": "hotel", "website": null, "wheelchair": "no", "zoo": null, "objectid": 10177338, "osm_id2": "10814470832" }, "geometry": { "type": "Point", "coordinates": [ -70.6661622, -33.4420169 ] } }
]
}
