{
"type": "FeatureCollection",
"name": "centros_sernam_filtrados",
"crs": { "type": "name", "properties": { "name": "urn:ogc:def:crs:OGC:1.3:CRS84" } },
"features": [
{ "type": "Feature", "properties": { "NOMBRE_CEN": "Centro de la Mujer de Mulchén", "EJECUTOR": "Municipio de Mulchén", "COBERTURA": "Mulchén, Quilaco, Santa Bárbara, Negrete", "DIRECCION": "Sotomayor 260, Mulchén", "TELEFONO": "(43) 240 1472; 54 232 733", "EMAIL": "centromujermulchen@munimulchen.cl", "REGION": "Bio Bio" }, "geometry": { "type": "Point", "coordinates": [ -72.24416648376851, -37.72111231133924 ] } },
{ "type": "Feature", "properties": { "NOMBRE_CEN": "Centro de la Mujer de Cabrero", "EJECUTOR": "Municipio de Cabrero", "COBERTURA": "Cabrero, Yumbel, Yungay, Tucapel", "DIRECCION": "General Cruz s/n Plazoleta Timmermman, Cabrero", "TELEFONO": "(43) 241 1933 ; 9 - 65 09 128", "EMAIL": "centrodelamujer.cabrero@gmail.com", "REGION": "Bio Bio" }, "geometry": { "type": "Point", "coordinates": [ -72.400283912640944, -37.036127650811082 ] } },
{ "type": "Feature", "properties": { "NOMBRE_CEN": "Centro de la Mujer de Curanilahue", "EJECUTOR": "Municipio de Curanilahue", "COBERTURA": "Curanilahue, Lebu, Los Álamos", "DIRECCION": "Lautaro Nº1290, Curanilahue.", "TELEFONO": "(41) 269 05 47; 789 00 241", "EMAIL": "centromujer@munichue.cl", "REGION": "Bio Bio" }, "geometry": { "type": "Point", "coordinates": [ -73.347710581433645, -37.476012344961326 ] } },
{ "type": "Feature", "properties": { "NOMBRE_CEN": "Centro de la Mujer de Cañete", "EJECUTOR": "Municipio de Cañete", "COBERTURA": "Cañete, Contulmo, Tirua", "DIRECCION": "Villagrán Nº 290, Cañete.", "TELEFONO": "(41) 261 21 43; 56 132 095", "EMAIL": "centrodelamujer@municanete.cl", "REGION": "Bio Bio" }, "geometry": { "type": "Point", "coordinates": [ -73.398111703947862, -37.799067516915677 ] } },
{ "type": "Feature", "properties": { "NOMBRE_CEN": "Centro de la Mujer de Arauco", "EJECUTOR": "Municipio de Arauco", "COBERTURA": "Arauco", "DIRECCION": "Los Duraznos, Pobl. Los  Pinos  S/Nº, Arauco.", "TELEFONO": "(41) 255 23 41; 927 649 06", "EMAIL": "centroaraucovif@gmail.com", "REGION": "Bio Bio" }, "geometry": { "type": "Point", "coordinates": [ -73.312403702854596, -37.249236920822121 ] } },
{ "type": "Feature", "properties": { "NOMBRE_CEN": "Centro de la Mujer de Concepción", "EJECUTOR": "Gobernación de Concepción", "COBERTURA": "Concepción, San Pedro de la Paz y Santa Juana", "DIRECCION": "O’Higgins  12 63- B.  Concepción", "TELEFONO": "(41) 218 3596; (09) 665 792 96 / 97", "EMAIL": "centrodelamujerconcepcion@gmail.com", "REGION": "Bio Bio" }, "geometry": { "type": "Point", "coordinates": [ -73.04092378667481, -36.823782462371945 ] } },
{ "type": "Feature", "properties": { "NOMBRE_CEN": "Centro de la Mujer de Penco", "EJECUTOR": "Municipio de Penco", "COBERTURA": "Coelemu, Trehuaco, Penco y Tomé", "DIRECCION": "Maipú 235, Penco", "TELEFONO": "(41) 226 1380 (81); 7 - 58 811 47", "EMAIL": "centrovif.penco@gmail.com - centrovif@penco.cl", "REGION": "Bio Bio" }, "geometry": { "type": "Point", "coordinates": [ -72.993593947126726, -36.737259524235938 ] } },
{ "type": "Feature", "properties": { "NOMBRE_CEN": "Centro de la Mujer de Chiguayante", "EJECUTOR": "Gobernación de Concepción", "COBERTURA": "Chiguayante, Hualqui, Florida", "DIRECCION": "O’Higgins Nº 17(42) 1-A, Chiguayante", "TELEFONO": "(41) 323 8391 / 92; 6 - 65 792 98 / 99.", "EMAIL": "centromujerchgte.hualqui@gmail.com", "REGION": "Bio Bio" }, "geometry": { "type": "Point", "coordinates": [ -73.02150656689264, -36.925498183846294 ] } },
{ "type": "Feature", "properties": { "NOMBRE_CEN": "Centro de la Mujer de Chillán", "EJECUTOR": "Municipio de Chillán", "COBERTURA": "Chillán, Chillán Viejo, Bulnes, Pinto y Coihueco", "DIRECCION": "Claudio  Arrau 596, 1e piso", "TELEFONO": "(42) 287 64 66 (67 - 68 - 69)", "EMAIL": "centrovifsernamchillan@gmail.com", "REGION": "Bio Bio" }, "geometry": { "type": "Point", "coordinates": [ -72.107361157310677, -36.606454219624538 ] } },
{ "type": "Feature", "properties": { "NOMBRE_CEN": "Centro de la Mujer de Talcahuano", "EJECUTOR": "Municipio de Talcahuano", "COBERTURA": "Hualpén, Talcahuano", "DIRECCION": "Colón Nº948 – A, 2ºPpiso, Talcahuano", "TELEFONO": "(41) 250 4333-35-36; 7 - 88 867 41.", "EMAIL": "centromujerthno@gmail.com", "REGION": "Bio Bio" }, "geometry": { "type": "Point", "coordinates": [ -73.110065638201604, -36.718318772463036 ] } },
{ "type": "Feature", "properties": { "NOMBRE_CEN": "Centro de la Mujer de Coronel", "EJECUTOR": "Municipio de Coronel", "COBERTURA": "Coronel, Lota", "DIRECCION": "Cousiño 220 (esq. Sotomayor), Coronel", "TELEFONO": "(41) 271 4265-95; 8 - 18 5(41) 66", "EMAIL": "centrovifcoronel@gmail.com", "REGION": "Bio Bio" }, "geometry": { "type": "Point", "coordinates": [ -73.147468071900875, -37.025458057287118 ] } },
{ "type": "Feature", "properties": { "NOMBRE_CEN": "Centro de la Mujer de San Carlos", "EJECUTOR": "Municipio de San Carlos", "COBERTURA": "San Carlos, Quirihue, San Nicolás, Niquén y Ninhue", "DIRECCION": "Serrano Nº261, San Carlos", "TELEFONO": "(42) 241 22 03; 61238828", "EMAIL": "centrovifsancarlos@gmail.com", "REGION": "Bio Bio" }, "geometry": { "type": "Point", "coordinates": [ -71.96466332197555, -36.428019017077077 ] } },
{ "type": "Feature", "properties": { "NOMBRE_CEN": "Centro de la Mujer de Los Ángeles", "EJECUTOR": "Municipio de Los Angeles", "COBERTURA": "Los Angeles, Antuco y Quilleco", "DIRECCION": "San Martín 289, Piso 2, Los Ángeles", "TELEFONO": "(43) 232 0822; 9 – 61 28 313", "EMAIL": "centroviflosangeles@gmail.com - centrodelamujer@losangeles.cl", "REGION": "Bio Bio" }, "geometry": { "type": "Point", "coordinates": [ -72.352901176364554, -37.475342711486277 ] } },
{ "type": "Feature", "properties": { "NOMBRE_CEN": "Centro de Hombres por una vida sin violencia", "EJECUTOR": "Gobernación de Concepción", "COBERTURA": "Cobertura regional", "DIRECCION": "Salas  238,  Concepción.", "TELEFONO": "(41) 288 53 95; 6 - 65 792 96", "EMAIL": "centrohombressernamconcepcion@gmail.com", "REGION": "Bio Bio" }, "geometry": { "type": "Point", "coordinates": [ -73.054424343624703, -36.831665444413623 ] } },
{ "type": "Feature", "properties": { "NOMBRE_CEN": "Centro de la Mujer Provincia Melipilla", "EJECUTOR": "Municipalidad de Melipilla", "COBERTURA": "Melipilla, María Pinto, San Pedro", "DIRECCION": "Ortuzar N° 325, Melipilla", "TELEFONO": "(02) 2831 2806", "EMAIL": "centrodelamujermelipilla@gmail.com", "REGION": "Metropolitana" }, "geometry": { "type": "Point", "coordinates": [ -71.215109999803843, -33.684081000286547 ] } },
{ "type": "Feature", "properties": { "NOMBRE_CEN": "Centro de la Mujer Peñalolén", "EJECUTOR": "Municipalidad de Peñalolen", "COBERTURA": "Peñalolén", "DIRECCION": "Calle 17-A , Nº 931, Villa Naciones Unidas Peñalolén", "TELEFONO": "(02) 2279 1761 - (02) 2279 3009", "EMAIL": "centromujer@penalolen.cl", "REGION": "Metropolitana" }, "geometry": { "type": "Point", "coordinates": [ -70.551611000477777, -33.466270000223886 ] } },
{ "type": "Feature", "properties": { "NOMBRE_CEN": "Centro de la Mujer San Bernardo", "EJECUTOR": "Municipalidad de San Bernardo", "COBERTURA": "San Bernardo, Buin, Paine", "DIRECCION": "Avenida Colón Nº 807, San Bernardo", "TELEFONO": "(02) 2927 0962", "EMAIL": "centrodelamujersanbernardo@gmail.com", "REGION": "Metropolitana" }, "geometry": { "type": "Point", "coordinates": [ -70.684992999645416, -33.593828000036964 ] } },
{ "type": "Feature", "properties": { "NOMBRE_CEN": "Centro de la Mujer Maipú", "EJECUTOR": "Municipalidad de Maipú", "COBERTURA": "Maipú", "DIRECCION": "General Ordoñez N°176 – Depto. 405 -406 Maipú", "TELEFONO": "(02) 2677 6741 - 2677 6742", "EMAIL": "vifponiente@maipu.cl", "REGION": "Metropolitana" }, "geometry": { "type": "Point", "coordinates": [ -70.759732999874956, -33.507854999826776 ] } },
{ "type": "Feature", "properties": { "NOMBRE_CEN": "Centro de la Mujer Conchalí", "EJECUTOR": "Municipalidad de Conchalí", "COBERTURA": "Conchalí, Huechuraba", "DIRECCION": "Dorsal Nº 1751, Conchalí", "TELEFONO": "(02) 2736 1276", "EMAIL": "centromujerzonanorte@gmail.com", "REGION": "Metropolitana" }, "geometry": { "type": "Point", "coordinates": [ -70.668642999681325, -33.397350999910074 ] } },
{ "type": "Feature", "properties": { "NOMBRE_CEN": "Centro de la Mujer La Pintana", "EJECUTOR": "Municipalidad de La Pintana", "COBERTURA": "La Pintana", "DIRECCION": "Av. José Manuel Balmaceda Nº 1231 Población San Rafael, La Pintana", "TELEFONO": "(02) 2389 6822 - 2389 6815 - 2389 6824", "EMAIL": "cmpintana@yahoo.es", "REGION": "Metropolitana" }, "geometry": { "type": "Point", "coordinates": [ -70.639696000029076, -33.578916000429054 ] } },
{ "type": "Feature", "properties": { "NOMBRE_CEN": "Centro de la Mujer Quilicura", "EJECUTOR": "Municipalidad de Quilicura", "COBERTURA": "Quilicura", "DIRECCION": "Pasaje Hugo Muñoz Clavero Nº 0297 Villa Jardín del Sol, Quilicura", "TELEFONO": "(02) 2739 8711 - 2739 8678", "EMAIL": "centromujerquilicura@gmail.com", "REGION": "Metropolitana" }, "geometry": { "type": "Point", "coordinates": [ -70.728542999521068, -33.359585999754231 ] } },
{ "type": "Feature", "properties": { "NOMBRE_CEN": "Centro de la Mujer La Granja", "EJECUTOR": "Municipalidad de La Granja", "COBERTURA": "La Granja", "DIRECCION": "Av. San Gregorio N° 0449 con Serena- La Granja", "TELEFONO": null, "EMAIL": "centromujerlg@gmail.com", "REGION": "Metropolitana" }, "geometry": { "type": "Point", "coordinates": [ -70.62347900013151, -33.537781000300484 ] } },
{ "type": "Feature", "properties": { "NOMBRE_CEN": "Centro de la Mujer Pudahuel", "EJECUTOR": "Municipalidad de Pudahuel", "COBERTURA": "Pudahuel", "DIRECCION": "Heráldica Nº 8921, Pudahuel", "TELEFONO": "(02) 2644 3902", "EMAIL": "centromujer.pudahuel@gmail.com", "REGION": "Metropolitana" }, "geometry": { "type": "Point", "coordinates": [ -70.757238999934415, -33.437814000275971 ] } },
{ "type": "Feature", "properties": { "NOMBRE_CEN": "Centro de la Mujer Talagante", "EJECUTOR": "Municipalidad de Talagante", "COBERTURA": "Talagante, Peñaflor, Padre Hurtado", "DIRECCION": "Av. 21 de Mayo N° 1326 (primer piso), Talagante.", "TELEFONO": "(02) 2598 9300 - 2598 9301", "EMAIL": "viftalagante@gmail.com", "REGION": "Metropolitana" }, "geometry": { "type": "Point", "coordinates": [ -70.927327999804504, -33.668977999959615 ] } },
{ "type": "Feature", "properties": { "NOMBRE_CEN": "Centro de la Mujer Lo Espejo", "EJECUTOR": "Municipalidad de Lo Espejo", "COBERTURA": "Lo Espejo –Cerrillos", "DIRECCION": "Puerto Príncipe 03130, Población José María Caro, Lo Espejo Lo Espejo", "TELEFONO": "(02) 2596 2461 - 2481 5585", "EMAIL": "centrodelamujerloespejo@gmail.com", "REGION": "Metropolitana" }, "geometry": { "type": "Point", "coordinates": [ -70.69457199978774, -33.510016999877443 ] } },
{ "type": "Feature", "properties": { "NOMBRE_CEN": "Centro de la Mujer Chacabuco", "EJECUTOR": "Municipalidad de Colina", "COBERTURA": "Colina, Lampa, Til Til", "DIRECCION": "Los Copihues N° 108, Colina", "TELEFONO": "(02) 2844 2428 - (09) 9479 2598", "EMAIL": "centrovifchacabuco@gmail.com", "REGION": "Metropolitana" }, "geometry": { "type": "Point", "coordinates": [ -70.67848000037533, -33.203206000066217 ] } },
{ "type": "Feature", "properties": { "NOMBRE_CEN": "Centro de la Mujer Pedro Aguirre Cerda", "EJECUTOR": "Municipalidad de Pedro Aguirre Cerda", "COBERTURA": "PAC , San Miguel", "DIRECCION": "Pje. Tácito Nº 5864 (esquina Calle Huamalata) Pedro Aguirre Cerda", "TELEFONO": "(02) 2481 3698 - 2481 3705 - 2481 3707", "EMAIL": "centrodelamujer.pac@gmail.com", "REGION": "Metropolitana" }, "geometry": { "type": "Point", "coordinates": [ -70.681819000353954, -33.499817999691992 ] } },
{ "type": "Feature", "properties": { "NOMBRE_CEN": "Centro de la Mujer Provincia Cordillera", "EJECUTOR": "Fundación Beata Laura Bicuña", "COBERTURA": "Puente Alto, Pirque, San José de Maipo", "DIRECCION": "José Luis Coo Nº0247, Puente Alto", "TELEFONO": "(02) 2985 1059 / (09) 8834 4436", "EMAIL": "centrovifcordillera@fundacionlauravicuña.cl", "REGION": "Metropolitana" }, "geometry": { "type": "Point", "coordinates": [ -70.572513000537782, -33.608838000116791 ] } },
{ "type": "Feature", "properties": { "NOMBRE_CEN": "Centro de la Mujer Santiago", "EJECUTOR": "Municipalidad de Santiago", "COBERTURA": "Santiago, Providencia, Las Condes", "DIRECCION": "Balmaceda Nº 1114, 3º piso, Santiago", "TELEFONO": "(02) 2413 4775 - 2413 4780 - 2413 4772", "EMAIL": "centrodelamujerstgo@gmail.com", "REGION": "Metropolitana" }, "geometry": { "type": "Point", "coordinates": [ -70.653517999604446, -33.432823999686043 ] } },
{ "type": "Feature", "properties": { "NOMBRE_CEN": "Centro de la Mujer Estación Central", "EJECUTOR": "Municipalidad de Estación Central", "COBERTURA": "Estación Central", "DIRECCION": "Las Rejas Sur 626 – H, Estación Central", "TELEFONO": "(02) 2779 8056 - 800 646 551", "EMAIL": "centromujer.estacioncentral@gmail.com; centrodelamujer@estacioncentral.cl", "REGION": "Metropolitana" }, "geometry": { "type": "Point", "coordinates": [ -70.704487999773136, -33.461370000349284 ] } },
{ "type": "Feature", "properties": { "NOMBRE_CEN": "Centro de la Mujer Ñuñoa", "EJECUTOR": "Fundación Beata Laura Bicuña", "COBERTURA": "Ñuñoa, La Reina", "DIRECCION": "Psje. Dr. Agustín Andrade N°4395 , Ñuñoa (Grecia con Jorge Monkeberg)", "TELEFONO": "(02) 2752 3369 - (09) 7861 1142", "EMAIL": "centrovifnunoa@fundacionlauravicuna.cl", "REGION": "Metropolitana" }, "geometry": { "type": "Point", "coordinates": [ -70.585301000376631, -33.463998000375241 ] } },
{ "type": "Feature", "properties": { "NOMBRE_CEN": "Centro de la Mujer Lo Prado", "EJECUTOR": "Municipalidad de Lo Prado", "COBERTURA": "Lo Prado", "DIRECCION": "San Germán N° 1052, Lo Prado", "TELEFONO": "(02) 2774 1629", "EMAIL": "centrodelamujer@loprado.cl", "REGION": "Metropolitana" }, "geometry": { "type": "Point", "coordinates": [ -70.719652000526921, -33.439901999680934 ] } },
{ "type": "Feature", "properties": { "NOMBRE_CEN": "Centro de la Mujer El Bosque", "EJECUTOR": "Municipalidad de El Bosque", "COBERTURA": "El Bosque", "DIRECCION": "Av. Padre Hurtado N°11.480 , El Bosque", "TELEFONO": "(02) 2410 7808", "EMAIL": "centro.mujerelbosque@gmail.com", "REGION": "Metropolitana" }, "geometry": { "type": "Point", "coordinates": [ -70.672805999776742, -33.568812999812778 ] } },
{ "type": "Feature", "properties": { "NOMBRE_CEN": "Centro de la Mujer Renca", "EJECUTOR": "Municipalidad de Renca", "COBERTURA": "Renca", "DIRECCION": "Domingo Santa María Nº 4511, Renca", "TELEFONO": "(02) 2646 9331", "EMAIL": "centrodelamujer@renca.cl", "REGION": "Metropolitana" }, "geometry": { "type": "Point", "coordinates": [ -70.713401000109556, -33.405273000428302 ] } },
{ "type": "Feature", "properties": { "NOMBRE_CEN": "Centro de la Mujer La Florida", "EJECUTOR": "Municipalidad de La Florida", "COBERTURA": "La Florida", "DIRECCION": "Vicuña Mackenna N° 6623 (Poniente) – La Florida (esquina Millaray) cerca metro Mirador (Linea 5)", "TELEFONO": "(02) 2505 4800 - 2505 4803 - 2505 4808", "EMAIL": "centromujer.laflorida@gmail.com", "REGION": "Metropolitana" }, "geometry": { "type": "Point", "coordinates": [ -70.606255999769758, -33.516176000411591 ] } },
{ "type": "Feature", "properties": { "NOMBRE_CEN": "Centro de la Mujer Cerro Navia", "EJECUTOR": "Municipalidad de Cerro Navia", "COBERTURA": "Cerro Navia", "DIRECCION": "J.J. Pérez N° 6570, Cerro Navia", "TELEFONO": "(02) 2773 3622", "EMAIL": "centrodelamujercerronavia@gmail.com", "REGION": "Metropolitana" }, "geometry": { "type": "Point", "coordinates": [ -70.725705999724042, -33.429295000331635 ] } },
{ "type": "Feature", "properties": { "NOMBRE_CEN": "Centro de la Mujer Quinta Normal", "EJECUTOR": "Municipalidad de Quinta Normal", "COBERTURA": "Quinta Normal", "DIRECCION": "Villasana #1697 (a 1 cuadra de Mapocho), Quinta Normal", "TELEFONO": "(02) 2786 4811 (en proceso de traslado)- (09) 9362 8806", "EMAIL": "centromujerquintanormal@gmail.com", "REGION": "Metropolitana" }, "geometry": { "type": "Point", "coordinates": [ -70.688248999865976, -33.431423999653525 ] } },
{ "type": "Feature", "properties": { "NOMBRE_CEN": "Centro de la Mujer Macul", "EJECUTOR": "Municipalidad de Macul", "COBERTURA": "Macul, San Joaquín", "DIRECCION": "Quilín N°3248, 2º piso", "TELEFONO": "(02) 2873 9190 - 2873 9188", "EMAIL": "centromujer@munimacul.cl", "REGION": "Metropolitana" }, "geometry": { "type": "Point", "coordinates": [ -70.59879000052031, -33.485227000101467 ] } },
{ "type": "Feature", "properties": { "NOMBRE_CEN": "Centro de la Mujer Isla de Maipo", "EJECUTOR": "Municipalidad de Isla de Maipo", "COBERTURA": "Isla de Maipo, Calera de Tango", "DIRECCION": "Balmaceda N° 3930, Isla de Maipo", "TELEFONO": "(02) 2819 4539", "EMAIL": "centrodelamujer@islademaipo.cl", "REGION": "Metropolitana" }, "geometry": { "type": "Point", "coordinates": [ -70.872707999773624, -33.747706999829326 ] } },
{ "type": "Feature", "properties": { "NOMBRE_CEN": "Centro de la Mujer San Ramón", "EJECUTOR": "Municipalidad de San Ramón", "COBERTURA": "San Ramón y La Cisterna", "DIRECCION": "Carabinero Genaro Rodriguez N° 1825, San Ramón", "TELEFONO": "(02) 2541 9606", "EMAIL": "cdmsanramon@gmail.com", "REGION": "Metropolitana" }, "geometry": { "type": "Point", "coordinates": [ -70.642740000417035, -33.545792000404361 ] } },
{ "type": "Feature", "properties": { "NOMBRE_CEN": "Centro de la Mujer Recoleta", "EJECUTOR": "Municipalidad de Recoleta", "COBERTURA": "Recoleta e Independencia", "DIRECCION": "Av. Dorsal N° 1099, Recoleta (Centro atención del Vecino)", "TELEFONO": "(02) 2945 7406 - (09) 7872 5189", "EMAIL": "centrodelamujer@recoleta.cl", "REGION": "Metropolitana" }, "geometry": { "type": "Point", "coordinates": [ -70.653192999592832, -33.395455000183652 ] } },
{ "type": "Feature", "properties": { "NOMBRE_CEN": "Centro de la Mujer El Monte", "EJECUTOR": "Municipalidad de El Monte", "COBERTURA": "El Monte", "DIRECCION": "Camilo Henríquez Nº73, El Monte", "TELEFONO": "(02) 2818 4748", "EMAIL": "centrodelamujerelmonte@gmail.com", "REGION": "Metropolitana" }, "geometry": { "type": "Point", "coordinates": [ -70.979447705836108, -33.679277619228579 ] } },
{ "type": "Feature", "properties": { "NOMBRE_CEN": "Centro de la Mujer de Antofagasta", "EJECUTOR": "Fundación Tabor", "COBERTURA": "Antofagasta, Taltal, Mejillones", "DIRECCION": "San Martín 2276, Antofagasta", "TELEFONO": "(55) 773879;  (55) 773574", "EMAIL": "centrodelamujerantofagasta@gmail.com", "REGION": "Antofagasta" }, "geometry": { "type": "Point", "coordinates": [ -70.401070297277528, -23.649522264972568 ] } },
{ "type": "Feature", "properties": { "NOMBRE_CEN": "Centro de la Mujer de Calama", "EJECUTOR": "Municipalidad de Calama", "COBERTURA": "Calama, San Pedro de Atacama, Ollagüe", "DIRECCION": "Avenida Central Norte 2012, Villa Ayquina, Calama", "TELEFONO": "(55) 2892615; (55) 2892614; (55) 2892613", "EMAIL": "centrodelamujercalama@gmail.com", "REGION": "Antofagasta" }, "geometry": { "type": "Point", "coordinates": [ -68.924053221023243, -22.437316317350223 ] } },
{ "type": "Feature", "properties": { "NOMBRE_CEN": "Centro de la Mujer de Tocopilla", "EJECUTOR": "Municipalidad de Tocopilla", "COBERTURA": "Tocopilla, María Elena", "DIRECCION": "Santa Rosa s/n esquina Matta, Tocopilla", "TELEFONO": "(55) 421372; (55) 421373", "EMAIL": "centrodelamujer@gmail.com", "REGION": "Antofagasta" }, "geometry": { "type": "Point", "coordinates": [ -70.192611907566345, -22.089395582317014 ] } }
]
}
