{
"type": "FeatureCollection",
"name": "cuarteles_filtrados",
"crs": { "type": "name", "properties": { "name": "urn:ogc:def:crs:OGC:1.3:CRS84" } },
"features": [
{ "type": "Feature", "properties": { "NOMBRE_REG": "REGION METROPOLITANA DE SANTIAGO", "NOMBRE_PRO": "SANTIAGO", "NOMBRE_COM": "ESTACION CENTRAL", "NOMBRE_UNI": "21A.COM. ESTACION CENTRAL", "TIPO_DE_UN": "COMISARIA", "TIPO_DE_VI": "CALLE", "NOMBRE_DE": "ECUADOR", "NUMERO": "4050", "POINT_X": -70.69242, "POINT_Y": -33.45131, "HECHO": "2014", "RG": 13.0, "PREFECTURA": "CENTRAL NORTE", "TIPO": null, "ZONA": "METROPOLITANA OESTE", "UNI_COD": "13013", "UNID_ENCRI": "6313be4129cd1c9cb45af0dd5c1d8d25" }, "geometry": { "type": "Point", "coordinates": [ -70.69242, -33.45131, 0.0 ] } },
{ "type": "Feature", "properties": { "NOMBRE_REG": "REGION METROPOLITANA DE SANTIAGO", "NOMBRE_PRO": "SANTIAGO", "NOMBRE_COM": "LO PRADO", "NOMBRE_UNI": "44A. COM. LO PRADO", "TIPO_DE_UN": "COMISARIA", "TIPO_DE_VI": "AVENIDA", "NOMBRE_DE": "SAN PABLO", "NUMERO": "5829", "POINT_X": -70.715861, "POINT_Y": -33.442814, "HECHO": "2014", "RG": 13.0, "PREFECTURA": "SANTIAGO OCCIDENTE", "TIPO": null, "ZONA": "METROPOLITANA OESTE", "UNI_COD": "13028", "UNID_ENCRI": "54f6673693e32389bd5d1f6feadb1d0e" }, "geometry": { "type": "Point", "coordinates": [ -70.715861, -33.442814, 0.0 ] } },
{ "type": "Feature", "properties": { "NOMBRE_REG": "REGION METROPOLITANA DE SANTIAGO", "NOMBRE_PRO": "SANTIAGO", "NOMBRE_COM": "ESTACION CENTRAL", "NOMBRE_UNI": "RETEN CASA MONEDA", "TIPO_DE_UN": "RETEN", "TIPO_DE_VI": "CALLE", "NOMBRE_DE": "PORTALES", "NUMERO": "3586", "POINT_X": -70.685496, "POINT_Y": -33.444344, "HECHO": "2014", "RG": 13.0, "PREFECTURA": "CENTRAL NORTE", "TIPO": null, "ZONA": "METROPOLITANA OESTE", "UNI_COD": "13047", "UNID_ENCRI": null }, "geometry": { "type": "Point", "coordinates": [ -70.685496, -33.444344, 0.0 ] } },
{ "type": "Feature", "properties": { "NOMBRE_REG": "REGION METROPOLITANA DE SANTIAGO", "NOMBRE_PRO": "SANTIAGO", "NOMBRE_COM": "CERRILLOS", "NOMBRE_UNI": "SCOM. CERRILLOS", "TIPO_DE_UN": "SUBCOMISARIA", "TIPO_DE_VI": "AVENIDA", "NOMBRE_DE": "BUZETA", "NUMERO": "3986", "POINT_X": -70.687951442100001, "POINT_Y": -33.479598111400001, "HECHO": "2014", "RG": 13.0, "PREFECTURA": "SANTIAGO RINCONADA", "TIPO": null, "ZONA": "METROPOLITANA OESTE", "UNI_COD": "13071", "UNID_ENCRI": null }, "geometry": { "type": "Point", "coordinates": [ -70.687951442098679, -33.479598111433241, 0.0 ] } },
{ "type": "Feature", "properties": { "NOMBRE_REG": "REGION METROPOLITANA DE SANTIAGO", "NOMBRE_PRO": "SANTIAGO", "NOMBRE_COM": "ESTACION CENTRAL", "NOMBRE_UNI": "58A. COM. PB. ALESSANDRI", "TIPO_DE_UN": "COMISARIA", "TIPO_DE_VI": "CALLE", "NOMBRE_DE": "ANTARTICA", "NUMERO": "4701", "POINT_X": -70.698969, "POINT_Y": -33.469971, "HECHO": "2014", "RG": 13.0, "PREFECTURA": "CENTRAL SUR", "TIPO": null, "ZONA": "METROPOLITANA OESTE", "UNI_COD": "13081", "UNID_ENCRI": "8bee21cde6254b3a897484f00e16b37c" }, "geometry": { "type": "Point", "coordinates": [ -70.698969, -33.469971, 0.0 ] } },
{ "type": "Feature", "properties": { "NOMBRE_REG": "REGION METROPOLITANA DE SANTIAGO", "NOMBRE_PRO": "SANTIAGO", "NOMBRE_COM": "PEDRO AGUIRRE CERDA", "NOMBRE_UNI": "TCIA. ALC. CARLOS VALDOVINOS", "TIPO_DE_UN": "TENENCIA", "TIPO_DE_VI": "CALLE", "NOMBRE_DE": "BELEN", "NUMERO": "3435", "POINT_X": -70.674299, "POINT_Y": -33.48087, "HECHO": "2014", "RG": 13.0, "PREFECTURA": "SANTIAGO RINCONADA", "TIPO": null, "ZONA": "METROPOLITANA OESTE", "UNI_COD": "13087", "UNID_ENCRI": null }, "geometry": { "type": "Point", "coordinates": [ -70.674299, -33.48087, 0.0 ] } },
{ "type": "Feature", "properties": { "NOMBRE_REG": "REGION METROPOLITANA DE SANTIAGO", "NOMBRE_PRO": "SANTIAGO", "NOMBRE_COM": "LA REINA", "NOMBRE_UNI": "16A. COM. LA REINA", "TIPO_DE_UN": "COMISARIA", "TIPO_DE_VI": "AVENIDA", "NOMBRE_DE": "ECHENIQUE", "NUMERO": "8428", "POINT_X": -70.54426, "POINT_Y": -33.44148, "HECHO": "2014", "RG": 13.0, "PREFECTURA": "SANTIAGO ANDES", "TIPO": null, "ZONA": "METROPOLITANA ESTE", "UNI_COD": "13007", "UNID_ENCRI": "69418d6ea196347a82c9dbffc8c9483d" }, "geometry": { "type": "Point", "coordinates": [ -70.54426, -33.44148, 0.0 ] } },
{ "type": "Feature", "properties": { "NOMBRE_REG": "REGION METROPOLITANA DE SANTIAGO", "NOMBRE_PRO": "SANTIAGO", "NOMBRE_COM": "NUNOA", "NOMBRE_UNI": "18A. COM. NUNOA", "TIPO_DE_UN": "COMISARIA", "TIPO_DE_VI": "CALLE", "NOMBRE_DE": "GENERAL JOSE ALEJANDRO BERNALES", "NUMERO": "5147", "POINT_X": -70.57571, "POINT_Y": -33.45336, "HECHO": "2014", "RG": 13.0, "PREFECTURA": "SANTIAGO ORIENTE", "TIPO": null, "ZONA": "METROPOLITANA ESTE", "UNI_COD": "13009", "UNID_ENCRI": "a28ec719c0dcfd1c2560f9ecf4d04673" }, "geometry": { "type": "Point", "coordinates": [ -70.57571, -33.45336, 0.0 ] } },
{ "type": "Feature", "properties": { "NOMBRE_REG": "REGION METROPOLITANA DE SANTIAGO", "NOMBRE_PRO": "SANTIAGO", "NOMBRE_COM": "NUNOA", "NOMBRE_UNI": "33A. COM. NUNOA", "TIPO_DE_UN": "COMISARIA", "TIPO_DE_VI": "AVENIDA", "NOMBRE_DE": "GUILLERMO MANN", "NUMERO": "2100", "POINT_X": -70.61386, "POINT_Y": -33.4708, "HECHO": "2014", "RG": 13.0, "PREFECTURA": "SANTIAGO ORIENTE", "TIPO": null, "ZONA": "METROPOLITANA ESTE", "UNI_COD": "13020", "UNID_ENCRI": "958d76ba0c349bb9a5d8231df57ab60f" }, "geometry": { "type": "Point", "coordinates": [ -70.61386, -33.4708, 0.0 ] } },
{ "type": "Feature", "properties": { "NOMBRE_REG": "REGION METROPOLITANA DE SANTIAGO", "NOMBRE_PRO": "SANTIAGO", "NOMBRE_COM": "SANTIAGO", "NOMBRE_UNI": "1RA. COM. SANTIAGO", "TIPO_DE_UN": "COMISARIA", "TIPO_DE_VI": "CALLE", "NOMBRE_DE": "SANTO DOMINGO", "NUMERO": "714", "POINT_X": -70.64756, "POINT_Y": -33.43587, "HECHO": "2014", "RG": 13.0, "PREFECTURA": "CENTRAL NORTE", "TIPO": null, "ZONA": "METROPOLITANA OESTE", "UNI_COD": "13011", "UNID_ENCRI": "94a0ba6e6427d03b1d547f23b77498c4" }, "geometry": { "type": "Point", "coordinates": [ -70.64756, -33.43587, 0.0 ] } },
{ "type": "Feature", "properties": { "NOMBRE_REG": "REGION METROPOLITANA DE SANTIAGO", "NOMBRE_PRO": "SANTIAGO", "NOMBRE_COM": "SANTIAGO", "NOMBRE_UNI": "2DA. COM. SANTIAGO", "TIPO_DE_UN": "COMISARIA", "TIPO_DE_VI": "CALLE", "NOMBRE_DE": "TOESCA", "NUMERO": "2345", "POINT_X": -70.6681, "POINT_Y": -33.45455, "HECHO": "2014", "RG": 13.0, "PREFECTURA": "CENTRAL SUR", "TIPO": null, "ZONA": "METROPOLITANA OESTE", "UNI_COD": "13018", "UNID_ENCRI": "1ae01fcc17a0d573cd8482d3316d3563" }, "geometry": { "type": "Point", "coordinates": [ -70.6681, -33.45455, 0.0 ] } },
{ "type": "Feature", "properties": { "NOMBRE_REG": "REGION METROPOLITANA DE SANTIAGO", "NOMBRE_PRO": "SANTIAGO", "NOMBRE_COM": "SANTIAGO", "NOMBRE_UNI": "3RA. COM. SANTIAGO", "TIPO_DE_UN": "COMISARIA", "TIPO_DE_VI": "PASAJE", "NOMBRE_DE": "FERNANDEZ ALBANO", "NUMERO": "165", "POINT_X": -70.65855, "POINT_Y": -33.44196, "HECHO": "2014", "RG": 13.0, "PREFECTURA": "CENTRAL NORTE", "TIPO": null, "ZONA": "METROPOLITANA OESTE", "UNI_COD": "13025", "UNID_ENCRI": "f2a84e208ac8b8b4b77096beb1a435ea" }, "geometry": { "type": "Point", "coordinates": [ -70.65855, -33.44196, 0.0 ] } },
{ "type": "Feature", "properties": { "NOMBRE_REG": "REGION METROPOLITANA DE SANTIAGO", "NOMBRE_PRO": "SANTIAGO", "NOMBRE_COM": "SANTIAGO", "NOMBRE_UNI": "4TA. COM. SANTIAGO", "TIPO_DE_UN": "COMISARIA", "TIPO_DE_VI": "CALLE", "NOMBRE_DE": "CHILOE", "NUMERO": "1472", "POINT_X": -70.64561, "POINT_Y": -33.46533, "HECHO": "2014", "RG": 13.0, "PREFECTURA": "CENTRAL SUR", "TIPO": null, "ZONA": "METROPOLITANA OESTE", "UNI_COD": "13032", "UNID_ENCRI": "d12c9cc686cc72f1b623433dbd420185" }, "geometry": { "type": "Point", "coordinates": [ -70.64561, -33.46533, 0.0 ] } },
{ "type": "Feature", "properties": { "NOMBRE_REG": "REGION METROPOLITANA DE SANTIAGO", "NOMBRE_PRO": "SANTIAGO", "NOMBRE_COM": "INDEPENDENCIA", "NOMBRE_UNI": "TCIA. JUAN ANTONIO RIOS", "TIPO_DE_UN": "TENENCIA", "TIPO_DE_VI": "CALLE", "NOMBRE_DE": "SARA GAJARDO", "NUMERO": "940", "POINT_X": -70.67091, "POINT_Y": -33.42147, "HECHO": "2014", "RG": 13.0, "PREFECTURA": "SANTIAGO NORTE", "TIPO": null, "ZONA": "METROPOLITANA OESTE", "UNI_COD": "13098", "UNID_ENCRI": null }, "geometry": { "type": "Point", "coordinates": [ -70.67091, -33.42147, 0.0 ] } },
{ "type": "Feature", "properties": { "NOMBRE_REG": "REGION METROPOLITANA DE SANTIAGO", "NOMBRE_PRO": "SANTIAGO", "NOMBRE_COM": "PROVIDENCIA", "NOMBRE_UNI": "60A. COM. METRO SANTIAGO", "TIPO_DE_UN": "COMISARIA", "TIPO_DE_VI": "INTERIOR", "NOMBRE_DE": "ESTACION BAQUEDANO", "NUMERO": "S/N", "POINT_X": -70.634174, "POINT_Y": -33.437411, "HECHO": "2014", "RG": 13.0, "PREFECTURA": "RADIOPATRULLAS E INTERV.", "TIPO": null, "ZONA": "METROPOLITANA ESTE", "UNI_COD": "13106", "UNID_ENCRI": "d41d8cd98f00b204e9800998ecf8427e" }, "geometry": { "type": "Point", "coordinates": [ -70.634174, -33.437411, 0.0 ] } },
{ "type": "Feature", "properties": { "NOMBRE_REG": "REGION METROPOLITANA DE SANTIAGO", "NOMBRE_PRO": "SANTIAGO", "NOMBRE_COM": "RECOLETA", "NOMBRE_UNI": "SCOM. RECOLETA SUR", "TIPO_DE_UN": "SUBCOMISARIA", "TIPO_DE_VI": "CALLE", "NOMBRE_DE": "DAVILA BAEZA", "NUMERO": "880", "POINT_X": -70.650932, "POINT_Y": -33.42732, "HECHO": "2014", "RG": 13.0, "PREFECTURA": "SANTIAGO NORTE", "TIPO": null, "ZONA": "METROPOLITANA OESTE", "UNI_COD": "13110", "UNID_ENCRI": null }, "geometry": { "type": "Point", "coordinates": [ -70.650931999999898, -33.42732, 0.0 ] } }
]
}
