{
"type": "FeatureCollection",
"name": "cuerpos_de_bomberos_filtrados",
"crs": { "type": "name", "properties": { "name": "urn:ogc:def:crs:OGC:1.3:CRS84" } },
"features": [
{ "type": "Feature", "properties": { "OBJECTID": 7.0, "NOMBRE_DEL": "Ñuñoa", "TIPO_DE_VL": null, "NUMERACIó": "845", "NOMBRE_DE": "José Pedro Alessandri", "COMUNA": "Ñuñoa", "PROVINCIA": "Santiago", "REGIóN": "Región Metropolitana", "FID_CL_COM": 93.0, "ID_2002": "13120", "NOMBRE": "1u1oa", "FID_CL_REG": 6.0, "ID_2002_20": "13", "NOMBRE_1": "Metropolitana de Santiago" }, "geometry": { "type": "Point", "coordinates": [ -70.59916999468679, -33.462390980117661 ] } },
{ "type": "Feature", "properties": { "OBJECTID": 3.0, "NOMBRE_DEL": "Santiago", "TIPO_DE_VL": "Calle", "NUMERACIó": "978", "NOMBRE_DE": "Santo Domingo", "COMUNA": "Santiago", "PROVINCIA": "Santiago", "REGIóN": "Región Metropolitana", "FID_CL_COM": 79.0, "ID_2002": "13101", "NOMBRE": "Santiago", "FID_CL_REG": 6.0, "ID_2002_20": "13", "NOMBRE_1": "Metropolitana de Santiago" }, "geometry": { "type": "Point", "coordinates": [ -70.651093034280066, -33.436243003916132 ] } }
]
}
