{
"type": "FeatureCollection",
"name": "redes_de_clinicas_filtradas",
"crs": { "type": "name", "properties": { "name": "urn:ogc:def:crs:EPSG::3857" } },
"features": [
{ "type": "Feature", "properties": { "FID": 1, "clinica": "HOSPITAL CLINICO MUTUAL DE SEGURIDAD", "direccion": "4848 ALAMEDA", "comuna": "ESTACION CENTRAL", "tipo": "CLINICA PRIVADA", "nombre": "HOSPITAL CLINICO MUTUAL DE SEGURIDAD" }, "geometry": { "type": "Point", "coordinates": [ -7870404.685196469537914, -3956028.977021759841591 ] } },
{ "type": "Feature", "properties": { "FID": 2, "clinica": "HOSPITAL DEL PROFESOR", "direccion": "4860 ALAMEDA", "comuna": "ESTACION CENTRAL", "tipo": "CLINICA PRIVADA", "nombre": "HOSPITAL DEL PROFESOR" }, "geometry": { "type": "Point", "coordinates": [ -7870624.730679759755731, -3956091.054948629811406 ] } },
{ "type": "Feature", "properties": { "FID": 30, "clinica": "CLINICA LOS COIHUES", "direccion": "6561LAGUNA SUR", "comuna": "ESTACION CENTRAL", "tipo": "CLINICA PRIVADA", "nombre": "CLINICA LOS COIHUES" }, "geometry": { "type": "Point", "coordinates": [ -7873188.955573479644954, -3956429.826395010109991 ] } },
{ "type": "Feature", "properties": { "FID": 15, "clinica": "FUNDACION ARTURO LOPEZ PEREZ", "direccion": "878 RANCAGUA", "comuna": "PROVIDENCIA", "tipo": "CLINICA PRIVADA", "nombre": "FUNDACION ARTURO LOPEZ PEREZ" }, "geometry": { "type": "Point", "coordinates": [ -7861598.592307019978762, -3953752.771021950058639 ] } },
{ "type": "Feature", "properties": { "FID": 16, "clinica": "CLINICA MIGUEL CLARO", "direccion": "988 MIGUEL CLARO", "comuna": "PROVIDENCIA", "tipo": "CLINICA PRIVADA", "nombre": "CLINICA MIGUEL CLARO" }, "geometry": { "type": "Point", "coordinates": [ -7861220.94582249969244, -3953658.269093450158834 ] } },
{ "type": "Feature", "properties": { "FID": 17, "clinica": "CLINICA VICTORIA ROUSSEAU", "direccion": "1628 RICARDO LYON", "comuna": "PROVIDENCIA", "tipo": "CLINICA PRIVADA", "nombre": "CLINICA VICTORIA ROUSSEAU" }, "geometry": { "type": "Point", "coordinates": [ -7859657.340823289938271, -3953293.940083499997854 ] } },
{ "type": "Feature", "properties": { "FID": 7, "clinica": "CLINICA COLONIAL", "direccion": "2652 PEDRO DE VALDIVIA", "comuna": "NUNOA", "tipo": "CLINICA PRIVADA", "nombre": "CLINICA COLONIAL" }, "geometry": { "type": "Point", "coordinates": [ -7859804.488682550378144, -3954796.439250879921019 ] } },
{ "type": "Feature", "properties": { "FID": 12, "clinica": "CLINICA SARA MONCADA", "direccion": "2219 PEDRO DE VALDIVIA", "comuna": "PROVIDENCIA", "tipo": "CLINICA PRIVADA", "nombre": "CLINICA SARA MONCADA" }, "geometry": { "type": "Point", "coordinates": [ -7859881.215630980208516, -3954240.304923470132053 ] } },
{ "type": "Feature", "properties": { "FID": 11, "clinica": "HOSPITAL DEL TRABAJADOR", "direccion": "185 RAMON CARNICER", "comuna": "PROVIDENCIA", "tipo": "CLINICA PRIVADA", "nombre": "HOSPITAL DEL TRABAJADOR" }, "geometry": { "type": "Point", "coordinates": [ -7862723.015522999688983, -3954230.853282259777188 ] } },
{ "type": "Feature", "properties": { "FID": 19, "clinica": "CLINICA DAVILA", "direccion": "464 RECOLETA", "comuna": "RECOLETA", "tipo": "CLINICA PRIVADA", "nombre": "CLINICA DAVILA" }, "geometry": { "type": "Point", "coordinates": [ -7864313.689945000223815, -3952176.059571130201221 ] } },
{ "type": "Feature", "properties": { "FID": 20, "clinica": "CLINICA Y MATERNIDAD JUAN PABLO II", "direccion": "1448 SANTA ROSA", "comuna": "SANTIAGO", "tipo": "CLINICA PRIVADA", "nombre": "CLINICA Y MATERNIDAD JUAN PABLO II" }, "geometry": { "type": "Point", "coordinates": [ -7863881.205066570080817, -3957079.020686800125986 ] } },
{ "type": "Feature", "properties": { "FID": 21, "clinica": "HOSPITAL CLINICO UNIVERSIDAD CATOLICA", "direccion": "367 MARCOLETA", "comuna": "SANTIAGO", "tipo": "CLINICA PRIVADA", "nombre": "HOSPITAL CLINICO UNIVERSIDAD CATOLICA" }, "geometry": { "type": "Point", "coordinates": [ -7863647.837028569541872, -3954176.012038779910654 ] } },
{ "type": "Feature", "properties": { "FID": 22, "clinica": "CLINICA PRESBITERIANA MADRE E HIJO", "direccion": "1503 SANTA ROSA", "comuna": "SANTIAGO", "tipo": "CLINICA PRIVADA", "nombre": "CLINICA PRESBITERIANA MADRE E HIJO" }, "geometry": { "type": "Point", "coordinates": [ -7863879.925038590095937, -3957170.81861113011837 ] } },
{ "type": "Feature", "properties": { "FID": 23, "clinica": "CLINICA CENTRAL", "direccion": "231 SAN ISIDRO", "comuna": "SANTIAGO", "tipo": "CLINICA PRIVADA", "nombre": "CLINICA CENTRAL" }, "geometry": { "type": "Point", "coordinates": [ -7864049.112825639545918, -3954697.495666380040348 ] } }
]
}
