{
"type": "FeatureCollection",
"name": "centros_sernam_filtrados",
"crs": { "type": "name", "properties": { "name": "urn:ogc:def:crs:EPSG::32719" } },
"features": [
{ "type": "Feature", "properties": { "NOMBRE_CEN": "Centro de la Mujer Estación Central", "EJECUTOR": "Municipalidad de Estación Central", "COBERTURA": "Estación Central", "DIRECCION": "Las Rejas Sur 626 – H, Estación Central", "TELEFONO": "(02) 2779 8056 - 800 646 551", "EMAIL": "centromujer.estacioncentral@gmail.com; centrodelamujer@estacioncentral.cl", "REGION": "Metropolitana", "centroide_x": 341598.4743, "centroide_y": 6296264.2904000003, "crs_original": "EPSG:4326", "fecha_normalizacion": "2025-10-10 01:59:23" }, "geometry": { "type": "Point", "coordinates": [ 341598.4743, 6296264.290400000289083 ] } },
{ "type": "Feature", "properties": { "NOMBRE_CEN": "Centro de la Mujer Peñalolén", "EJECUTOR": "Municipalidad de Peñalolen", "COBERTURA": "Peñalolén", "DIRECCION": "Calle 17-A , Nº 931, Villa Naciones Unidas Peñalolén", "TELEFONO": "(02) 2279 1761 - (02) 2279 3009", "EMAIL": "centromujer@penalolen.cl", "REGION": "Metropolitana", "centroide_x": 355815.199, "centroide_y": 6295943.6267000008, "crs_original": "EPSG:4326", "fecha_normalizacion": "2025-10-10 01:59:23" }, "geometry": { "type": "Point", "coordinates": [ 355815.199000000488013, 6295943.626700000837445 ] } },
{ "type": "Feature", "properties": { "NOMBRE_CEN": "Centro de la Mujer Ñuñoa", "EJECUTOR": "Fundación Beata Laura Bicuña", "COBERTURA": "Ñuñoa, La Reina", "DIRECCION": "Psje. Dr. Agustín Andrade N°4395 , Ñuñoa (Grecia con Jorge Monkeberg)", "TELEFONO": "(02) 2752 3369 - (09) 7861 1142", "EMAIL": "centrovifnunoa@fundacionlauravicuna.cl", "REGION": "Metropolitana", "centroide_x": 352680.36949999986, "centroide_y": 6296148.2814999996, "crs_original": "EPSG:4326", "fecha_normalizacion": "2025-10-10 01:59:23" }, "geometry": { "type": "Point", "coordinates": [ 352680.369499999855179, 6296148.281499999575317 ] } },
{ "type": "Feature", "properties": { "NOMBRE_CEN": "Centro de la Mujer Santiago", "EJECUTOR": "Municipalidad de Santiago", "COBERTURA": "Santiago, Providencia, Las Condes", "DIRECCION": "Balmaceda Nº 1114, 3º piso, Santiago", "TELEFONO": "(02) 2413 4775 - 2413 4780 - 2413 4772", "EMAIL": "centrodelamujerstgo@gmail.com", "REGION": "Metropolitana", "centroide_x": 346285.384, "centroide_y": 6299506.2168000005, "crs_original": "EPSG:4326", "fecha_normalizacion": "2025-10-10 01:59:23" }, "geometry": { "type": "Point", "coordinates": [ 346285.383999999030493, 6299506.21680000051856 ] } },
{ "type": "Feature", "properties": { "NOMBRE_CEN": "Centro de la Mujer Quinta Normal", "EJECUTOR": "Municipalidad de Quinta Normal", "COBERTURA": "Quinta Normal", "DIRECCION": "Villasana #1697 (a 1 cuadra de Mapocho), Quinta Normal", "TELEFONO": "(02) 2786 4811 (en proceso de traslado)- (09) 9362 8806", "EMAIL": "centromujerquintanormal@gmail.com", "REGION": "Metropolitana", "centroide_x": 343053.82780000061, "centroide_y": 6299609.5617000014, "crs_original": "EPSG:4326", "fecha_normalizacion": "2025-10-10 01:59:23" }, "geometry": { "type": "Point", "coordinates": [ 343053.827800000610296, 6299609.561700001358986 ] } }
]
}
