{
"type": "FeatureCollection",
"name": "circuito_turistico_filtrado",
"crs": { "type": "name", "properties": { "name": "urn:ogc:def:crs:EPSG::32719" } },
"features": [
{ "type": "Feature", "properties": { "objectid": 9, "cut_region": "13", "region": "Metropolitana de Santiago", "circuito": "Circuito Barrio Yungay", "ruta": "Ruta Capital", "extension_": 3.626, "cod_epsg": "EPSG: 4326", "centroide_x": 344122.30262281001, "centroide_y": 6298545.958396811, "crs_original": "EPSG:4326", "fecha_normalizacion": "2025-10-10 01:59:23" }, "geometry": { "type": "MultiLineString", "coordinates": [ [ [ 343444.9496999992989, 6298213.300200000405312 ], [ 343884.820300000137649, 6298246.373200000263751 ] ], [ [ 343884.820300000137649, 6298246.373200000263751 ], [ 343891.434899998712353, 6298114.081299999728799 ], [ 344000.575799999875017, 6298120.695899999700487 ], [ 343990.653899999684654, 6298249.680500000715256 ], [ 343967.502799998677801, 6298510.957100001163781 ], [ 344164.617800000240095, 6298540.987300000153482 ] ], [ [ 343884.820300000137649, 6298246.373200000263751 ], [ 343825.289000000280794, 6298844.994199998676777 ] ], [ [ 344219.850999999791384, 6298416.1228 ], [ 344268.466900000174064, 6298415.045400001108646 ], [ 344255.237700000405312, 6298550.644600000232458 ], [ 344380.915099999983795, 6298570.488399999216199 ], [ 344341.22749999910593, 6299010.359099999070168 ], [ 344420.602699999406468, 6299016.9737 ], [ 344433.831899999873713, 6298904.525600000284612 ], [ 344883.62440000049537, 6298954.13499999884516 ] ], [ [ 344164.617800000240095, 6298540.987300000153482 ], [ 344179.169899999978952, 6298408.430800001136959 ], [ 344219.850999999791384, 6298416.1228 ] ], [ [ 344164.617800000240095, 6298540.987300000153482 ], [ 344209.067899999383371, 6298547.337300000712276 ], [ 344219.850999999791384, 6298416.1228 ] ] ] } },
{ "type": "Feature", "properties": { "objectid": 7, "cut_region": "13", "region": "Metropolitana de Santiago", "circuito": "Circuito Barrio Bellavista", "ruta": "Ruta Capital", "extension_": 3.6807, "cod_epsg": "EPSG: 4326", "centroide_x": 348079.6241631374, "centroide_y": 6299605.1779568996, "crs_original": "EPSG:4326", "fecha_normalizacion": "2025-10-10 01:59:23" }, "geometry": { "type": "MultiLineString", "coordinates": [ [ [ 348065.179899998358451, 6299340.598400000482798 ], [ 348087.073499999882188, 6299346.248299999162555 ], [ 348171.740399999776855, 6299377.998400000855327 ], [ 348212.6936999996542, 6299394.1891999989748 ] ], [ [ 348212.6936999996542, 6299394.1891999989748 ], [ 348167.974799999676179, 6299519.377900000661612 ] ], [ [ 348212.6936999996542, 6299394.1891999989748 ], [ 348262.757200000341982, 6299413.981799999251962 ], [ 348366.474100000690669, 6299460.548499999567866 ], [ 348423.624200000485871, 6299500.7653 ], [ 348643.758000000263564, 6299769.582499999552965 ], [ 348662.808000000542961, 6299801.332600001245737 ], [ 348679.741399999475107, 6299888.11610000114888 ], [ 348654.341300000611227, 6299949.499500000849366 ] ], [ [ 348034.156799999880604, 6299481.715300000272691 ], [ 348065.179899998358451, 6299340.598400000482798 ] ], [ [ 348034.156799999880604, 6299481.715300000272691 ], [ 348167.974799999676179, 6299519.377900000661612 ] ], [ [ 348167.974799999676179, 6299519.377900000661612 ], [ 348120.940299999783747, 6299651.048899999819696 ], [ 348054.806100000045262, 6299634.191200001165271 ] ], [ [ 347913.506499999668449, 6299610.8322 ], [ 347926.20650000020396, 6299492.298600001260638 ], [ 347945.256599999847822, 6299373.765000000596046 ], [ 347957.956599999801256, 6299312.3816 ], [ 348021.456699999631383, 6299329.314899999648333 ], [ 348065.179899998358451, 6299340.598400000482798 ] ], [ [ 347913.506499999668449, 6299610.8322 ], [ 347807.672999999951571, 6299615.065499998629093 ], [ 347687.022699999623001, 6299617.182199999690056 ], [ 347708.189399999100715, 6299742.0658 ], [ 347718.772800000093412, 6299797.099199999123812 ], [ 347811.906300000031479, 6299778.049200000241399 ], [ 347894.456500000378583, 6299737.832399999722838 ] ], [ [ 348012.990100000519305, 6299623.532200001180172 ], [ 347913.506499999668449, 6299610.8322 ] ], [ [ 348012.990100000519305, 6299623.532200001180172 ], [ 348034.156799999880604, 6299481.715300000272691 ] ], [ [ 348054.806100000045262, 6299634.191200001165271 ], [ 348012.990100000519305, 6299623.532200001180172 ] ], [ [ 348054.806100000045262, 6299634.191200001165271 ], [ 348065.906799999764189, 6299670.099000001326203 ], [ 348082.840199999976903, 6299691.265700001269579 ], [ 348104.006899999803863, 6299699.732400001958013 ], [ 348133.640300000202842, 6299708.199000000953674 ], [ 348154.807000000029802, 6299718.7824 ], [ 348178.090400000452064, 6299733.599100000225008 ] ], [ [ 347998.173400000145193, 6299731.4824 ], [ 348012.990100000519305, 6299623.532200001180172 ] ], [ [ 347998.173400000145193, 6299731.4824 ], [ 348010.873400000447873, 6299733.599099999293685 ], [ 348036.27340000087861, 6299720.899100000970066 ], [ 348065.906800000346266, 6299710.315700000151992 ] ], [ [ 347894.456500000378583, 6299737.832399999722838 ], [ 347896.573200001032092, 6299693.382299999706447 ], [ 347913.506499999668449, 6299610.8322 ] ], [ [ 347894.456500000378583, 6299737.832399999722838 ], [ 347917.739900000044145, 6299752.6491 ], [ 347947.373299999570008, 6299752.6491 ], [ 347974.889999999490101, 6299750.532500000670552 ], [ 347998.173400000145193, 6299731.4824 ] ], [ [ 347739.939500000036787, 6299898.699400000274181 ], [ 347890.223100000468548, 6299773.8158 ], [ 347894.456500000378583, 6299737.832399999722838 ] ] ] } },
{ "type": "Feature", "properties": { "objectid": 8, "cut_region": "13", "region": "Metropolitana de Santiago", "circuito": "Circuito Barrio Lastarria", "ruta": "Ruta Capital", "extension_": 2.8198, "cod_epsg": "EPSG: 4326", "centroide_x": 347564.30601981736, "centroide_y": 6298943.4714093031, "crs_original": "EPSG:4326", "fecha_normalizacion": "2025-10-10 01:59:23" }, "geometry": { "type": "MultiLineString", "coordinates": [ [ [ 347491.005399999616202, 6298696.512699998915195 ], [ 347520.599499999545515, 6298722.756400000303984 ], [ 347716.391499999561347, 6298886.79839999973774 ], [ 347785.183299998228904, 6298950.298599999397993 ], [ 347832.808399999979883, 6298984.694500001147389 ], [ 347877.787700000102632, 6299011.152900000102818 ] ], [ [ 347250.45980000065174, 6298990.690500000491738 ], [ 347248.078100000042468, 6298989.986100001260638 ] ], [ [ 347250.45980000065174, 6298990.690500000491738 ], [ 347258.661500000394881, 6298968.81940000038594 ], [ 347306.2866, 6298918.548499999567866 ], [ 347322.161600000690669, 6298862.985900001600385 ], [ 347335.390800000517629, 6298788.9024 ], [ 347345.974100000399631, 6298722.756400001235306 ], [ 347353.911699999880511, 6298675.131300000473857 ], [ 347361.849200000055134, 6298635.443800000473857 ], [ 347380.370000000053551, 6298598.401999999769032 ], [ 347491.005399999616202, 6298696.512699998915195 ] ], [ [ 347877.787700000102632, 6299011.152900000102818 ], [ 347996.850399999937508, 6299050.840400001034141 ], [ 348070.933899999246933, 6299077.298799999058247 ], [ 348023.308799998019822, 6299090.528 ], [ 347928.058599999756552, 6299093.173900000751019 ], [ 347856.670999998401385, 6299089.543999999761581 ] ], [ [ 347435.932599999941885, 6299045.5488 ], [ 347250.45980000065174, 6298990.690500000491738 ] ], [ [ 347435.932599999941885, 6299045.5488 ], [ 347457.09939999965718, 6299011.152899999171495 ], [ 347457.099400000064634, 6298958.236099999397993 ], [ 347451.8077, 6298894.735999999567866 ], [ 347449.161800000234507, 6298825.944200000725687 ], [ 347446.515999999595806, 6298780.964899999089539 ], [ 347446.515999999362975, 6298757.152300000190735 ], [ 347472.974399999482557, 6298717.464800000190735 ], [ 347491.005399999616202, 6298696.512699998915195 ] ], [ [ 347856.670999998401385, 6299089.543999999761581 ], [ 347771.954199998115655, 6299085.2363 ], [ 347642.308099999616388, 6299074.652999999001622 ], [ 347565.578700000944082, 6299074.653000000864267 ], [ 347523.24529999983497, 6299066.715500000864267 ], [ 347435.932599999941885, 6299045.5488 ] ], [ [ 347856.670999998401385, 6299089.543999999761581 ], [ 347877.787700000102632, 6299011.152900000102818 ] ], [ [ 347261.307300000102259, 6299238.695000000298023 ], [ 347248.078099999926053, 6299191.069899998605251 ], [ 347234.848899999109562, 6299156.6739999987185 ], [ 347224.265599999809638, 6299124.923900000751019 ], [ 347224.265600000158884, 6299090.528000000864267 ], [ 347242.786399999808054, 6299011.152900000102818 ], [ 347250.45980000065174, 6298990.690500000491738 ] ] ] } },
{ "type": "Feature", "properties": { "objectid": 35, "cut_region": "13", "region": "Metropolitana de Santiago", "circuito": "Circuito Ruta Patrimonial", "ruta": "Ruta Capital", "extension_": 7.0373, "cod_epsg": "EPSG: 4326", "centroide_x": 346741.5502246297, "centroide_y": 6298683.5517229447, "crs_original": "EPSG:4326", "fecha_normalizacion": "2025-10-10 01:59:23" }, "geometry": { "type": "MultiLineString", "coordinates": [ [ [ 346909.876900000148453, 6298209.8158 ], [ 346909.939900000230409, 6298208.493599999696016 ] ], [ [ 346909.876900000148453, 6298209.8158 ], [ 346778.706299999612384, 6298200.026900000870228 ], [ 346789.289699999731965, 6298225.427000001072884 ], [ 346816.806400000059512, 6298257.177000001072884 ], [ 346827.389800000528339, 6298280.460400000214577 ], [ 346816.806399999652058, 6298331.260499999858439 ], [ 346799.872999999905005, 6298358.777200002223253 ], [ 346901.47319999942556, 6298386.293999999761581 ], [ 346903.5898999995552, 6298354.543899999000132 ], [ 346905.70659999968484, 6298297.393800001591444 ], [ 346909.876900000148453, 6298209.8158 ] ], [ [ 347024.240200000233017, 6298231.777000000700355 ], [ 346920.523299999069422, 6298210.610299998894334 ], [ 346909.876900000148453, 6298209.8158 ] ], [ [ 346202.97179999994114, 6298464.6108 ], [ 346329.972100000246428, 6298475.194100001826882 ] ], [ [ 346202.97179999994114, 6298464.6108 ], [ 346181.805100000696257, 6298585.261 ], [ 346308.452599999029189, 6298597.925800001248717 ] ], [ [ 347102.689299999619834, 6298465.1841000020504 ], [ 346977.011900000274181, 6298425.49650000128895 ], [ 346957.1681, 6298551.173800000920892 ] ], [ [ 346329.972100000246428, 6298475.194100001826882 ], [ 346349.022099999943748, 6298356.660600000992417 ], [ 346224.138600000587758, 6298335.493900001049042 ], [ 346202.97179999994114, 6298464.6108 ] ], [ [ 346567.849200000346173, 6298496.8344 ], [ 346592.703899999556597, 6298312.386899998411536 ], [ 346563.599699998507276, 6298300.480600000359118 ], [ 346538.464200000395067, 6298295.188900001347065 ], [ 346526.557900000538211, 6298414.2517 ], [ 346567.849200000346173, 6298496.8344 ] ], [ [ 346567.849200000346173, 6298496.8344 ], [ 346568.891300000599585, 6298498.918499999679625 ] ], [ [ 346957.1681, 6298551.173800000920892 ], [ 347087.740300000179559, 6298566.21100000012666 ], [ 347102.689299999619834, 6298465.1841000020504 ] ], [ [ 346957.1681, 6298551.173800000920892 ], [ 346897.636800000793301, 6298537.9446 ], [ 346874.485699999961071, 6298666.929199999198318 ], [ 346810.98559999873396, 6298657.668800001963973 ], [ 346765.105900000431575, 6298651.7489 ] ], [ [ 346308.452599999029189, 6298597.925800001248717 ], [ 346308.805400000070222, 6298595.844399999827147 ], [ 346329.972100000246428, 6298475.194100001826882 ] ], [ [ 346308.452599999029189, 6298597.925800001248717 ], [ 346308.805399999720976, 6298597.961100000888109 ] ], [ [ 346555.66209999890998, 6298625.918800001963973 ], [ 346567.568399998592213, 6298498.918499999679625 ], [ 346567.849200000346173, 6298496.8344 ] ], [ [ 346765.105900000431575, 6298651.7489 ], [ 346687.954099998867605, 6298641.793800000101328 ], [ 346632.391499999794178, 6298636.502100000157952 ], [ 346555.66209999890998, 6298625.918800001963973 ] ], [ [ 346765.105900000431575, 6298651.7489 ], [ 346775.266699999687262, 6298582.262400000356138 ], [ 346820.24600000079954, 6298588.877000000327826 ] ], [ [ 346266.471999999834225, 6298849.84489999897778 ], [ 346287.638700000417884, 6298720.727999999187887 ], [ 346308.452599999029189, 6298597.925800001248717 ] ], [ [ 346397.970199999748729, 6298862.015800001099706 ], [ 346266.471999999834225, 6298849.84489999897778 ] ], [ [ 346397.970199999748729, 6298862.015800001099706 ], [ 346421.782700000563636, 6298735.01549999974668 ], [ 346536.876700000255369, 6298758.82799999974668 ], [ 346555.66209999890998, 6298625.918800001963973 ] ], [ [ 347248.078100000042468, 6298989.986100001260638 ], [ 347029.002700000302866, 6298945.3597 ], [ 346902.002400000113994, 6298937.4222 ], [ 346771.033399999840185, 6298909.640800000168383 ], [ 346397.970199999748729, 6298862.015800001099706 ] ], [ [ 347224.265599999809638, 6299124.923900000751019 ], [ 347153.357099999091588, 6299112.312100000679493 ], [ 347009.423499999160413, 6299086.911999999545515 ], [ 346882.42319999873871, 6299072.095300000160933 ], [ 346755.42299999948591, 6299053.04530000127852 ], [ 346639.006099999125581, 6299036.1119 ], [ 346501.422399997885805, 6299012.828600000590086 ], [ 346391.355600000941195, 6298995.895200001075864 ], [ 346245.30530000035651, 6298974.728499999269843 ], [ 346266.471999999834225, 6298849.84489999897778 ] ], [ [ 347261.307300000102259, 6299238.695000000298023 ], [ 347234.848899999109562, 6299156.6739999987185 ], [ 347224.265600000158884, 6299090.528000000864267 ], [ 347242.786399999808054, 6299011.152900000102818 ], [ 347258.661500000394881, 6298968.81940000038594 ], [ 347306.2866, 6298918.548499999567866 ], [ 347335.390800000517629, 6298788.9024 ], [ 347345.974100000399631, 6298722.756400001235306 ], [ 347361.849200000055134, 6298635.443800000473857 ], [ 347380.370000000053551, 6298598.401999999769032 ], [ 347307.741799999494106, 6298544.559200000949204 ], [ 347241.595799999893643, 6298504.871600000187755 ], [ 347188.679000000120141, 6298485.027800001204014 ], [ 347102.689299999619834, 6298465.1841000020504 ] ] ] } }
]
}
