{
"type": "FeatureCollection",
"name": "cuarteles_filtrados",
"crs": { "type": "name", "properties": { "name": "urn:ogc:def:crs:EPSG::32719" } },
"features": [
{ "type": "Feature", "properties": { "NOMBRE_REG": "REGION METROPOLITANA DE SANTIAGO", "NOMBRE_PRO": "SANTIAGO", "NOMBRE_COM": "ESTACION CENTRAL", "NOMBRE_UNI": "21A.COM. ESTACION CENTRAL", "TIPO_DE_UN": "COMISARIA", "TIPO_DE_VI": "CALLE", "NOMBRE_DE": "ECUADOR", "NUMERO": "4050", "POINT_X": -70.69242, "POINT_Y": -33.45131, "HECHO": "2014", "RG": 13.0, "PREFECTURA": "CENTRAL NORTE", "TIPO": null, "ZONA": "METROPOLITANA OESTE", "UNI_COD": "13013", "UNID_ENCRI": "6313be4129cd1c9cb45af0dd5c1d8d25", "centroide_x": 342701.93617533229, "centroide_y": 6297398.1554989014, "crs_original": "EPSG:4326", "fecha_normalizacion": "2025-10-10 01:59:23" }, "geometry": { "type": "Point", "coordinates": [ 342701.936175332288258, 6297398.155498901382089, 0.0 ] } },
{ "type": "Feature", "properties": { "NOMBRE_REG": "REGION METROPOLITANA DE SANTIAGO", "NOMBRE_PRO": "SANTIAGO", "NOMBRE_COM": "LO PRADO", "NOMBRE_UNI": "44A. COM. LO PRADO", "TIPO_DE_UN": "COMISARIA", "TIPO_DE_VI": "AVENIDA", "NOMBRE_DE": "SAN PABLO", "NUMERO": "5829", "POINT_X": -70.715861, "POINT_Y": -33.442814, "HECHO": "2014", "RG": 13.0, "PREFECTURA": "SANTIAGO OCCIDENTE", "TIPO": null, "ZONA": "METROPOLITANA OESTE", "UNI_COD": "13028", "UNID_ENCRI": "54f6673693e32389bd5d1f6feadb1d0e", "centroide_x": 340507.4557992015, "centroide_y": 6298304.5234034928, "crs_original": "EPSG:4326", "fecha_normalizacion": "2025-10-10 01:59:23" }, "geometry": { "type": "Point", "coordinates": [ 340507.455799201503396, 6298304.523403492756188, 0.0 ] } },
{ "type": "Feature", "properties": { "NOMBRE_REG": "REGION METROPOLITANA DE SANTIAGO", "NOMBRE_PRO": "SANTIAGO", "NOMBRE_COM": "ESTACION CENTRAL", "NOMBRE_UNI": "RETEN CASA MONEDA", "TIPO_DE_UN": "RETEN", "TIPO_DE_VI": "CALLE", "NOMBRE_DE": "PORTALES", "NUMERO": "3586", "POINT_X": -70.685496, "POINT_Y": -33.444344, "HECHO": "2014", "RG": 13.0, "PREFECTURA": "CENTRAL NORTE", "TIPO": null, "ZONA": "METROPOLITANA OESTE", "UNI_COD": "13047", "UNID_ENCRI": null, "centroide_x": 343333.01673834852, "centroide_y": 6298181.0558703067, "crs_original": "EPSG:4326", "fecha_normalizacion": "2025-10-10 01:59:23" }, "geometry": { "type": "Point", "coordinates": [ 343333.016738348524086, 6298181.055870306678116, 0.0 ] } },
{ "type": "Feature", "properties": { "NOMBRE_REG": "REGION METROPOLITANA DE SANTIAGO", "NOMBRE_PRO": "SANTIAGO", "NOMBRE_COM": "CERRILLOS", "NOMBRE_UNI": "SCOM. CERRILLOS", "TIPO_DE_UN": "SUBCOMISARIA", "TIPO_DE_VI": "AVENIDA", "NOMBRE_DE": "BUZETA", "NUMERO": "3986", "POINT_X": -70.687951442100001, "POINT_Y": -33.479598111400001, "HECHO": "2014", "RG": 13.0, "PREFECTURA": "SANTIAGO RINCONADA", "TIPO": null, "ZONA": "METROPOLITANA OESTE", "UNI_COD": "13071", "UNID_ENCRI": null, "centroide_x": 343168.27698113956, "centroide_y": 6294268.1163486354, "crs_original": "EPSG:4326", "fecha_normalizacion": "2025-10-10 01:59:23" }, "geometry": { "type": "Point", "coordinates": [ 343168.276981139555573, 6294268.116348635405302, 0.0 ] } },
{ "type": "Feature", "properties": { "NOMBRE_REG": "REGION METROPOLITANA DE SANTIAGO", "NOMBRE_PRO": "SANTIAGO", "NOMBRE_COM": "ESTACION CENTRAL", "NOMBRE_UNI": "58A. COM. PB. ALESSANDRI", "TIPO_DE_UN": "COMISARIA", "TIPO_DE_VI": "CALLE", "NOMBRE_DE": "ANTARTICA", "NUMERO": "4701", "POINT_X": -70.698969, "POINT_Y": -33.469971, "HECHO": "2014", "RG": 13.0, "PREFECTURA": "CENTRAL SUR", "TIPO": null, "ZONA": "METROPOLITANA OESTE", "UNI_COD": "13081", "UNID_ENCRI": "8bee21cde6254b3a897484f00e16b37c", "centroide_x": 342127.02544995159, "centroide_y": 6295318.9483853728, "crs_original": "EPSG:4326", "fecha_normalizacion": "2025-10-10 01:59:23" }, "geometry": { "type": "Point", "coordinates": [ 342127.025449951586779, 6295318.948385372757912, 0.0 ] } },
{ "type": "Feature", "properties": { "NOMBRE_REG": "REGION METROPOLITANA DE SANTIAGO", "NOMBRE_PRO": "SANTIAGO", "NOMBRE_COM": "PEDRO AGUIRRE CERDA", "NOMBRE_UNI": "TCIA. ALC. CARLOS VALDOVINOS", "TIPO_DE_UN": "TENENCIA", "TIPO_DE_VI": "CALLE", "NOMBRE_DE": "BELEN", "NUMERO": "3435", "POINT_X": -70.674299, "POINT_Y": -33.48087, "HECHO": "2014", "RG": 13.0, "PREFECTURA": "SANTIAGO RINCONADA", "TIPO": null, "ZONA": "METROPOLITANA OESTE", "UNI_COD": "13087", "UNID_ENCRI": null, "centroide_x": 344439.17620734801, "centroide_y": 6294147.6196208568, "crs_original": "EPSG:4326", "fecha_normalizacion": "2025-10-10 01:59:23" }, "geometry": { "type": "Point", "coordinates": [ 344439.176207348005846, 6294147.619620856828988, 0.0 ] } },
{ "type": "Feature", "properties": { "NOMBRE_REG": "REGION METROPOLITANA DE SANTIAGO", "NOMBRE_PRO": "SANTIAGO", "NOMBRE_COM": "LA REINA", "NOMBRE_UNI": "16A. COM. LA REINA", "TIPO_DE_UN": "COMISARIA", "TIPO_DE_VI": "AVENIDA", "NOMBRE_DE": "ECHENIQUE", "NUMERO": "8428", "POINT_X": -70.54426, "POINT_Y": -33.44148, "HECHO": "2014", "RG": 13.0, "PREFECTURA": "SANTIAGO ANDES", "TIPO": null, "ZONA": "METROPOLITANA ESTE", "UNI_COD": "13007", "UNID_ENCRI": "69418d6ea196347a82c9dbffc8c9483d", "centroide_x": 356457.51084252668, "centroide_y": 6298702.6244139541, "crs_original": "EPSG:4326", "fecha_normalizacion": "2025-10-10 01:59:23" }, "geometry": { "type": "Point", "coordinates": [ 356457.51084252668079, 6298702.624413954094052, 0.0 ] } },
{ "type": "Feature", "properties": { "NOMBRE_REG": "REGION METROPOLITANA DE SANTIAGO", "NOMBRE_PRO": "SANTIAGO", "NOMBRE_COM": "NUNOA", "NOMBRE_UNI": "18A. COM. NUNOA", "TIPO_DE_UN": "COMISARIA", "TIPO_DE_VI": "CALLE", "NOMBRE_DE": "GENERAL JOSE ALEJANDRO BERNALES", "NUMERO": "5147", "POINT_X": -70.57571, "POINT_Y": -33.45336, "HECHO": "2014", "RG": 13.0, "PREFECTURA": "SANTIAGO ORIENTE", "TIPO": null, "ZONA": "METROPOLITANA ESTE", "UNI_COD": "13009", "UNID_ENCRI": "a28ec719c0dcfd1c2560f9ecf4d04673", "centroide_x": 353553.84564516117, "centroide_y": 6297341.4364194172, "crs_original": "EPSG:4326", "fecha_normalizacion": "2025-10-10 01:59:23" }, "geometry": { "type": "Point", "coordinates": [ 353553.845645161170978, 6297341.436419417150319, 0.0 ] } },
{ "type": "Feature", "properties": { "NOMBRE_REG": "REGION METROPOLITANA DE SANTIAGO", "NOMBRE_PRO": "SANTIAGO", "NOMBRE_COM": "NUNOA", "NOMBRE_UNI": "33A. COM. NUNOA", "TIPO_DE_UN": "COMISARIA", "TIPO_DE_VI": "AVENIDA", "NOMBRE_DE": "GUILLERMO MANN", "NUMERO": "2100", "POINT_X": -70.61386, "POINT_Y": -33.4708, "HECHO": "2014", "RG": 13.0, "PREFECTURA": "SANTIAGO ORIENTE", "TIPO": null, "ZONA": "METROPOLITANA ESTE", "UNI_COD": "13020", "UNID_ENCRI": "958d76ba0c349bb9a5d8231df57ab60f", "centroide_x": 350037.86886458064, "centroide_y": 6295353.1656523775, "crs_original": "EPSG:4326", "fecha_normalizacion": "2025-10-10 01:59:23" }, "geometry": { "type": "Point", "coordinates": [ 350037.868864580639638, 6295353.165652377530932, 0.0 ] } },
{ "type": "Feature", "properties": { "NOMBRE_REG": "REGION METROPOLITANA DE SANTIAGO", "NOMBRE_PRO": "SANTIAGO", "NOMBRE_COM": "SANTIAGO", "NOMBRE_UNI": "1RA. COM. SANTIAGO", "TIPO_DE_UN": "COMISARIA", "TIPO_DE_VI": "CALLE", "NOMBRE_DE": "SANTO DOMINGO", "NUMERO": "714", "POINT_X": -70.64756, "POINT_Y": -33.43587, "HECHO": "2014", "RG": 13.0, "PREFECTURA": "CENTRAL NORTE", "TIPO": null, "ZONA": "METROPOLITANA OESTE", "UNI_COD": "13011", "UNID_ENCRI": "94a0ba6e6427d03b1d547f23b77498c4", "centroide_x": 346844.66594192473, "centroide_y": 6299177.2522460092, "crs_original": "EPSG:4326", "fecha_normalizacion": "2025-10-10 01:59:23" }, "geometry": { "type": "Point", "coordinates": [ 346844.66594192472985, 6299177.25224600918591, 0.0 ] } },
{ "type": "Feature", "properties": { "NOMBRE_REG": "REGION METROPOLITANA DE SANTIAGO", "NOMBRE_PRO": "SANTIAGO", "NOMBRE_COM": "SANTIAGO", "NOMBRE_UNI": "2DA. COM. SANTIAGO", "TIPO_DE_UN": "COMISARIA", "TIPO_DE_VI": "CALLE", "NOMBRE_DE": "TOESCA", "NUMERO": "2345", "POINT_X": -70.6681, "POINT_Y": -33.45455, "HECHO": "2014", "RG": 13.0, "PREFECTURA": "CENTRAL SUR", "TIPO": null, "ZONA": "METROPOLITANA OESTE", "UNI_COD": "13018", "UNID_ENCRI": "1ae01fcc17a0d573cd8482d3316d3563", "centroide_x": 344968.32435873186, "centroide_y": 6297075.4367186856, "crs_original": "EPSG:4326", "fecha_normalizacion": "2025-10-10 01:59:23" }, "geometry": { "type": "Point", "coordinates": [ 344968.324358731857501, 6297075.436718685552478, 0.0 ] } },
{ "type": "Feature", "properties": { "NOMBRE_REG": "REGION METROPOLITANA DE SANTIAGO", "NOMBRE_PRO": "SANTIAGO", "NOMBRE_COM": "SANTIAGO", "NOMBRE_UNI": "3RA. COM. SANTIAGO", "TIPO_DE_UN": "COMISARIA", "TIPO_DE_VI": "PASAJE", "NOMBRE_DE": "FERNANDEZ ALBANO", "NUMERO": "165", "POINT_X": -70.65855, "POINT_Y": -33.44196, "HECHO": "2014", "RG": 13.0, "PREFECTURA": "CENTRAL NORTE", "TIPO": null, "ZONA": "METROPOLITANA OESTE", "UNI_COD": "13025", "UNID_ENCRI": "f2a84e208ac8b8b4b77096beb1a435ea", "centroide_x": 345833.71012524888, "centroide_y": 6298485.707436244, "crs_original": "EPSG:4326", "fecha_normalizacion": "2025-10-10 01:59:23" }, "geometry": { "type": "Point", "coordinates": [ 345833.710125248879194, 6298485.707436244003475, 0.0 ] } },
{ "type": "Feature", "properties": { "NOMBRE_REG": "REGION METROPOLITANA DE SANTIAGO", "NOMBRE_PRO": "SANTIAGO", "NOMBRE_COM": "SANTIAGO", "NOMBRE_UNI": "4TA. COM. SANTIAGO", "TIPO_DE_UN": "COMISARIA", "TIPO_DE_VI": "CALLE", "NOMBRE_DE": "CHILOE", "NUMERO": "1472", "POINT_X": -70.64561, "POINT_Y": -33.46533, "HECHO": "2014", "RG": 13.0, "PREFECTURA": "CENTRAL SUR", "TIPO": null, "ZONA": "METROPOLITANA OESTE", "UNI_COD": "13032", "UNID_ENCRI": "d12c9cc686cc72f1b623433dbd420185", "centroide_x": 347077.68741110049, "centroide_y": 6295913.4156317431, "crs_original": "EPSG:4326", "fecha_normalizacion": "2025-10-10 01:59:23" }, "geometry": { "type": "Point", "coordinates": [ 347077.687411100487225, 6295913.415631743147969, 0.0 ] } },
{ "type": "Feature", "properties": { "NOMBRE_REG": "REGION METROPOLITANA DE SANTIAGO", "NOMBRE_PRO": "SANTIAGO", "NOMBRE_COM": "INDEPENDENCIA", "NOMBRE_UNI": "TCIA. JUAN ANTONIO RIOS", "TIPO_DE_UN": "TENENCIA", "TIPO_DE_VI": "CALLE", "NOMBRE_DE": "SARA GAJARDO", "NUMERO": "940", "POINT_X": -70.67091, "POINT_Y": -33.42147, "HECHO": "2014", "RG": 13.0, "PREFECTURA": "SANTIAGO NORTE", "TIPO": null, "ZONA": "METROPOLITANA OESTE", "UNI_COD": "13098", "UNID_ENCRI": null, "centroide_x": 344648.17351909354, "centroide_y": 6300739.3679380305, "crs_original": "EPSG:4326", "fecha_normalizacion": "2025-10-10 01:59:23" }, "geometry": { "type": "Point", "coordinates": [ 344648.173519093543291, 6300739.367938030511141, 0.0 ] } },
{ "type": "Feature", "properties": { "NOMBRE_REG": "REGION METROPOLITANA DE SANTIAGO", "NOMBRE_PRO": "SANTIAGO", "NOMBRE_COM": "PROVIDENCIA", "NOMBRE_UNI": "60A. COM. METRO SANTIAGO", "TIPO_DE_UN": "COMISARIA", "TIPO_DE_VI": "INTERIOR", "NOMBRE_DE": "ESTACION BAQUEDANO", "NUMERO": "S/N", "POINT_X": -70.634174, "POINT_Y": -33.437411, "HECHO": "2014", "RG": 13.0, "PREFECTURA": "RADIOPATRULLAS E INTERV.", "TIPO": null, "ZONA": "METROPOLITANA ESTE", "UNI_COD": "13106", "UNID_ENCRI": "d41d8cd98f00b204e9800998ecf8427e", "centroide_x": 348091.83385111438, "centroide_y": 6299026.0205688588, "crs_original": "EPSG:4326", "fecha_normalizacion": "2025-10-10 01:59:23" }, "geometry": { "type": "Point", "coordinates": [ 348091.833851114381105, 6299026.020568858832121, 0.0 ] } },
{ "type": "Feature", "properties": { "NOMBRE_REG": "REGION METROPOLITANA DE SANTIAGO", "NOMBRE_PRO": "SANTIAGO", "NOMBRE_COM": "RECOLETA", "NOMBRE_UNI": "SCOM. RECOLETA SUR", "TIPO_DE_UN": "SUBCOMISARIA", "TIPO_DE_VI": "CALLE", "NOMBRE_DE": "DAVILA BAEZA", "NUMERO": "880", "POINT_X": -70.650932, "POINT_Y": -33.42732, "HECHO": "2014", "RG": 13.0, "PREFECTURA": "SANTIAGO NORTE", "TIPO": null, "ZONA": "METROPOLITANA OESTE", "UNI_COD": "13110", "UNID_ENCRI": null, "centroide_x": 346516.11944819975, "centroide_y": 6300120.3542586323, "crs_original": "EPSG:4326", "fecha_normalizacion": "2025-10-10 01:59:23" }, "geometry": { "type": "Point", "coordinates": [ 346516.119448199751787, 6300120.354258632287383, 0.0 ] } }
]
}
