{
"type": "FeatureCollection",
"name": "delincuencia_comunas_anual",
"crs": { "type": "name", "properties": { "name": "urn:ogc:def:crs:EPSG::32719" } },
"features": [
{ "type": "Feature", "properties": { "Comuna": "Santiago", "Tasa_publicada_por_100k_hab": 4531.3, "Casos_reportados_frecuencia": 24292, "Poblacion_estimada_habitantes": 536089, "Tasa_recalculada_por_100k_hab": 4531.3371473766483, "Diferencia_tasa_publicada_menos_recalculada_por_100k": -0.037147376648135798, "comuna_normalizada": "santiago", "centroide_x": 346923.59536897513, "centroide_y": 6297698.522493694, "crs_original": "EPSG:4326", "fecha_normalizacion": "2025-10-10 01:59:23" }, "geometry": { "type": "Point", "coordinates": [ 346923.595368975133169, 6297698.522493693977594 ] } },
{ "type": "Feature", "properties": { "Comuna": "Estación Central", "Tasa_publicada_por_100k_hab": 4129.2, "Casos_reportados_frecuencia": 9080, "Poblacion_estimada_habitantes": 219897, "Tasa_recalculada_por_100k_hab": 4129.2059464203694, "Diferencia_tasa_publicada_menos_recalculada_por_100k": -0.0059464203695824003, "comuna_normalizada": "estacion central", "centroide_x": 339873.17541931977, "centroide_y": 6295700.889355571, "crs_original": "EPSG:4326", "fecha_normalizacion": "2025-10-10 01:59:23" }, "geometry": { "type": "Point", "coordinates": [ 339873.175419319770299, 6295700.889355571009219 ] } },
{ "type": "Feature", "properties": { "Comuna": "La Reina", "Tasa_publicada_por_100k_hab": 2123.7, "Casos_reportados_frecuencia": 2117, "Poblacion_estimada_habitantes": 99686, "Tasa_recalculada_por_100k_hab": 2123.6683185201532, "Diferencia_tasa_publicada_menos_recalculada_por_100k": 0.031681479846611099, "comuna_normalizada": "la reina", "centroide_x": 356451.17288195173, "centroide_y": 6299394.0436993558, "crs_original": "EPSG:4326", "fecha_normalizacion": "2025-10-10 01:59:23" }, "geometry": { "type": "Point", "coordinates": [ 356451.172881951730233, 6299394.043699355795979 ] } },
{ "type": "Feature", "properties": { "Comuna": "Ñuñoa", "Tasa_publicada_por_100k_hab": 2094.8, "Casos_reportados_frecuencia": 5516, "Poblacion_estimada_habitantes": 263319, "Tasa_recalculada_por_100k_hab": 2094.7975649307496, "Diferencia_tasa_publicada_menos_recalculada_por_100k": 0.0024350692506231999, "comuna_normalizada": "nunoa", "centroide_x": 353273.66625217011, "centroide_y": 6297640.301779544, "crs_original": "EPSG:4326", "fecha_normalizacion": "2025-10-10 01:59:23" }, "geometry": { "type": "Point", "coordinates": [ 353273.666252170107327, 6297640.301779543980956 ] } }
]
}
