{
"type": "FeatureCollection",
"name": "estaciones_carga_filtradas",
"crs": { "type": "name", "properties": { "name": "urn:ogc:def:crs:EPSG::32719" } },
"features": [
{ "type": "Feature", "properties": { "OBJECTID": 1377, "DISTRIBUID": "AUTOGASCO", "CALLE": "CUETO", "NUMERO": "1095", "BEN_93": " ", "BEN_95": " ", "BEN_97": " ", "DIESEL": "SI", "GLP": "SI", "GNC": "SI", "KEROSENE": " ", "COOR_ESTE": 344479.11977891001, "COOR_NORTE": 6299508.0309005398, "HUSO": "19 S", "DATUM": "WGS84", "REGION": "METROPOLITANA DE SANTIAGO", "PROVINCIA": "SANTIAGO", "COMUNA": "SANTIAGO", "FUENTE_BAS": "CNE", "FECHA_CREA": 1527811200000, "FECHA_ACT": 1681171200000, "centroide_x": 344479.11977738771, "centroide_y": 6299508.0309967874, "crs_original": "EPSG:4326", "fecha_normalizacion": "2025-10-10 01:59:24" }, "geometry": { "type": "Point", "coordinates": [ 344479.119777387706563, 6299508.030996787361801 ] } },
{ "type": "Feature", "properties": { "OBJECTID": 1378, "DISTRIBUID": "COPEC", "CALLE": "MAPOCHO", "NUMERO": "1998", "BEN_93": "SI", "BEN_95": "SI", "BEN_97": "SI", "DIESEL": "SI", "GLP": " ", "GNC": " ", "KEROSENE": " ", "COOR_ESTE": 345248.35880397999, "COOR_NORTE": 6299559.9874279797, "HUSO": "19 S", "DATUM": "WGS84", "REGION": "METROPOLITANA DE SANTIAGO", "PROVINCIA": "SANTIAGO", "COMUNA": "SANTIAGO", "FUENTE_BAS": "CNE", "FECHA_CREA": 1527811200000, "FECHA_ACT": 1681171200000, "centroide_x": 345248.3588024535, "centroide_y": 6299559.9875242189, "crs_original": "EPSG:4326", "fecha_normalizacion": "2025-10-10 01:59:24" }, "geometry": { "type": "Point", "coordinates": [ 345248.358802453498356, 6299559.987524218857288 ] } },
{ "type": "Feature", "properties": { "OBJECTID": 1379, "DISTRIBUID": "COPEC", "CALLE": "SAN PABLO", "NUMERO": "1571", "BEN_93": "SI", "BEN_95": "SI", "BEN_97": "SI", "DIESEL": "SI", "GLP": " ", "GNC": " ", "KEROSENE": " ", "COOR_ESTE": 345695.85710900999, "COOR_NORTE": 6299321.4709496396, "HUSO": "19 S", "DATUM": "WGS84", "REGION": "METROPOLITANA DE SANTIAGO", "PROVINCIA": "SANTIAGO", "COMUNA": "SANTIAGO", "FUENTE_BAS": "CNE", "FECHA_CREA": 1527811200000, "FECHA_ACT": 1681171200000, "centroide_x": 345695.85710749426, "centroide_y": 6299321.4710458871, "crs_original": "EPSG:4326", "fecha_normalizacion": "2025-10-10 01:59:24" }, "geometry": { "type": "Point", "coordinates": [ 345695.857107494259253, 6299321.471045887097716 ] } },
{ "type": "Feature", "properties": { "OBJECTID": 1380, "DISTRIBUID": "COPEC", "CALLE": "AVENIDA ALMIRANTE BLANCO ENCALADA", "NUMERO": "1899", "BEN_93": "SI", "BEN_95": "SI", "BEN_97": "SI", "DIESEL": "SI", "GLP": " ", "GNC": " ", "KEROSENE": " ", "COOR_ESTE": 345660.97862297, "COOR_NORTE": 6296868.1101176599, "HUSO": "19 S", "DATUM": "WGS84", "REGION": "METROPOLITANA DE SANTIAGO", "PROVINCIA": "SANTIAGO", "COMUNA": "SANTIAGO", "FUENTE_BAS": "CNE", "FECHA_CREA": 1527811200000, "FECHA_ACT": 1681171200000, "centroide_x": 345660.97862145409, "centroide_y": 6296868.1102139428, "crs_original": "EPSG:4326", "fecha_normalizacion": "2025-10-10 01:59:24" }, "geometry": { "type": "Point", "coordinates": [ 345660.978621454094537, 6296868.110213942825794 ] } },
{ "type": "Feature", "properties": { "OBJECTID": 1381, "DISTRIBUID": "COPEC", "CALLE": "AVENIDA MATTA", "NUMERO": "788", "BEN_93": "SI", "BEN_95": "SI", "BEN_97": "SI", "DIESEL": "SI", "GLP": " ", "GNC": " ", "KEROSENE": " ", "COOR_ESTE": 347119.64862614003, "COOR_NORTE": 6296608.1214234298, "HUSO": "19 S", "DATUM": "WGS84", "REGION": "METROPOLITANA DE SANTIAGO", "PROVINCIA": "SANTIAGO", "COMUNA": "SANTIAGO", "FUENTE_BAS": "CNE", "FECHA_CREA": 1527811200000, "FECHA_ACT": 1681171200000, "centroide_x": 347119.64862464211, "centroide_y": 6296608.121519709, "crs_original": "EPSG:4326", "fecha_normalizacion": "2025-10-10 01:59:24" }, "geometry": { "type": "Point", "coordinates": [ 347119.648624642111827, 6296608.121519709005952 ] } },
{ "type": "Feature", "properties": { "OBJECTID": 1382, "DISTRIBUID": "COPEC", "CALLE": "LORD COCHRANE", "NUMERO": "152", "BEN_93": "SI", "BEN_95": "SI", "BEN_97": "SI", "DIESEL": "SI", "GLP": " ", "GNC": " ", "KEROSENE": " ", "COOR_ESTE": 346205.21882120997, "COOR_NORTE": 6297847.0654464299, "HUSO": "19 S", "DATUM": "WGS84", "REGION": "METROPOLITANA DE SANTIAGO", "PROVINCIA": "SANTIAGO", "COMUNA": "SANTIAGO", "FUENTE_BAS": "CNE", "FECHA_CREA": 1527811200000, "FECHA_ACT": 1681171200000, "centroide_x": 346205.21881970542, "centroide_y": 6297847.065542697, "crs_original": "EPSG:4326", "fecha_normalizacion": "2025-10-10 01:59:24" }, "geometry": { "type": "Point", "coordinates": [ 346205.218819705420174, 6297847.065542696975172 ] } },
{ "type": "Feature", "properties": { "OBJECTID": 1383, "DISTRIBUID": "COPEC", "CALLE": "SAN PABLO", "NUMERO": "2602", "BEN_93": "SI", "BEN_95": "SI", "BEN_97": "SI", "DIESEL": "SI", "GLP": " ", "GNC": " ", "KEROSENE": " ", "COOR_ESTE": 344473.6648498, "COOR_NORTE": 6299211.5104050096, "HUSO": "19 S", "DATUM": "WGS84", "REGION": "METROPOLITANA DE SANTIAGO", "PROVINCIA": "SANTIAGO", "COMUNA": "SANTIAGO", "FUENTE_BAS": "CNE", "FECHA_CREA": 1527811200000, "FECHA_ACT": 1681171200000, "centroide_x": 344473.66484827269, "centroide_y": 6299211.5105012702, "crs_original": "EPSG:4326", "fecha_normalizacion": "2025-10-10 01:59:24" }, "geometry": { "type": "Point", "coordinates": [ 344473.664848272688687, 6299211.510501270182431 ] } },
{ "type": "Feature", "properties": { "OBJECTID": 1384, "DISTRIBUID": "COPEC", "CALLE": "SAN PABLO", "NUMERO": "1990", "BEN_93": "SI", "BEN_95": "SI", "BEN_97": "SI", "DIESEL": "SI", "GLP": " ", "GNC": " ", "KEROSENE": " ", "COOR_ESTE": 345274.56843421003, "COOR_NORTE": 6299259.123691, "HUSO": "19 S", "DATUM": "WGS84", "REGION": "METROPOLITANA DE SANTIAGO", "PROVINCIA": "SANTIAGO", "COMUNA": "SANTIAGO", "FUENTE_BAS": "CNE", "FECHA_CREA": 1527811200000, "FECHA_ACT": 1681171200000, "centroide_x": 345274.56843270105, "centroide_y": 6299259.123787256, "crs_original": "EPSG:4326", "fecha_normalizacion": "2025-10-10 01:59:24" }, "geometry": { "type": "Point", "coordinates": [ 345274.568432701053098, 6299259.123787255957723 ] } },
{ "type": "Feature", "properties": { "OBJECTID": 1385, "DISTRIBUID": "COPEC", "CALLE": "NATANIEL COX", "NUMERO": "1802", "BEN_93": "SI", "BEN_95": "SI", "BEN_97": "SI", "DIESEL": "SI", "GLP": " ", "GNC": " ", "KEROSENE": " ", "COOR_ESTE": 346689.18075921002, "COOR_NORTE": 6295372.5615547001, "HUSO": "19 S", "DATUM": "WGS84", "REGION": "METROPOLITANA DE SANTIAGO", "PROVINCIA": "SANTIAGO", "COMUNA": "SANTIAGO", "FUENTE_BAS": "CNE", "FECHA_CREA": 1527811200000, "FECHA_ACT": 1681171200000, "centroide_x": 346689.18075770559, "centroide_y": 6295372.5616509998, "crs_original": "EPSG:4326", "fecha_normalizacion": "2025-10-10 01:59:24" }, "geometry": { "type": "Point", "coordinates": [ 346689.180757705587894, 6295372.561650999821723 ] } },
{ "type": "Feature", "properties": { "OBJECTID": 1386, "DISTRIBUID": "COPEC", "CALLE": "VIEL", "NUMERO": "1921", "BEN_93": "SI", "BEN_95": "SI", "BEN_97": "SI", "DIESEL": "SI", "GLP": " ", "GNC": " ", "KEROSENE": " ", "COOR_ESTE": 346091.33005743002, "COOR_NORTE": 6295151.3641974796, "HUSO": "19 S", "DATUM": "WGS84", "REGION": "METROPOLITANA DE SANTIAGO", "PROVINCIA": "SANTIAGO", "COMUNA": "SANTIAGO", "FUENTE_BAS": "CNE", "FECHA_CREA": 1527811200000, "FECHA_ACT": 1681171200000, "centroide_x": 346091.33005592367, "centroide_y": 6295151.3642937932, "crs_original": "EPSG:4326", "fecha_normalizacion": "2025-10-10 01:59:24" }, "geometry": { "type": "Point", "coordinates": [ 346091.330055923666805, 6295151.364293793216348 ] } },
{ "type": "Feature", "properties": { "OBJECTID": 1387, "DISTRIBUID": "COPEC", "CALLE": "BASCUNAN GUERRERO", "NUMERO": "568", "BEN_93": "SI", "BEN_95": "SI", "BEN_97": "SI", "DIESEL": "SI", "GLP": " ", "GNC": " ", "KEROSENE": " ", "COOR_ESTE": 344434.89774992003, "COOR_NORTE": 6296817.6575256204, "HUSO": "19 S", "DATUM": "WGS84", "REGION": "METROPOLITANA DE SANTIAGO", "PROVINCIA": "SANTIAGO", "COMUNA": "SANTIAGO", "FUENTE_BAS": "CNE", "FECHA_CREA": 1527811200000, "FECHA_ACT": 1681171200000, "centroide_x": 344434.89774838445, "centroide_y": 6296817.6576218959, "crs_original": "EPSG:4326", "fecha_normalizacion": "2025-10-10 01:59:24" }, "geometry": { "type": "Point", "coordinates": [ 344434.897748384450097, 6296817.657621895894408 ] } },
{ "type": "Feature", "properties": { "OBJECTID": 1388, "DISTRIBUID": "COPEC", "CALLE": "CARMEN", "NUMERO": "185", "BEN_93": "SI", "BEN_95": "SI", "BEN_97": "SI", "DIESEL": "SI", "GLP": " ", "GNC": " ", "KEROSENE": " ", "COOR_ESTE": 347308.83075944998, "COOR_NORTE": 6298016.9859427502, "HUSO": "19 S", "DATUM": "WGS84", "REGION": "METROPOLITANA DE SANTIAGO", "PROVINCIA": "SANTIAGO", "COMUNA": "SANTIAGO", "FUENTE_BAS": "CNE", "FECHA_CREA": 1527811200000, "FECHA_ACT": 1681171200000, "centroide_x": 347308.8307579573, "centroide_y": 6298016.9860390127, "crs_original": "EPSG:4326", "fecha_normalizacion": "2025-10-10 01:59:24" }, "geometry": { "type": "Point", "coordinates": [ 347308.830757957301103, 6298016.986039012670517 ] } },
{ "type": "Feature", "properties": { "OBJECTID": 1389, "DISTRIBUID": "COPEC", "CALLE": "ARTURO PRAT", "NUMERO": "683", "BEN_93": "SI", "BEN_95": "SI", "BEN_97": "SI", "DIESEL": "SI", "GLP": " ", "GNC": " ", "KEROSENE": " ", "COOR_ESTE": 346778.71035582002, "COOR_NORTE": 6297193.68587407, "HUSO": "19 S", "DATUM": "WGS84", "REGION": "METROPOLITANA DE SANTIAGO", "PROVINCIA": "SANTIAGO", "COMUNA": "SANTIAGO", "FUENTE_BAS": "CNE", "FECHA_CREA": 1527811200000, "FECHA_ACT": 1681171200000, "centroide_x": 346778.71035431442, "centroide_y": 6297193.6859703446, "crs_original": "EPSG:4326", "fecha_normalizacion": "2025-10-10 01:59:24" }, "geometry": { "type": "Point", "coordinates": [ 346778.71035431441851, 6297193.68597034458071 ] } },
{ "type": "Feature", "properties": { "OBJECTID": 1390, "DISTRIBUID": "COPEC", "CALLE": "AVENIDA MATTA", "NUMERO": "665", "BEN_93": "SI", "BEN_95": "SI", "BEN_97": "SI", "DIESEL": "SI", "GLP": " ", "GNC": " ", "KEROSENE": " ", "COOR_ESTE": 347367.83123084001, "COOR_NORTE": 6296745.57712531, "HUSO": "19 S", "DATUM": "WGS84", "REGION": "METROPOLITANA DE SANTIAGO", "PROVINCIA": "SANTIAGO", "COMUNA": "SANTIAGO", "FUENTE_BAS": "CNE", "FECHA_CREA": 1527811200000, "FECHA_ACT": 1681171200000, "centroide_x": 347367.8312293432, "centroide_y": 6296745.5772215892, "crs_original": "EPSG:4326", "fecha_normalizacion": "2025-10-10 01:59:24" }, "geometry": { "type": "Point", "coordinates": [ 347367.831229343195446, 6296745.577221589162946 ] } },
{ "type": "Feature", "properties": { "OBJECTID": 1391, "DISTRIBUID": "COPEC", "CALLE": "ROSAS", "NUMERO": "3218", "BEN_93": "SI", "BEN_95": "SI", "BEN_97": "SI", "DIESEL": "SI", "GLP": " ", "GNC": " ", "KEROSENE": " ", "COOR_ESTE": 343907.26256697002, "COOR_NORTE": 6298961.0670205904, "HUSO": "19 S", "DATUM": "WGS84", "REGION": "METROPOLITANA DE SANTIAGO", "PROVINCIA": "SANTIAGO", "COMUNA": "SANTIAGO", "FUENTE_BAS": "CNE", "FECHA_CREA": 1527811200000, "FECHA_ACT": 1681171200000, "centroide_x": 343907.2625654494, "centroide_y": 6298961.0671168361, "crs_original": "EPSG:4326", "fecha_normalizacion": "2025-10-10 01:59:24" }, "geometry": { "type": "Point", "coordinates": [ 343907.262565449404065, 6298961.067116836085916 ] } },
{ "type": "Feature", "properties": { "OBJECTID": 1392, "DISTRIBUID": "COPEC", "CALLE": "BASCUNAN GUERRERO", "NUMERO": "2445", "BEN_93": "SI", "BEN_95": "SI", "BEN_97": "SI", "DIESEL": "SI", "GLP": "SI", "GNC": " ", "KEROSENE": " ", "COOR_ESTE": 344656.74784843001, "COOR_NORTE": 6294545.7139600702, "HUSO": "19 S", "DATUM": "WGS84", "REGION": "METROPOLITANA DE SANTIAGO", "PROVINCIA": "SANTIAGO", "COMUNA": "SANTIAGO", "FUENTE_BAS": "CNE", "FECHA_CREA": 1527811200000, "FECHA_ACT": 1681171200000, "centroide_x": 344656.74784689577, "centroide_y": 6294545.714056381, "crs_original": "EPSG:4326", "fecha_normalizacion": "2025-10-10 01:59:24" }, "geometry": { "type": "Point", "coordinates": [ 344656.747846895770635, 6294545.71405638102442 ] } },
{ "type": "Feature", "properties": { "OBJECTID": 1393, "DISTRIBUID": "PETROBRAS", "CALLE": "10 DE JULIO HUAMACHUCO", "NUMERO": "710", "BEN_93": "SI", "BEN_95": "SI", "BEN_97": "SI", "DIESEL": "SI", "GLP": " ", "GNC": " ", "KEROSENE": " ", "COOR_ESTE": 347188.58560332999, "COOR_NORTE": 6297231.2065629596, "HUSO": "19 S", "DATUM": "WGS84", "REGION": "METROPOLITANA DE SANTIAGO", "PROVINCIA": "SANTIAGO", "COMUNA": "SANTIAGO", "FUENTE_BAS": "CNE", "FECHA_CREA": 1527811200000, "FECHA_ACT": 1681171200000, "centroide_x": 347188.58560182777, "centroide_y": 6297231.2066592388, "crs_original": "EPSG:4326", "fecha_normalizacion": "2025-10-10 01:59:24" }, "geometry": { "type": "Point", "coordinates": [ 347188.585601827770006, 6297231.206659238785505 ] } },
{ "type": "Feature", "properties": { "OBJECTID": 1394, "DISTRIBUID": "PETROBRAS", "CALLE": "MANUEL ANTONIO MATTA", "NUMERO": "1345", "BEN_93": "SI", "BEN_95": "SI", "BEN_97": "SI", "DIESEL": "SI", "GLP": " ", "GNC": " ", "KEROSENE": " ", "COOR_ESTE": 346437.21179549, "COOR_NORTE": 6296526.0598204499, "HUSO": "19 S", "DATUM": "WGS84", "REGION": "METROPOLITANA DE SANTIAGO", "PROVINCIA": "SANTIAGO", "COMUNA": "SANTIAGO", "FUENTE_BAS": "CNE", "FECHA_CREA": 1527811200000, "FECHA_ACT": 1681171200000, "centroide_x": 346437.2117939805, "centroide_y": 6296526.059916731, "crs_original": "EPSG:4326", "fecha_normalizacion": "2025-10-10 01:59:24" }, "geometry": { "type": "Point", "coordinates": [ 346437.211793980502989, 6296526.059916730970144 ] } },
{ "type": "Feature", "properties": { "OBJECTID": 1395, "DISTRIBUID": "PETROBRAS", "CALLE": "VICUNA MACKENNA", "NUMERO": "1131", "BEN_93": "SI", "BEN_95": "SI", "BEN_97": "SI", "DIESEL": "SI", "GLP": " ", "GNC": " ", "KEROSENE": " ", "COOR_ESTE": 348504.41741891002, "COOR_NORTE": 6296967.9923646897, "HUSO": "19 S", "DATUM": "WGS84", "REGION": "METROPOLITANA DE SANTIAGO", "PROVINCIA": "SANTIAGO", "COMUNA": "SANTIAGO", "FUENTE_BAS": "CNE", "FECHA_CREA": 1527811200000, "FECHA_ACT": 1681171200000, "centroide_x": 348504.41741742403, "centroide_y": 6296967.992460968, "crs_original": "EPSG:4326", "fecha_normalizacion": "2025-10-10 01:59:24" }, "geometry": { "type": "Point", "coordinates": [ 348504.417417424032465, 6296967.992460967972875 ] } },
{ "type": "Feature", "properties": { "OBJECTID": 1396, "DISTRIBUID": "SHELL", "CALLE": "10 DE JULIO HUAMACHUCO", "NUMERO": "1254", "BEN_93": "SI", "BEN_95": "SI", "BEN_97": "SI", "DIESEL": "SI", "GLP": " ", "GNC": " ", "KEROSENE": " ", "COOR_ESTE": 346438.71256257, "COOR_NORTE": 6297090.24298691, "HUSO": "19 S", "DATUM": "WGS84", "REGION": "METROPOLITANA DE SANTIAGO", "PROVINCIA": "SANTIAGO", "COMUNA": "SANTIAGO", "FUENTE_BAS": "CNE", "FECHA_CREA": 1527811200000, "FECHA_ACT": 1681171200000, "centroide_x": 346438.71256106498, "centroide_y": 6297090.2430831874, "crs_original": "EPSG:4326", "fecha_normalizacion": "2025-10-10 01:59:24" }, "geometry": { "type": "Point", "coordinates": [ 346438.712561064981855, 6297090.243083187378943 ] } },
{ "type": "Feature", "properties": { "OBJECTID": 1397, "DISTRIBUID": "SHELL", "CALLE": "SAN DIEGO", "NUMERO": "1409", "BEN_93": "SI", "BEN_95": "SI", "BEN_97": "SI", "DIESEL": "SI", "GLP": " ", "GNC": " ", "KEROSENE": " ", "COOR_ESTE": 346742.54633853002, "COOR_NORTE": 6296047.1957232496, "HUSO": "19 S", "DATUM": "WGS84", "REGION": "METROPOLITANA DE SANTIAGO", "PROVINCIA": "SANTIAGO", "COMUNA": "SANTIAGO", "FUENTE_BAS": "CNE", "FECHA_CREA": 1527811200000, "FECHA_ACT": 1681171200000, "centroide_x": 346742.54633702734, "centroide_y": 6296047.1958195381, "crs_original": "EPSG:4326", "fecha_normalizacion": "2025-10-10 01:59:24" }, "geometry": { "type": "Point", "coordinates": [ 346742.546337027335539, 6296047.195819538086653 ] } },
{ "type": "Feature", "properties": { "OBJECTID": 1398, "DISTRIBUID": "SHELL", "CALLE": "SAN FRANCISCO", "NUMERO": "1401", "BEN_93": "SI", "BEN_95": "SI", "BEN_97": "SI", "DIESEL": "SI", "GLP": " ", "GNC": " ", "KEROSENE": " ", "COOR_ESTE": 347139.02886194002, "COOR_NORTE": 6296108.5783175798, "HUSO": "19 S", "DATUM": "WGS84", "REGION": "METROPOLITANA DE SANTIAGO", "PROVINCIA": "SANTIAGO", "COMUNA": "SANTIAGO", "FUENTE_BAS": "CNE", "FECHA_CREA": 1527811200000, "FECHA_ACT": 1681171200000, "centroide_x": 347139.02886044385, "centroide_y": 6296108.5784138702, "crs_original": "EPSG:4326", "fecha_normalizacion": "2025-10-10 01:59:24" }, "geometry": { "type": "Point", "coordinates": [ 347139.028860443853773, 6296108.578413870185614 ] } },
{ "type": "Feature", "properties": { "OBJECTID": 1399, "DISTRIBUID": "SHELL", "CALLE": "MAPOCHO", "NUMERO": "2948", "BEN_93": "SI", "BEN_95": "SI", "BEN_97": "SI", "DIESEL": "SI", "GLP": " ", "GNC": " ", "KEROSENE": " ", "COOR_ESTE": 344097.41520337999, "COOR_NORTE": 6299465.6333971797, "HUSO": "19 S", "DATUM": "WGS84", "REGION": "METROPOLITANA DE SANTIAGO", "PROVINCIA": "SANTIAGO", "COMUNA": "SANTIAGO", "FUENTE_BAS": "CNE", "FECHA_CREA": 1527811200000, "FECHA_ACT": 1681171200000, "centroide_x": 344097.41520185192, "centroide_y": 6299465.6334934253, "crs_original": "EPSG:4326", "fecha_normalizacion": "2025-10-10 01:59:24" }, "geometry": { "type": "Point", "coordinates": [ 344097.415201851923484, 6299465.633493425324559 ] } },
{ "type": "Feature", "properties": { "OBJECTID": 1400, "DISTRIBUID": "SHELL", "CALLE": "BRASIL", "NUMERO": "154", "BEN_93": "SI", "BEN_95": "SI", "BEN_97": "SI", "DIESEL": "SI", "GLP": " ", "GNC": " ", "KEROSENE": " ", "COOR_ESTE": 345203.37778043002, "COOR_NORTE": 6298424.8426448004, "HUSO": "19 S", "DATUM": "WGS84", "REGION": "METROPOLITANA DE SANTIAGO", "PROVINCIA": "SANTIAGO", "COMUNA": "SANTIAGO", "FUENTE_BAS": "CNE", "FECHA_CREA": 1527811200000, "FECHA_ACT": 1681171200000, "centroide_x": 345203.3777789264, "centroide_y": 6298424.842741074, "crs_original": "EPSG:4326", "fecha_normalizacion": "2025-10-10 01:59:24" }, "geometry": { "type": "Point", "coordinates": [ 345203.377778926398605, 6298424.842741074040532 ] } },
{ "type": "Feature", "properties": { "OBJECTID": 1401, "DISTRIBUID": "SIN BANDERA", "CALLE": "MANUEL ANTONIO MATTA", "NUMERO": "380", "BEN_93": "SI", "BEN_95": "SI", "BEN_97": "SI", "DIESEL": "SI", "GLP": " ", "GNC": " ", "KEROSENE": " ", "COOR_ESTE": 347897.95770939998, "COOR_NORTE": 6296825.6716254596, "HUSO": "19 S", "DATUM": "WGS84", "REGION": "METROPOLITANA DE SANTIAGO", "PROVINCIA": "SANTIAGO", "COMUNA": "SANTIAGO", "FUENTE_BAS": "CNE", "FECHA_CREA": 1527811200000, "FECHA_ACT": 1681171200000, "centroide_x": 347897.9577078959, "centroide_y": 6296825.6717217416, "crs_original": "EPSG:4326", "fecha_normalizacion": "2025-10-10 01:59:24" }, "geometry": { "type": "Point", "coordinates": [ 347897.957707895897329, 6296825.671721741557121 ] } },
{ "type": "Feature", "properties": { "OBJECTID": 1402, "DISTRIBUID": "SHELL", "CALLE": "COMPANIA", "NUMERO": "1908", "BEN_93": "SI", "BEN_95": "SI", "BEN_97": "SI", "DIESEL": "SI", "GLP": " ", "GNC": " ", "KEROSENE": " ", "COOR_ESTE": 345337.73054346, "COOR_NORTE": 6298694.6045066603, "HUSO": "19 S", "DATUM": "WGS84", "REGION": "METROPOLITANA DE SANTIAGO", "PROVINCIA": "SANTIAGO", "COMUNA": "SANTIAGO", "FUENTE_BAS": "CNE", "FECHA_CREA": 1527811200000, "FECHA_ACT": 1681171200000, "centroide_x": 345337.73054194823, "centroide_y": 6298694.6046029152, "crs_original": "EPSG:4326", "fecha_normalizacion": "2025-10-10 01:59:24" }, "geometry": { "type": "Point", "coordinates": [ 345337.730541948229074, 6298694.604602915234864 ] } },
{ "type": "Feature", "properties": { "OBJECTID": 1403, "DISTRIBUID": "SHELL", "CALLE": "LIBERTAD", "NUMERO": "59", "BEN_93": "SI", "BEN_95": "SI", "BEN_97": "SI", "DIESEL": "SI", "GLP": " ", "GNC": " ", "KEROSENE": " ", "COOR_ESTE": 344451.17139477999, "COOR_NORTE": 6298005.8966519302, "HUSO": "19 S", "DATUM": "WGS84", "REGION": "METROPOLITANA DE SANTIAGO", "PROVINCIA": "SANTIAGO", "COMUNA": "SANTIAGO", "FUENTE_BAS": "CNE", "FECHA_CREA": 1527811200000, "FECHA_ACT": 1681171200000, "centroide_x": 344451.17139325512, "centroide_y": 6298005.8967482001, "crs_original": "EPSG:4326", "fecha_normalizacion": "2025-10-10 01:59:24" }, "geometry": { "type": "Point", "coordinates": [ 344451.171393255121075, 6298005.896748200058937 ] } },
{ "type": "Feature", "properties": { "OBJECTID": 1404, "DISTRIBUID": "SHELL", "CALLE": "PORTUGAL", "NUMERO": "270", "BEN_93": "SI", "BEN_95": "SI", "BEN_97": "SI", "DIESEL": "SI", "GLP": " ", "GNC": " ", "KEROSENE": " ", "COOR_ESTE": 347961.33505465998, "COOR_NORTE": 6298077.4922696901, "HUSO": "19 S", "DATUM": "WGS84", "REGION": "METROPOLITANA DE SANTIAGO", "PROVINCIA": "SANTIAGO", "COMUNA": "SANTIAGO", "FUENTE_BAS": "CNE", "FECHA_CREA": 1527811200000, "FECHA_ACT": 1681171200000, "centroide_x": 347961.33505316952, "centroide_y": 6298077.4923659554, "crs_original": "EPSG:4326", "fecha_normalizacion": "2025-10-10 01:59:24" }, "geometry": { "type": "Point", "coordinates": [ 347961.335053169517778, 6298077.492365955375135 ] } },
{ "type": "Feature", "properties": { "OBJECTID": 1405, "DISTRIBUID": "SHELL", "CALLE": "VIEL", "NUMERO": "1086", "BEN_93": "SI", "BEN_95": "SI", "BEN_97": "SI", "DIESEL": "SI", "GLP": " ", "GNC": " ", "KEROSENE": " ", "COOR_ESTE": 346077.54308034998, "COOR_NORTE": 6296469.4528845502, "HUSO": "19 S", "DATUM": "WGS84", "REGION": "METROPOLITANA DE SANTIAGO", "PROVINCIA": "SANTIAGO", "COMUNA": "SANTIAGO", "FUENTE_BAS": "CNE", "FECHA_CREA": 1527811200000, "FECHA_ACT": 1681171200000, "centroide_x": 346077.54307884234, "centroide_y": 6296469.4529808518, "crs_original": "EPSG:4326", "fecha_normalizacion": "2025-10-10 01:59:24" }, "geometry": { "type": "Point", "coordinates": [ 346077.543078842340037, 6296469.452980851754546 ] } },
{ "type": "Feature", "properties": { "OBJECTID": 1406, "DISTRIBUID": "SHELL", "CALLE": "PEDRO MONTT", "NUMERO": "1501", "BEN_93": "SI", "BEN_95": "SI", "BEN_97": "SI", "DIESEL": "SI", "GLP": " ", "GNC": " ", "KEROSENE": " ", "COOR_ESTE": 346254.35616313998, "COOR_NORTE": 6295075.0486562196, "HUSO": "19 S", "DATUM": "WGS84", "REGION": "METROPOLITANA DE SANTIAGO", "PROVINCIA": "SANTIAGO", "COMUNA": "SANTIAGO", "FUENTE_BAS": "CNE", "FECHA_CREA": 1527811200000, "FECHA_ACT": 1681171200000, "centroide_x": 346254.35616161954, "centroide_y": 6295075.0487525184, "crs_original": "EPSG:4326", "fecha_normalizacion": "2025-10-10 01:59:24" }, "geometry": { "type": "Point", "coordinates": [ 346254.356161619536579, 6295075.048752518370748 ] } },
{ "type": "Feature", "properties": { "OBJECTID": 1407, "DISTRIBUID": "SHELL", "CALLE": "PORTUGAL", "NUMERO": "175", "BEN_93": "SI", "BEN_95": "SI", "BEN_97": "SI", "DIESEL": "SI", "GLP": " ", "GNC": " ", "KEROSENE": " ", "COOR_ESTE": 347817.75808922999, "COOR_NORTE": 6298196.5447045397, "HUSO": "19 S", "DATUM": "WGS84", "REGION": "METROPOLITANA DE SANTIAGO", "PROVINCIA": "SANTIAGO", "COMUNA": "SANTIAGO", "FUENTE_BAS": "CNE", "FECHA_CREA": 1527811200000, "FECHA_ACT": 1681171200000, "centroide_x": 347817.75808773434, "centroide_y": 6298196.5448007975, "crs_original": "EPSG:4326", "fecha_normalizacion": "2025-10-10 01:59:24" }, "geometry": { "type": "Point", "coordinates": [ 347817.758087734342553, 6298196.544800797477365 ] } },
{ "type": "Feature", "properties": { "OBJECTID": 1493, "DISTRIBUID": "AUTOGASCO", "CALLE": "JORGE ALESSANDRI", "NUMERO": "515", "BEN_93": " ", "BEN_95": " ", "BEN_97": " ", "DIESEL": "SI", "GLP": "SI", "GNC": " ", "KEROSENE": " ", "COOR_ESTE": 356439.05862905999, "COOR_NORTE": 6297091.5147075802, "HUSO": "19 S", "DATUM": "WGS84", "REGION": "METROPOLITANA DE SANTIAGO", "PROVINCIA": "SANTIAGO", "COMUNA": "LA REINA", "FUENTE_BAS": "CNE", "FECHA_CREA": 1527811200000, "FECHA_ACT": 1681171200000, "centroide_x": 356439.05862764851, "centroide_y": 6297091.5148038669, "crs_original": "EPSG:4326", "fecha_normalizacion": "2025-10-10 01:59:24" }, "geometry": { "type": "Point", "coordinates": [ 356439.058627648511901, 6297091.5148038668558 ] } },
{ "type": "Feature", "properties": { "OBJECTID": 1494, "DISTRIBUID": "COPEC", "CALLE": "AVENIDA FRANCISCO BILBAO", "NUMERO": "5739", "BEN_93": "SI", "BEN_95": "SI", "BEN_97": "SI", "DIESEL": "SI", "GLP": " ", "GNC": " ", "KEROSENE": " ", "COOR_ESTE": 353666.15773851, "COOR_NORTE": 6299768.6759776203, "HUSO": "19 S", "DATUM": "WGS84", "REGION": "METROPOLITANA DE SANTIAGO", "PROVINCIA": "SANTIAGO", "COMUNA": "LA REINA", "FUENTE_BAS": "CNE", "FECHA_CREA": 1527811200000, "FECHA_ACT": 1681171200000, "centroide_x": 353666.15773707977, "centroide_y": 6299768.6760738771, "crs_original": "EPSG:4326", "fecha_normalizacion": "2025-10-10 01:59:24" }, "geometry": { "type": "Point", "coordinates": [ 353666.157737079774961, 6299768.67607387714088 ] } },
{ "type": "Feature", "properties": { "OBJECTID": 1495, "DISTRIBUID": "COPEC", "CALLE": "AVENIDA OSSA", "NUMERO": "591", "BEN_93": "SI", "BEN_95": "SI", "BEN_97": "SI", "DIESEL": "SI", "GLP": " ", "GNC": " ", "KEROSENE": " ", "COOR_ESTE": 353966.05489981, "COOR_NORTE": 6297914.89313858, "HUSO": "19 S", "DATUM": "WGS84", "REGION": "METROPOLITANA DE SANTIAGO", "PROVINCIA": "SANTIAGO", "COMUNA": "LA REINA", "FUENTE_BAS": "CNE", "FECHA_CREA": 1527811200000, "FECHA_ACT": 1681171200000, "centroide_x": 353966.05489836686, "centroide_y": 6297914.8932348462, "crs_original": "EPSG:4326", "fecha_normalizacion": "2025-10-10 01:59:24" }, "geometry": { "type": "Point", "coordinates": [ 353966.054898366855923, 6297914.893234846182168 ] } },
{ "type": "Feature", "properties": { "OBJECTID": 1496, "DISTRIBUID": "COPEC", "CALLE": "PRINCIPE DE GALES", "NUMERO": "6880", "BEN_93": "SI", "BEN_95": "SI", "BEN_97": "SI", "DIESEL": "SI", "GLP": " ", "GNC": " ", "KEROSENE": " ", "COOR_ESTE": 354887.77876752999, "COOR_NORTE": 6299009.5695655597, "HUSO": "19 S", "DATUM": "WGS84", "REGION": "METROPOLITANA DE SANTIAGO", "PROVINCIA": "SANTIAGO", "COMUNA": "LA REINA", "FUENTE_BAS": "CNE", "FECHA_CREA": 1527811200000, "FECHA_ACT": 1681171200000, "centroide_x": 354887.77876609331, "centroide_y": 6299009.5696618203, "crs_original": "EPSG:4326", "fecha_normalizacion": "2025-10-10 01:59:24" }, "geometry": { "type": "Point", "coordinates": [ 354887.778766093309969, 6299009.569661820307374 ] } },
{ "type": "Feature", "properties": { "OBJECTID": 1497, "DISTRIBUID": "COPEC", "CALLE": "PRINCIPE DE GALES", "NUMERO": "6880", "BEN_93": "SI", "BEN_95": "SI", "BEN_97": "SI", "DIESEL": "SI", "GLP": " ", "GNC": " ", "KEROSENE": " ", "COOR_ESTE": 354898.93893702998, "COOR_NORTE": 6299012.5147677902, "HUSO": "19 S", "DATUM": "WGS84", "REGION": "METROPOLITANA DE SANTIAGO", "PROVINCIA": "SANTIAGO", "COMUNA": "LA REINA", "FUENTE_BAS": "CNE", "FECHA_CREA": 1527811200000, "FECHA_ACT": 1681171200000, "centroide_x": 354898.9389356036, "centroide_y": 6299012.5148640517, "crs_original": "EPSG:4326", "fecha_normalizacion": "2025-10-10 01:59:24" }, "geometry": { "type": "Point", "coordinates": [ 354898.938935603597201, 6299012.51486405171454 ] } },
{ "type": "Feature", "properties": { "OBJECTID": 1498, "DISTRIBUID": "PETROBRAS", "CALLE": "PRINCIPE DE GALES", "NUMERO": "9200", "BEN_93": "SI", "BEN_95": "SI", "BEN_97": "SI", "DIESEL": "SI", "GLP": " ", "GNC": " ", "KEROSENE": " ", "COOR_ESTE": 357336.71558344999, "COOR_NORTE": 6298720.3523054197, "HUSO": "19 S", "DATUM": "WGS84", "REGION": "METROPOLITANA DE SANTIAGO", "PROVINCIA": "SANTIAGO", "COMUNA": "LA REINA", "FUENTE_BAS": "CNE", "FECHA_CREA": 1527811200000, "FECHA_ACT": 1681171200000, "centroide_x": 357336.71558204055, "centroide_y": 6298720.3524016785, "crs_original": "EPSG:4326", "fecha_normalizacion": "2025-10-10 01:59:24" }, "geometry": { "type": "Point", "coordinates": [ 357336.715582040545996, 6298720.352401678450406 ] } },
{ "type": "Feature", "properties": { "OBJECTID": 1499, "DISTRIBUID": "PETROBRAS", "CALLE": "AVENIDA JOSE ARRIETA", "NUMERO": "7398", "BEN_93": "SI", "BEN_95": "SI", "BEN_97": "SI", "DIESEL": "SI", "GLP": " ", "GNC": " ", "KEROSENE": " ", "COOR_ESTE": 355763.67616779002, "COOR_NORTE": 6296372.3286025096, "HUSO": "19 S", "DATUM": "WGS84", "REGION": "METROPOLITANA DE SANTIAGO", "PROVINCIA": "SANTIAGO", "COMUNA": "LA REINA", "FUENTE_BAS": "CNE", "FECHA_CREA": 1527811200000, "FECHA_ACT": 1681171200000, "centroide_x": 355763.67616636219, "centroide_y": 6296372.328698799, "crs_original": "EPSG:4326", "fecha_normalizacion": "2025-10-10 01:59:24" }, "geometry": { "type": "Point", "coordinates": [ 355763.676166362187359, 6296372.328698799014091 ] } },
{ "type": "Feature", "properties": { "OBJECTID": 1500, "DISTRIBUID": "SHELL", "CALLE": "AVENIDA LARRAIN", "NUMERO": "8511", "BEN_93": "SI", "BEN_95": "SI", "BEN_97": "SI", "DIESEL": "SI", "GLP": " ", "GNC": " ", "KEROSENE": " ", "COOR_ESTE": 356498.14556449, "COOR_NORTE": 6297686.2662996603, "HUSO": "19 S", "DATUM": "WGS84", "REGION": "METROPOLITANA DE SANTIAGO", "PROVINCIA": "SANTIAGO", "COMUNA": "LA REINA", "FUENTE_BAS": "CNE", "FECHA_CREA": 1527811200000, "FECHA_ACT": 1681171200000, "centroide_x": 356498.14556307276, "centroide_y": 6297686.2663959367, "crs_original": "EPSG:4326", "fecha_normalizacion": "2025-10-10 01:59:24" }, "geometry": { "type": "Point", "coordinates": [ 356498.145563072757795, 6297686.266395936720073 ] } },
{ "type": "Feature", "properties": { "OBJECTID": 1501, "DISTRIBUID": "SHELL", "CALLE": "AGUAS CLARAS", "NUMERO": "1681", "BEN_93": "SI", "BEN_95": "SI", "BEN_97": "SI", "DIESEL": "SI", "GLP": " ", "GNC": " ", "KEROSENE": " ", "COOR_ESTE": 355297.95433789998, "COOR_NORTE": 6298899.5445109103, "HUSO": "19 S", "DATUM": "WGS84", "REGION": "METROPOLITANA DE SANTIAGO", "PROVINCIA": "SANTIAGO", "COMUNA": "LA REINA", "FUENTE_BAS": "CNE", "FECHA_CREA": 1527811200000, "FECHA_ACT": 1681171200000, "centroide_x": 355297.95433646481, "centroide_y": 6298899.5446071755, "crs_original": "EPSG:4326", "fecha_normalizacion": "2025-10-10 01:59:24" }, "geometry": { "type": "Point", "coordinates": [ 355297.954336464812513, 6298899.544607175514102 ] } }
]
}
