{
"type": "FeatureCollection",
"name": "puntos_medicos_farmacias_hospitales_filtrados",
"crs": { "type": "name", "properties": { "name": "urn:ogc:def:crs:EPSG::32719" } },
"features": [
{ "type": "Feature", "properties": { "access": null, "addr_city": "Santiago", "addr_housenumber": "543", "addr_postcode": null, "addr_state": null, "addr_street": "Cueto", "addr_unit": null, "amenity": "clinic", "building": null, "capacity": null, "denomination": null, "ele": null, "emergency": null, "fee": null, "healthcare": "clinic", "healthcare_speciality": null, "name": "Cesfam Ignacio Domeyko", "name_en": null, "name_es": null, "opening_hours": null, "operator": null, "parking": null, "phone": null, "religion": null, "source_transform": null, "surface": null, "website": null, "wheelchair": null, "objectid": 6538445, "osm_id2": "3481174039", "centroide_x": 344540.44848259108, "centroide_y": 6298818.0721461009, "crs_original": "EPSG:4326", "fecha_normalizacion": "2025-10-10 01:59:25" }, "geometry": { "type": "Point", "coordinates": [ 344540.448482591076754, 6298818.072146100923419 ] } },
{ "type": "Feature", "properties": { "access": null, "addr_city": "Santiago", "addr_housenumber": "2837", "addr_postcode": null, "addr_state": null, "addr_street": "Avenida Libertador Bernardo O'Higgins", "addr_unit": null, "amenity": "pharmacy", "building": null, "capacity": null, "denomination": null, "ele": null, "emergency": null, "fee": null, "healthcare": "pharmacy", "healthcare_speciality": null, "name": "SalcoBrand", "name_en": null, "name_es": null, "opening_hours": null, "operator": null, "parking": null, "phone": "+5626814725", "religion": null, "source_transform": null, "surface": null, "website": null, "wheelchair": null, "objectid": 6543535, "osm_id2": "867953593", "centroide_x": 344420.28298188269, "centroide_y": 6297656.5830626804, "crs_original": "EPSG:4326", "fecha_normalizacion": "2025-10-10 01:59:25" }, "geometry": { "type": "Point", "coordinates": [ 344420.282981882686727, 6297656.583062680438161 ] } },
{ "type": "Feature", "properties": { "access": null, "addr_city": "Estación Central", "addr_housenumber": "3250", "addr_postcode": null, "addr_state": null, "addr_street": "Avenida Libertador Bernardo O'Higgins", "addr_unit": null, "amenity": "pharmacy", "building": null, "capacity": null, "denomination": null, "ele": null, "emergency": null, "fee": null, "healthcare": "pharmacy", "healthcare_speciality": null, "name": "SalcoBrand", "name_en": null, "name_es": null, "opening_hours": null, "operator": null, "parking": null, "phone": "+5624420028", "religion": null, "source_transform": null, "surface": null, "website": null, "wheelchair": "yes", "objectid": 6544175, "osm_id2": "867951533", "centroide_x": 343846.64434367552, "centroide_y": 6297386.3739283402, "crs_original": "EPSG:4326", "fecha_normalizacion": "2025-10-10 01:59:25" }, "geometry": { "type": "Point", "coordinates": [ 343846.644343675521668, 6297386.373928340151906 ] } },
{ "type": "Feature", "properties": { "access": null, "addr_city": "Estación Central", "addr_housenumber": null, "addr_postcode": null, "addr_state": null, "addr_street": "Avenida Libertador Bernardo O'Higgins", "addr_unit": null, "amenity": "pharmacy", "building": null, "capacity": null, "denomination": null, "ele": null, "emergency": null, "fee": null, "healthcare": "pharmacy", "healthcare_speciality": null, "name": "Farmacia Belgo Chilena", "name_en": null, "name_es": null, "opening_hours": null, "operator": null, "parking": null, "phone": null, "religion": null, "source_transform": "Reconocimiento cortográfico de campo 2016 por KG", "surface": null, "website": null, "wheelchair": null, "objectid": 6546961, "osm_id2": "4455294466", "centroide_x": 343231.63989958115, "centroide_y": 6297183.3938092012, "crs_original": "EPSG:4326", "fecha_normalizacion": "2025-10-10 01:59:25" }, "geometry": { "type": "Point", "coordinates": [ 343231.639899581146892, 6297183.393809201195836 ] } },
{ "type": "Feature", "properties": { "access": null, "addr_city": "Santiago", "addr_housenumber": "1599", "addr_postcode": "8370723", "addr_state": null, "addr_street": "Bascuñán Guerrero", "addr_unit": null, "amenity": "pharmacy", "building": null, "capacity": null, "denomination": null, "ele": null, "emergency": null, "fee": null, "healthcare": null, "healthcare_speciality": null, "name": "FarmaVip", "name_en": null, "name_es": null, "opening_hours": null, "operator": null, "parking": null, "phone": "+56226840244", "religion": null, "source_transform": "Reconocimiento cartográfico de campo 2016 por KG.", "surface": null, "website": null, "wheelchair": null, "objectid": 6567447, "osm_id2": "4455750335", "centroide_x": 344646.37281819829, "centroide_y": 6295553.3131260574, "crs_original": "EPSG:4326", "fecha_normalizacion": "2025-10-10 01:59:25" }, "geometry": { "type": "Point", "coordinates": [ 344646.37281819828786, 6295553.313126057386398 ] } },
{ "type": "Feature", "properties": { "access": null, "addr_city": "La Reina", "addr_housenumber": null, "addr_postcode": null, "addr_state": null, "addr_street": null, "addr_unit": "7C", "amenity": "clinic", "building": null, "capacity": null, "denomination": null, "ele": null, "emergency": null, "fee": null, "healthcare": "clinic", "healthcare_speciality": null, "name": "Clínica CELA La Reina", "name_en": null, "name_es": null, "opening_hours": null, "operator": null, "parking": null, "phone": null, "religion": null, "source_transform": null, "surface": null, "website": null, "wheelchair": null, "objectid": 6374394, "osm_id2": "6644792888", "centroide_x": 357212.4414893412, "centroide_y": 6298904.272910051, "crs_original": "EPSG:4326", "fecha_normalizacion": "2025-10-10 01:59:25" }, "geometry": { "type": "Point", "coordinates": [ 357212.441489341203123, 6298904.272910051047802 ] } },
{ "type": "Feature", "properties": { "access": null, "addr_city": "La Reina", "addr_housenumber": "345", "addr_postcode": null, "addr_state": null, "addr_street": "Avenida Ossa", "addr_unit": null, "amenity": "clinic", "building": null, "capacity": null, "denomination": null, "ele": null, "emergency": null, "fee": null, "healthcare": "clinic", "healthcare_speciality": null, "name": "Centro Médico La Reina - Clínica Santa María", "name_en": null, "name_es": null, "opening_hours": null, "operator": null, "parking": null, "phone": null, "religion": null, "source_transform": null, "surface": null, "website": null, "wheelchair": null, "objectid": 6378163, "osm_id2": "2838589219", "centroide_x": 354036.48581313121, "centroide_y": 6297712.7607640643, "crs_original": "EPSG:4326", "fecha_normalizacion": "2025-10-10 01:59:25" }, "geometry": { "type": "Point", "coordinates": [ 354036.485813131206669, 6297712.760764064267278 ] } },
{ "type": "Feature", "properties": { "access": null, "addr_city": "La Reina", "addr_housenumber": "5862", "addr_postcode": null, "addr_state": null, "addr_street": null, "addr_unit": null, "amenity": "clinic", "building": null, "capacity": null, "denomination": null, "ele": null, "emergency": null, "fee": null, "healthcare": "clinic", "healthcare_speciality": null, "name": "Integramédica Plaza Egaña", "name_en": null, "name_es": null, "opening_hours": null, "operator": "Bupa", "parking": null, "phone": null, "religion": null, "source_transform": null, "surface": null, "website": null, "wheelchair": null, "objectid": 6378373, "osm_id2": "4706012834", "centroide_x": 354096.43792031088, "centroide_y": 6297356.869379512, "crs_original": "EPSG:4326", "fecha_normalizacion": "2025-10-10 01:59:25" }, "geometry": { "type": "Point", "coordinates": [ 354096.437920310883783, 6297356.869379512034357 ] } },
{ "type": "Feature", "properties": { "access": null, "addr_city": "La Reina", "addr_housenumber": null, "addr_postcode": null, "addr_state": null, "addr_street": "Avenida Príncipe de Gales", "addr_unit": null, "amenity": "clinic", "building": null, "capacity": null, "denomination": null, "ele": null, "emergency": null, "fee": null, "healthcare": "clinic", "healthcare_speciality": null, "name": "Clínica Alemana", "name_en": null, "name_es": null, "opening_hours": null, "operator": null, "parking": null, "phone": null, "religion": null, "source_transform": null, "surface": null, "website": null, "wheelchair": null, "objectid": 10081886, "osm_id2": "10719134027", "centroide_x": 357203.35465303797, "centroide_y": 6298771.681263363, "crs_original": "EPSG:4326", "fecha_normalizacion": "2025-10-10 01:59:25" }, "geometry": { "type": "Point", "coordinates": [ 357203.354653037968092, 6298771.68126336298883 ] } },
{ "type": "Feature", "properties": { "access": null, "addr_city": "La Reina", "addr_housenumber": null, "addr_postcode": null, "addr_state": null, "addr_street": "Avenida Príncipe de Gales", "addr_unit": null, "amenity": "clinic", "building": null, "capacity": null, "denomination": null, "ele": null, "emergency": null, "fee": null, "healthcare": "clinic", "healthcare_speciality": null, "name": "Clínica Meds", "name_en": null, "name_es": null, "opening_hours": null, "operator": null, "parking": null, "phone": null, "religion": null, "source_transform": null, "surface": null, "website": null, "wheelchair": null, "objectid": 10095094, "osm_id2": "10726889611", "centroide_x": 357208.97796871793, "centroide_y": 6298865.5703113619, "crs_original": "EPSG:4326", "fecha_normalizacion": "2025-10-10 01:59:25" }, "geometry": { "type": "Point", "coordinates": [ 357208.977968717925251, 6298865.570311361923814 ] } },
{ "type": "Feature", "properties": { "access": null, "addr_city": "La Reina", "addr_housenumber": "8481", "addr_postcode": null, "addr_state": null, "addr_street": "Avenida Príncipe de Gales", "addr_unit": null, "amenity": "pharmacy", "building": null, "capacity": null, "denomination": null, "ele": null, "emergency": null, "fee": null, "healthcare": "pharmacy", "healthcare_speciality": null, "name": "Farmacias Ahumada", "name_en": null, "name_es": null, "opening_hours": "Mo-Fr 09:00-21:30; PH,Sa,Su 10:00-21:30", "operator": null, "parking": null, "phone": null, "religion": null, "source_transform": null, "surface": null, "website": null, "wheelchair": "yes", "objectid": 6374539, "osm_id2": "8544878591", "centroide_x": 356520.55772973935, "centroide_y": 6298785.544325605, "crs_original": "EPSG:4326", "fecha_normalizacion": "2025-10-10 01:59:25" }, "geometry": { "type": "Point", "coordinates": [ 356520.557729739346541, 6298785.544325605034828 ] } },
{ "type": "Feature", "properties": { "access": null, "addr_city": "La Reina", "addr_housenumber": null, "addr_postcode": null, "addr_state": null, "addr_street": null, "addr_unit": null, "amenity": "pharmacy", "building": null, "capacity": null, "denomination": null, "ele": null, "emergency": null, "fee": null, "healthcare": "pharmacy", "healthcare_speciality": null, "name": "Cruz Verde", "name_en": null, "name_es": null, "opening_hours": null, "operator": null, "parking": null, "phone": "+56227586068", "religion": null, "source_transform": null, "surface": null, "website": null, "wheelchair": null, "objectid": 6374544, "osm_id2": "8544878590", "centroide_x": 356516.74971492379, "centroide_y": 6298678.8161269389, "crs_original": "EPSG:4326", "fecha_normalizacion": "2025-10-10 01:59:25" }, "geometry": { "type": "Point", "coordinates": [ 356516.749714923789725, 6298678.816126938909292 ] } },
{ "type": "Feature", "properties": { "access": null, "addr_city": "La Reina", "addr_housenumber": "1300", "addr_postcode": null, "addr_state": null, "addr_street": null, "addr_unit": null, "amenity": "pharmacy", "building": null, "capacity": null, "denomination": null, "ele": null, "emergency": null, "fee": null, "healthcare": "pharmacy", "healthcare_speciality": null, "name": "SalcoBrand", "name_en": null, "name_es": null, "opening_hours": null, "operator": null, "parking": null, "phone": null, "religion": null, "source_transform": null, "surface": null, "website": null, "wheelchair": null, "objectid": 6374571, "osm_id2": "3911406732", "centroide_x": 356516.22830484237, "centroide_y": 6298746.4846602054, "crs_original": "EPSG:4326", "fecha_normalizacion": "2025-10-10 01:59:25" }, "geometry": { "type": "Point", "coordinates": [ 356516.228304842370562, 6298746.484660205431283 ] } },
{ "type": "Feature", "properties": { "access": null, "addr_city": "La Reina", "addr_housenumber": "8751", "addr_postcode": null, "addr_state": null, "addr_street": "Avenida Alcalde Fernando Castillo Velasco", "addr_unit": null, "amenity": "pharmacy", "building": null, "capacity": null, "denomination": null, "ele": null, "emergency": null, "fee": null, "healthcare": "pharmacy", "healthcare_speciality": null, "name": "Cruz Verde", "name_en": null, "name_es": null, "opening_hours": null, "operator": null, "parking": null, "phone": null, "religion": null, "source_transform": null, "surface": null, "website": null, "wheelchair": null, "objectid": 6377465, "osm_id2": "4474447007", "centroide_x": 356833.8530783857, "centroide_y": 6297556.5256902464, "crs_original": "EPSG:4326", "fecha_normalizacion": "2025-10-10 01:59:25" }, "geometry": { "type": "Point", "coordinates": [ 356833.853078385698609, 6297556.525690246373415 ] } },
{ "type": "Feature", "properties": { "access": null, "addr_city": "La Reina", "addr_housenumber": "345", "addr_postcode": null, "addr_state": null, "addr_street": "Avenida Ossa", "addr_unit": null, "amenity": "pharmacy", "building": null, "capacity": null, "denomination": null, "ele": null, "emergency": null, "fee": null, "healthcare": "pharmacy", "healthcare_speciality": null, "name": "Farmacias Ahumada", "name_en": null, "name_es": null, "opening_hours": null, "operator": null, "parking": null, "phone": null, "religion": null, "source_transform": null, "surface": null, "website": null, "wheelchair": null, "objectid": 6378164, "osm_id2": "1700949421", "centroide_x": 354009.85586975672, "centroide_y": 6297718.4472430032, "crs_original": "EPSG:4326", "fecha_normalizacion": "2025-10-10 01:59:25" }, "geometry": { "type": "Point", "coordinates": [ 354009.855869756720494, 6297718.447243003174663 ] } },
{ "type": "Feature", "properties": { "access": null, "addr_city": "La Reina", "addr_housenumber": "6997", "addr_postcode": null, "addr_state": null, "addr_street": "Avenida Alcalde Fernando Castillo Velasco", "addr_unit": null, "amenity": "pharmacy", "building": null, "capacity": null, "denomination": null, "ele": null, "emergency": null, "fee": null, "healthcare": "pharmacy", "healthcare_speciality": null, "name": "Farmacias La Reina", "name_en": null, "name_es": null, "opening_hours": null, "operator": null, "parking": null, "phone": null, "religion": null, "source_transform": null, "surface": null, "website": null, "wheelchair": null, "objectid": 6378212, "osm_id2": "4478221225", "centroide_x": 355414.00759663369, "centroide_y": 6297527.5549990833, "crs_original": "EPSG:4326", "fecha_normalizacion": "2025-10-10 01:59:25" }, "geometry": { "type": "Point", "coordinates": [ 355414.007596633688081, 6297527.554999083280563 ] } },
{ "type": "Feature", "properties": { "access": null, "addr_city": "La Reina", "addr_housenumber": "7059", "addr_postcode": null, "addr_state": null, "addr_street": "Avenida Alcalde Fernando Castillo Velasco", "addr_unit": null, "amenity": "pharmacy", "building": null, "capacity": null, "denomination": null, "ele": null, "emergency": null, "fee": null, "healthcare": "pharmacy", "healthcare_speciality": null, "name": "Cruz Verde", "name_en": null, "name_es": null, "opening_hours": null, "operator": null, "parking": null, "phone": null, "religion": null, "source_transform": null, "surface": null, "website": null, "wheelchair": null, "objectid": 6378231, "osm_id2": "4479712743", "centroide_x": 355493.16245542816, "centroide_y": 6297520.7653106693, "crs_original": "EPSG:4326", "fecha_normalizacion": "2025-10-10 01:59:25" }, "geometry": { "type": "Point", "coordinates": [ 355493.162455428158864, 6297520.765310669317842 ] } },
{ "type": "Feature", "properties": { "access": null, "addr_city": "La Reina", "addr_housenumber": "5819", "addr_postcode": null, "addr_state": null, "addr_street": "Avenida Larraín", "addr_unit": null, "amenity": "pharmacy", "building": null, "capacity": null, "denomination": null, "ele": null, "emergency": null, "fee": null, "healthcare": "pharmacy", "healthcare_speciality": null, "name": "Farmacias del Dr. Simi", "name_en": null, "name_es": null, "opening_hours": null, "operator": null, "parking": null, "phone": null, "religion": null, "source_transform": null, "surface": null, "website": null, "wheelchair": null, "objectid": 6378384, "osm_id2": "4472083482", "centroide_x": 354093.59558829665, "centroide_y": 6297325.3169191284, "crs_original": "EPSG:4326", "fecha_normalizacion": "2025-10-10 01:59:25" }, "geometry": { "type": "Point", "coordinates": [ 354093.59558829665184, 6297325.316919128410518 ] } },
{ "type": "Feature", "properties": { "access": null, "addr_city": "La Reina", "addr_housenumber": null, "addr_postcode": null, "addr_state": null, "addr_street": null, "addr_unit": null, "amenity": "doctors", "building": null, "capacity": null, "denomination": null, "ele": null, "emergency": null, "fee": null, "healthcare": "clinic", "healthcare_speciality": "psychiatry", "name": "COSAM La Reina", "name_en": null, "name_es": null, "opening_hours": null, "operator": null, "parking": null, "phone": null, "religion": null, "source_transform": null, "surface": null, "website": null, "wheelchair": null, "objectid": 10810806, "osm_id2": "11205691079", "centroide_x": 357469.74997260422, "centroide_y": 6296995.3644843083, "crs_original": "EPSG:4326", "fecha_normalizacion": "2025-10-10 01:59:25" }, "geometry": { "type": "Point", "coordinates": [ 357469.749972604215145, 6296995.364484308287501 ] } },
{ "type": "Feature", "properties": { "access": null, "addr_city": "La Reina", "addr_housenumber": "427", "addr_postcode": null, "addr_state": null, "addr_street": "Carmela Ramírez", "addr_unit": null, "amenity": "doctors", "building": null, "capacity": null, "denomination": null, "ele": null, "emergency": null, "fee": null, "healthcare": "doctor", "healthcare_speciality": "anthroposophical", "name": "Centro Médico Antroposófico", "name_en": null, "name_es": null, "opening_hours": null, "operator": null, "parking": null, "phone": "+56222263311", "religion": null, "source_transform": null, "surface": null, "website": "https://medicina-antroposofica.cl/", "wheelchair": null, "objectid": 11362444, "osm_id2": "11952640842", "centroide_x": 355100.26983027777, "centroide_y": 6297070.7198104039, "crs_original": "EPSG:4326", "fecha_normalizacion": "2025-10-10 01:59:25" }, "geometry": { "type": "Point", "coordinates": [ 355100.269830277771689, 6297070.719810403883457 ] } },
{ "type": "Feature", "properties": { "access": null, "addr_city": "La Reina", "addr_housenumber": null, "addr_postcode": null, "addr_state": null, "addr_street": "Avenida Alcalde Fernando Castillo Velasco", "addr_unit": null, "amenity": "pharmacy", "building": null, "capacity": null, "denomination": null, "ele": null, "emergency": null, "fee": null, "healthcare": "pharmacy", "healthcare_speciality": null, "name": "Farmacia Comunitaria La Reina", "name_en": null, "name_es": null, "opening_hours": null, "operator": null, "parking": null, "phone": null, "religion": null, "source_transform": null, "surface": null, "website": null, "wheelchair": null, "objectid": 12068992, "osm_id2": "12392964997", "centroide_x": 356597.21356403094, "centroide_y": 6297680.6151677351, "crs_original": "EPSG:4326", "fecha_normalizacion": "2025-10-10 01:59:25" }, "geometry": { "type": "Point", "coordinates": [ 356597.213564030942507, 6297680.615167735144496 ] } },
{ "type": "Feature", "properties": { "access": null, "addr_city": "La Reina", "addr_housenumber": null, "addr_postcode": null, "addr_state": null, "addr_street": "Mateo de Toro y Zambrano", "addr_unit": null, "amenity": "pharmacy", "building": null, "capacity": null, "denomination": null, "ele": null, "emergency": null, "fee": null, "healthcare": "pharmacy", "healthcare_speciality": null, "name": "Cruz Verde", "name_en": null, "name_es": null, "opening_hours": null, "operator": null, "parking": null, "phone": null, "religion": null, "source_transform": null, "surface": null, "website": null, "wheelchair": null, "objectid": 12129360, "osm_id2": "12454378030", "centroide_x": 355360.61131867813, "centroide_y": 6298874.655820217, "crs_original": "EPSG:4326", "fecha_normalizacion": "2025-10-10 01:59:25" }, "geometry": { "type": "Point", "coordinates": [ 355360.611318678129464, 6298874.655820216983557 ] } },
{ "type": "Feature", "properties": { "access": null, "addr_city": "La Reina", "addr_housenumber": "5862", "addr_postcode": null, "addr_state": null, "addr_street": "Avenida Larraín", "addr_unit": null, "amenity": "pharmacy", "building": null, "capacity": null, "denomination": null, "ele": null, "emergency": null, "fee": null, "healthcare": "pharmacy", "healthcare_speciality": null, "name": "Cruz Verde", "name_en": null, "name_es": null, "opening_hours": null, "operator": null, "parking": null, "phone": null, "religion": null, "source_transform": null, "surface": null, "website": null, "wheelchair": null, "objectid": 7868956, "osm_id2": "8949365217", "centroide_x": 354108.61729031231, "centroide_y": 6297373.4680485018, "crs_original": "EPSG:4326", "fecha_normalizacion": "2025-10-10 01:59:25" }, "geometry": { "type": "Point", "coordinates": [ 354108.617290312307887, 6297373.468048501759768 ] } },
{ "type": "Feature", "properties": { "access": null, "addr_city": "La Reina", "addr_housenumber": "5839", "addr_postcode": null, "addr_state": null, "addr_street": "Avenida Echeñique", "addr_unit": null, "amenity": "pharmacy", "building": null, "capacity": null, "denomination": null, "ele": null, "emergency": null, "fee": null, "healthcare": "pharmacy", "healthcare_speciality": null, "name": "Farmacias Human Pharma", "name_en": null, "name_es": null, "opening_hours": null, "operator": null, "parking": null, "phone": null, "religion": null, "source_transform": null, "surface": null, "website": null, "wheelchair": null, "objectid": 9548821, "osm_id2": "10080785041", "centroide_x": 354012.83160724392, "centroide_y": 6298219.1727559045, "crs_original": "EPSG:4326", "fecha_normalizacion": "2025-10-10 01:59:25" }, "geometry": { "type": "Point", "coordinates": [ 354012.831607243919279, 6298219.172755904495716 ] } },
{ "type": "Feature", "properties": { "access": null, "addr_city": "Santiago", "addr_housenumber": null, "addr_postcode": null, "addr_state": null, "addr_street": "Avenida Portugal", "addr_unit": null, "amenity": "doctors", "building": null, "capacity": null, "denomination": null, "ele": null, "emergency": null, "fee": null, "healthcare": "doctor", "healthcare_speciality": null, "name": "Instituto Nacional de Acupuntura y medicina china", "name_en": null, "name_es": null, "opening_hours": null, "operator": null, "parking": null, "phone": "+56226341120", "religion": null, "source_transform": null, "surface": null, "website": "http://www.acupunturainchile.cl", "wheelchair": null, "objectid": 6395329, "osm_id2": "5865796985", "centroide_x": 348033.70609126484, "centroide_y": 6297759.2087201793, "crs_original": "EPSG:4326", "fecha_normalizacion": "2025-10-10 01:59:25" }, "geometry": { "type": "Point", "coordinates": [ 348033.706091264844872, 6297759.208720179274678 ] } },
{ "type": "Feature", "properties": { "access": null, "addr_city": "Santiago", "addr_housenumber": "1708", "addr_postcode": null, "addr_state": null, "addr_street": null, "addr_unit": null, "amenity": "clinic", "building": null, "capacity": null, "denomination": null, "ele": null, "emergency": null, "fee": null, "healthcare": "hospital", "healthcare_speciality": null, "name": "CESFAM Padre Orellana", "name_en": null, "name_es": null, "opening_hours": null, "operator": null, "parking": null, "phone": null, "religion": null, "source_transform": null, "surface": null, "website": null, "wheelchair": null, "objectid": 10741280, "osm_id2": "11172535584", "centroide_x": 348554.94383270422, "centroide_y": 6295821.8769553341, "crs_original": "EPSG:4326", "fecha_normalizacion": "2025-10-10 01:59:25" }, "geometry": { "type": "Point", "coordinates": [ 348554.943832704215311, 6295821.876955334097147 ] } },
{ "type": "Feature", "properties": { "access": null, "addr_city": "Santiago", "addr_housenumber": "170", "addr_postcode": null, "addr_state": null, "addr_street": "Avenida Portugal", "addr_unit": null, "amenity": "pharmacy", "building": null, "capacity": null, "denomination": null, "ele": null, "emergency": null, "fee": null, "healthcare": "pharmacy", "healthcare_speciality": null, "name": "Farmacias Ahumada", "name_en": null, "name_es": null, "opening_hours": null, "operator": null, "parking": null, "phone": null, "religion": null, "source_transform": null, "surface": null, "website": null, "wheelchair": null, "objectid": 6388923, "osm_id2": "3661031900", "centroide_x": 347855.18821447284, "centroide_y": 6298256.2743230686, "crs_original": "EPSG:4326", "fecha_normalizacion": "2025-10-10 01:59:25" }, "geometry": { "type": "Point", "coordinates": [ 347855.188214472844265, 6298256.27432306855917 ] } },
{ "type": "Feature", "properties": { "access": null, "addr_city": "Santiago", "addr_housenumber": "174", "addr_postcode": null, "addr_state": null, "addr_street": "Avenida Portugal", "addr_unit": null, "amenity": "pharmacy", "building": null, "capacity": null, "denomination": null, "ele": null, "emergency": null, "fee": null, "healthcare": "pharmacy", "healthcare_speciality": null, "name": "SalcoBrand", "name_en": null, "name_es": null, "opening_hours": null, "operator": null, "parking": null, "phone": null, "religion": null, "source_transform": null, "surface": null, "website": null, "wheelchair": null, "objectid": 6389054, "osm_id2": "3661015375", "centroide_x": 347871.6341017572, "centroide_y": 6298227.5183658749, "crs_original": "EPSG:4326", "fecha_normalizacion": "2025-10-10 01:59:25" }, "geometry": { "type": "Point", "coordinates": [ 347871.634101757197641, 6298227.518365874886513 ] } },
{ "type": "Feature", "properties": { "access": null, "addr_city": "Santiago", "addr_housenumber": null, "addr_postcode": null, "addr_state": null, "addr_street": "Santa Isabel", "addr_unit": null, "amenity": "pharmacy", "building": null, "capacity": null, "denomination": null, "ele": null, "emergency": null, "fee": null, "healthcare": "pharmacy", "healthcare_speciality": null, "name": "Cruz Verde", "name_en": null, "name_es": null, "opening_hours": null, "operator": "Cruz Verde", "parking": null, "phone": null, "religion": null, "source_transform": null, "surface": null, "website": "https://www.cruzverde.cl/", "wheelchair": null, "objectid": 6395212, "osm_id2": "4453962892", "centroide_x": 347987.85439743381, "centroide_y": 6297836.281891604, "crs_original": "EPSG:4326", "fecha_normalizacion": "2025-10-10 01:59:25" }, "geometry": { "type": "Point", "coordinates": [ 347987.854397433809936, 6297836.281891603954136 ] } },
{ "type": "Feature", "properties": { "access": null, "addr_city": "Santiago", "addr_housenumber": "699", "addr_postcode": null, "addr_state": null, "addr_street": "Avenida Vicuña Mackenna", "addr_unit": null, "amenity": "pharmacy", "building": null, "capacity": null, "denomination": null, "ele": null, "emergency": null, "fee": null, "healthcare": "pharmacy", "healthcare_speciality": null, "name": "Cruz Verde", "name_en": null, "name_es": null, "opening_hours": null, "operator": null, "parking": null, "phone": null, "religion": null, "source_transform": null, "surface": null, "website": null, "wheelchair": null, "objectid": 6395728, "osm_id2": "4438519073", "centroide_x": 348384.20277431712, "centroide_y": 6297443.6452242564, "crs_original": "EPSG:4326", "fecha_normalizacion": "2025-10-10 01:59:25" }, "geometry": { "type": "Point", "coordinates": [ 348384.202774317120202, 6297443.645224256440997 ] } },
{ "type": "Feature", "properties": { "access": null, "addr_city": "Santiago", "addr_housenumber": "1173", "addr_postcode": null, "addr_state": null, "addr_street": "Artemio Gutiérrez", "addr_unit": null, "amenity": "clinic", "building": null, "capacity": null, "denomination": null, "ele": null, "emergency": null, "fee": null, "healthcare": "clinic", "healthcare_speciality": null, "name": "Policlínico Genchi", "name_en": null, "name_es": null, "opening_hours": null, "operator": null, "parking": null, "phone": null, "religion": null, "source_transform": null, "surface": null, "website": null, "wheelchair": null, "objectid": 6398166, "osm_id2": "4653643475", "centroide_x": 347795.07529795635, "centroide_y": 6296699.9194545746, "crs_original": "EPSG:4326", "fecha_normalizacion": "2025-10-10 01:59:25" }, "geometry": { "type": "Point", "coordinates": [ 347795.075297956354916, 6296699.919454574584961 ] } },
{ "type": "Feature", "properties": { "access": null, "addr_city": "Santiago", "addr_housenumber": "418", "addr_postcode": null, "addr_state": null, "addr_street": "San Antonio", "addr_unit": null, "amenity": "clinic", "building": null, "capacity": null, "denomination": null, "ele": null, "emergency": null, "fee": null, "healthcare": "clinic", "healthcare_speciality": null, "name": "Laboratorios Médicos Santiago Centro", "name_en": null, "name_es": null, "opening_hours": "Mo-Fr 08:00-18:30; Sa 08:00-12:30", "operator": null, "parking": null, "phone": "+56226392276", "religion": null, "source_transform": null, "surface": null, "website": "https://laboratoriosmedicos.cl/", "wheelchair": null, "objectid": 6534254, "osm_id2": "4102780390", "centroide_x": 346767.76300764922, "centroide_y": 6298960.1613256, "crs_original": "EPSG:4326", "fecha_normalizacion": "2025-10-10 01:59:25" }, "geometry": { "type": "Point", "coordinates": [ 346767.763007649220526, 6298960.161325599998236 ] } },
{ "type": "Feature", "properties": { "access": null, "addr_city": "Santiago", "addr_housenumber": "168", "addr_postcode": null, "addr_state": null, "addr_street": "Bandera", "addr_unit": null, "amenity": "clinic", "building": null, "capacity": null, "denomination": null, "ele": null, "emergency": null, "fee": null, "healthcare": "clinic", "healthcare_speciality": null, "name": "IntegraMédica", "name_en": null, "name_es": null, "opening_hours": null, "operator": null, "parking": null, "phone": null, "religion": null, "source_transform": "Reconocimiento cartográfico 2016 por KG.", "surface": null, "website": null, "wheelchair": null, "objectid": 6536734, "osm_id2": "4446260068", "centroide_x": 346426.94407531834, "centroide_y": 6298551.1893505156, "crs_original": "EPSG:4326", "fecha_normalizacion": "2025-10-10 01:59:25" }, "geometry": { "type": "Point", "coordinates": [ 346426.944075318344403, 6298551.189350515604019 ] } },
{ "type": "Feature", "properties": { "access": null, "addr_city": "Santiago", "addr_housenumber": "929", "addr_postcode": null, "addr_state": null, "addr_street": null, "addr_unit": null, "amenity": "clinic", "building": null, "capacity": null, "denomination": null, "ele": null, "emergency": null, "fee": null, "healthcare": "clinic", "healthcare_speciality": null, "name": "Clínica CELA Santiago Centro", "name_en": null, "name_es": null, "opening_hours": "Mo-Fr 09:00-20:00; Sa 09:30-16:00; Su,PH off", "operator": null, "parking": null, "phone": "+56223069251", "religion": null, "source_transform": null, "surface": null, "website": null, "wheelchair": null, "objectid": 6537273, "osm_id2": "5920962879", "centroide_x": 346675.45154848153, "centroide_y": 6298382.387548998, "crs_original": "EPSG:4326", "fecha_normalizacion": "2025-10-10 01:59:25" }, "geometry": { "type": "Point", "coordinates": [ 346675.451548481534701, 6298382.387548997998238 ] } },
{ "type": "Feature", "properties": { "access": null, "addr_city": "Santiago", "addr_housenumber": "1217", "addr_postcode": null, "addr_state": null, "addr_street": "San Ignacio", "addr_unit": null, "amenity": "doctors", "building": null, "capacity": null, "denomination": null, "ele": null, "emergency": null, "fee": null, "healthcare": null, "healthcare_speciality": null, "name": "Doctor Benjamín Cousiño", "name_en": null, "name_es": "Doctor Benjamín Cousiño", "opening_hours": null, "operator": null, "parking": null, "phone": null, "religion": null, "source_transform": null, "surface": null, "website": null, "wheelchair": null, "objectid": 6566434, "osm_id2": "4406278889", "centroide_x": 346152.49233883043, "centroide_y": 6296297.1866676714, "crs_original": "EPSG:4326", "fecha_normalizacion": "2025-10-10 01:59:25" }, "geometry": { "type": "Point", "coordinates": [ 346152.492338830430526, 6296297.186667671427131 ] } },
{ "type": "Feature", "properties": { "access": null, "addr_city": "Santiago", "addr_housenumber": "219", "addr_postcode": null, "addr_state": null, "addr_street": "Ejército Libertador", "addr_unit": null, "amenity": "clinic", "building": null, "capacity": null, "denomination": null, "ele": null, "emergency": null, "fee": null, "healthcare": "clinic", "healthcare_speciality": null, "name": "Clínica odontologica UDP", "name_en": null, "name_es": null, "opening_hours": null, "operator": null, "parking": null, "phone": null, "religion": null, "source_transform": null, "surface": null, "website": "https://clinicaodontologica.udp.cl", "wheelchair": null, "objectid": 6542473, "osm_id2": "3058138092", "centroide_x": 345606.04749145516, "centroide_y": 6297599.9331368599, "crs_original": "EPSG:4326", "fecha_normalizacion": "2025-10-10 01:59:25" }, "geometry": { "type": "Point", "coordinates": [ 345606.047491455159616, 6297599.9331368599087 ] } },
{ "type": "Feature", "properties": { "access": null, "addr_city": "Santiago", "addr_housenumber": null, "addr_postcode": null, "addr_state": null, "addr_street": "San Diego", "addr_unit": null, "amenity": "clinic", "building": null, "capacity": null, "denomination": null, "ele": null, "emergency": null, "fee": null, "healthcare": "clinic", "healthcare_speciality": null, "name": "Laboratorio metropolitana", "name_en": null, "name_es": "Laboratorio metropolitana", "opening_hours": null, "operator": null, "parking": null, "phone": null, "religion": null, "source_transform": null, "surface": null, "website": null, "wheelchair": null, "objectid": 6542861, "osm_id2": "4488812889", "centroide_x": 346643.21504572476, "centroide_y": 6297234.4792608917, "crs_original": "EPSG:4326", "fecha_normalizacion": "2025-10-10 01:59:25" }, "geometry": { "type": "Point", "coordinates": [ 346643.215045724762604, 6297234.479260891675949 ] } },
{ "type": "Feature", "properties": { "access": null, "addr_city": "Santiago", "addr_housenumber": "654", "addr_postcode": null, "addr_state": null, "addr_street": null, "addr_unit": null, "amenity": "clinic", "building": null, "capacity": null, "denomination": null, "ele": null, "emergency": null, "fee": null, "healthcare": "clinic", "healthcare_speciality": null, "name": "IntegraMédica Alameda", "name_en": null, "name_es": null, "opening_hours": "Mo-Sa 07:30-20:00", "operator": "Bupa", "parking": null, "phone": null, "religion": null, "source_transform": null, "surface": null, "website": null, "wheelchair": null, "objectid": 10400341, "osm_id2": "10992814872", "centroide_x": 347052.04082266224, "centroide_y": 6298374.0933464039, "crs_original": "EPSG:4326", "fecha_normalizacion": "2025-10-10 01:59:25" }, "geometry": { "type": "Point", "coordinates": [ 347052.040822662238497, 6298374.09334640391171 ] } },
{ "type": "Feature", "properties": { "access": null, "addr_city": "Santiago", "addr_housenumber": "936", "addr_postcode": null, "addr_state": null, "addr_street": "Santa Isabel", "addr_unit": null, "amenity": "pharmacy", "building": null, "capacity": null, "denomination": null, "ele": null, "emergency": null, "fee": null, "healthcare": "pharmacy", "healthcare_speciality": null, "name": "Farmacias La Rebaja", "name_en": null, "name_es": null, "opening_hours": null, "operator": null, "parking": null, "phone": null, "religion": null, "source_transform": null, "surface": null, "website": null, "wheelchair": null, "objectid": 10618569, "osm_id2": "11082199317", "centroide_x": 346804.47274245147, "centroide_y": 6297432.3364490774, "crs_original": "EPSG:4326", "fecha_normalizacion": "2025-10-10 01:59:25" }, "geometry": { "type": "Point", "coordinates": [ 346804.472742451471277, 6297432.336449077352881 ] } },
{ "type": "Feature", "properties": { "access": null, "addr_city": "Santiago", "addr_housenumber": "20", "addr_postcode": null, "addr_state": null, "addr_street": "Avenida Libertador Bernardo O'Higgins", "addr_unit": null, "amenity": "pharmacy", "building": null, "capacity": null, "denomination": null, "ele": null, "emergency": null, "fee": null, "healthcare": "pharmacy", "healthcare_speciality": null, "name": "SalcoBrand", "name_en": null, "name_es": null, "opening_hours": null, "operator": null, "parking": null, "phone": "+56226331817", "religion": null, "source_transform": null, "surface": null, "website": null, "wheelchair": null, "objectid": 6386083, "osm_id2": "867951613", "centroide_x": 347956.84859941207, "centroide_y": 6299010.1110735275, "crs_original": "EPSG:4326", "fecha_normalizacion": "2025-10-10 01:59:25" }, "geometry": { "type": "Point", "coordinates": [ 347956.848599412071053, 6299010.111073527485132 ] } },
{ "type": "Feature", "properties": { "access": null, "addr_city": "Santiago", "addr_housenumber": null, "addr_postcode": null, "addr_state": null, "addr_street": "Moneda", "addr_unit": null, "amenity": "pharmacy", "building": null, "capacity": null, "denomination": null, "ele": null, "emergency": null, "fee": null, "healthcare": "pharmacy", "healthcare_speciality": null, "name": "Hahnemann", "name_en": null, "name_es": null, "opening_hours": null, "operator": null, "parking": null, "phone": null, "religion": null, "source_transform": null, "surface": null, "website": null, "wheelchair": null, "objectid": 6388702, "osm_id2": "4446300348", "centroide_x": 346979.32229511108, "centroide_y": 6298562.8375389744, "crs_original": "EPSG:4326", "fecha_normalizacion": "2025-10-10 01:59:25" }, "geometry": { "type": "Point", "coordinates": [ 346979.322295111080166, 6298562.837538974359632 ] } },
{ "type": "Feature", "properties": { "access": null, "addr_city": "Santiago", "addr_housenumber": null, "addr_postcode": null, "addr_state": null, "addr_street": "Ñuble", "addr_unit": null, "amenity": "doctors", "building": null, "capacity": null, "denomination": null, "ele": null, "emergency": null, "fee": null, "healthcare": "doctor", "healthcare_speciality": null, "name": "Núcleo Salud", "name_en": null, "name_es": null, "opening_hours": null, "operator": "Red Megacentro", "parking": null, "phone": null, "religion": null, "source_transform": null, "surface": null, "website": null, "wheelchair": null, "objectid": 11043539, "osm_id2": "11419307099", "centroide_x": 346903.81149638013, "centroide_y": 6295446.4381855614, "crs_original": "EPSG:4326", "fecha_normalizacion": "2025-10-10 01:59:25" }, "geometry": { "type": "Point", "coordinates": [ 346903.811496380134486, 6295446.438185561448336 ] } },
{ "type": "Feature", "properties": { "access": null, "addr_city": "Santiago", "addr_housenumber": "692", "addr_postcode": null, "addr_state": null, "addr_street": "Avenida Manuel Antonio Matta", "addr_unit": null, "amenity": "pharmacy", "building": null, "capacity": null, "denomination": null, "ele": null, "emergency": null, "fee": null, "healthcare": "pharmacy", "healthcare_speciality": null, "name": "Farmacia Nobel", "name_en": null, "name_es": null, "opening_hours": null, "operator": null, "parking": null, "phone": "+56 2 25 561 159", "religion": null, "source_transform": "Reconocimiento cortográfico de campo 2016 por KG", "surface": null, "website": null, "wheelchair": null, "objectid": 6398250, "osm_id2": "4457101115", "centroide_x": 347301.56823272782, "centroide_y": 6296667.2825817, "crs_original": "EPSG:4326", "fecha_normalizacion": "2025-10-10 01:59:25" }, "geometry": { "type": "Point", "coordinates": [ 347301.568232727819122, 6296667.282581700012088 ] } },
{ "type": "Feature", "properties": { "access": null, "addr_city": "Santiago", "addr_housenumber": "315", "addr_postcode": null, "addr_state": null, "addr_street": "Paseo Ahumada", "addr_unit": null, "amenity": "pharmacy", "building": null, "capacity": null, "denomination": null, "ele": null, "emergency": null, "fee": null, "healthcare": "pharmacy", "healthcare_speciality": null, "name": "SalcoBrand", "name_en": null, "name_es": null, "opening_hours": null, "operator": null, "parking": null, "phone": "+5624202580", "religion": null, "source_transform": null, "surface": null, "website": null, "wheelchair": null, "objectid": 6534447, "osm_id2": "867952129", "centroide_x": 346536.94164097938, "centroide_y": 6298872.3698919173, "crs_original": "EPSG:4326", "fecha_normalizacion": "2025-10-10 01:59:25" }, "geometry": { "type": "Point", "coordinates": [ 346536.941640979377553, 6298872.369891917333007 ] } },
{ "type": "Feature", "properties": { "access": null, "addr_city": "Santiago", "addr_housenumber": "2259", "addr_postcode": null, "addr_state": null, "addr_street": "San Pablo", "addr_unit": null, "amenity": "pharmacy", "building": null, "capacity": null, "denomination": null, "ele": null, "emergency": null, "fee": null, "healthcare": "pharmacy", "healthcare_speciality": null, "name": "Farmacia Jardín", "name_en": null, "name_es": null, "opening_hours": null, "operator": null, "parking": null, "phone": null, "religion": null, "source_transform": "Reconocimiento cortográfico de campo 2016 por KG", "surface": null, "website": null, "wheelchair": null, "objectid": 6535548, "osm_id2": "4452128423", "centroide_x": 344918.05920565291, "centroide_y": 6299265.6708172709, "crs_original": "EPSG:4326", "fecha_normalizacion": "2025-10-10 01:59:25" }, "geometry": { "type": "Point", "coordinates": [ 344918.059205652913079, 6299265.670817270874977 ] } },
{ "type": "Feature", "properties": { "access": null, "addr_city": "Santiago", "addr_housenumber": "206", "addr_postcode": null, "addr_state": null, "addr_street": "San Antonio", "addr_unit": null, "amenity": "pharmacy", "building": null, "capacity": null, "denomination": null, "ele": null, "emergency": null, "fee": null, "healthcare": "pharmacy", "healthcare_speciality": null, "name": "SalcoBrand", "name_en": null, "name_es": null, "opening_hours": null, "operator": null, "parking": null, "phone": "+5626641961", "religion": null, "source_transform": null, "surface": null, "website": null, "wheelchair": null, "objectid": 6536120, "osm_id2": "867953144", "centroide_x": 346803.0130265574, "centroide_y": 6298806.0729282182, "crs_original": "EPSG:4326", "fecha_normalizacion": "2025-10-10 01:59:25" }, "geometry": { "type": "Point", "coordinates": [ 346803.013026557397097, 6298806.072928218171 ] } },
{ "type": "Feature", "properties": { "access": null, "addr_city": "Santiago", "addr_housenumber": null, "addr_postcode": null, "addr_state": null, "addr_street": "San Antonio", "addr_unit": null, "amenity": "pharmacy", "building": null, "capacity": null, "denomination": null, "ele": null, "emergency": null, "fee": null, "healthcare": "pharmacy", "healthcare_speciality": null, "name": "Farmacia Mapuche Makelawen", "name_en": null, "name_es": null, "opening_hours": null, "operator": null, "parking": null, "phone": null, "religion": null, "source_transform": "Reconocimiento cartográfico de campo 2016 por KG", "surface": null, "website": null, "wheelchair": null, "objectid": 6536193, "osm_id2": "4452590268", "centroide_x": 346794.86307460733, "centroide_y": 6298704.2910463754, "crs_original": "EPSG:4326", "fecha_normalizacion": "2025-10-10 01:59:25" }, "geometry": { "type": "Point", "coordinates": [ 346794.863074607332237, 6298704.291046375408769 ] } },
{ "type": "Feature", "properties": { "access": null, "addr_city": "Santiago", "addr_housenumber": "900", "addr_postcode": null, "addr_state": null, "addr_street": "Huérfanos", "addr_unit": null, "amenity": "pharmacy", "building": null, "capacity": null, "denomination": null, "ele": null, "emergency": null, "fee": null, "healthcare": "pharmacy", "healthcare_speciality": null, "name": "SalcoBrand", "name_en": null, "name_es": null, "opening_hours": null, "operator": null, "parking": null, "phone": "+5626389049", "religion": null, "source_transform": null, "surface": null, "website": null, "wheelchair": null, "objectid": 6536329, "osm_id2": "867951554", "centroide_x": 346530.15993911214, "centroide_y": 6298743.1581369359, "crs_original": "EPSG:4326", "fecha_normalizacion": "2025-10-10 01:59:25" }, "geometry": { "type": "Point", "coordinates": [ 346530.159939112141728, 6298743.158136935904622 ] } },
{ "type": "Feature", "properties": { "access": null, "addr_city": "Santiago", "addr_housenumber": "389", "addr_postcode": null, "addr_state": null, "addr_street": "Paseo Ahumada", "addr_unit": null, "amenity": "pharmacy", "building": null, "capacity": null, "denomination": null, "ele": null, "emergency": null, "fee": null, "healthcare": "pharmacy", "healthcare_speciality": null, "name": "SalcoBrand", "name_en": null, "name_es": null, "opening_hours": null, "operator": null, "parking": null, "phone": "+5626991596", "religion": null, "source_transform": null, "surface": null, "website": null, "wheelchair": null, "objectid": 6536333, "osm_id2": "867951674", "centroide_x": 346530.76308479276, "centroide_y": 6298736.213400539, "crs_original": "EPSG:4326", "fecha_normalizacion": "2025-10-10 01:59:25" }, "geometry": { "type": "Point", "coordinates": [ 346530.763084792764857, 6298736.213400539010763 ] } },
{ "type": "Feature", "properties": { "access": null, "addr_city": "Santiago", "addr_housenumber": null, "addr_postcode": null, "addr_state": null, "addr_street": "Bandera", "addr_unit": null, "amenity": "pharmacy", "building": null, "capacity": null, "denomination": null, "ele": null, "emergency": null, "fee": null, "healthcare": "pharmacy", "healthcare_speciality": null, "name": "Farmacia Cruz Verde", "name_en": null, "name_es": null, "opening_hours": null, "operator": null, "parking": null, "phone": null, "religion": null, "source_transform": "Reconocimiento cartográfico 2016 por KG.", "surface": null, "website": null, "wheelchair": null, "objectid": 6536342, "osm_id2": "1747224690", "centroide_x": 346419.2093969566, "centroide_y": 6298746.4640594097, "crs_original": "EPSG:4326", "fecha_normalizacion": "2025-10-10 01:59:25" }, "geometry": { "type": "Point", "coordinates": [ 346419.209396956604905, 6298746.464059409685433 ] } },
{ "type": "Feature", "properties": { "access": null, "addr_city": "Santiago", "addr_housenumber": "1199", "addr_postcode": null, "addr_state": null, "addr_street": "Huérfanos", "addr_unit": null, "amenity": "pharmacy", "building": null, "capacity": null, "denomination": null, "ele": null, "emergency": null, "fee": null, "healthcare": "pharmacy", "healthcare_speciality": null, "name": "La Botica Salcobrand", "name_en": null, "name_es": null, "opening_hours": null, "operator": null, "parking": null, "phone": null, "religion": null, "source_transform": "Reconocimiento cortográfico de campo 2016 por KG", "surface": null, "website": null, "wheelchair": null, "objectid": 6536368, "osm_id2": "2584336818", "centroide_x": 346290.27387368574, "centroide_y": 6298734.619956946, "crs_original": "EPSG:4326", "fecha_normalizacion": "2025-10-10 01:59:25" }, "geometry": { "type": "Point", "coordinates": [ 346290.273873685742728, 6298734.619956946000457 ] } },
{ "type": "Feature", "properties": { "access": null, "addr_city": "Santiago", "addr_housenumber": "101", "addr_postcode": null, "addr_state": null, "addr_street": "Paseo Ahumada", "addr_unit": null, "amenity": "pharmacy", "building": null, "capacity": null, "denomination": null, "ele": null, "emergency": null, "fee": null, "healthcare": "pharmacy", "healthcare_speciality": null, "name": "SalcoBrand", "name_en": null, "name_es": null, "opening_hours": null, "operator": null, "parking": null, "phone": null, "religion": null, "source_transform": null, "surface": null, "website": null, "wheelchair": null, "objectid": 6536650, "osm_id2": "1721061650", "centroide_x": 346576.63948260283, "centroide_y": 6298510.4331339905, "crs_original": "EPSG:4326", "fecha_normalizacion": "2025-10-10 01:59:25" }, "geometry": { "type": "Point", "coordinates": [ 346576.63948260282632, 6298510.433133990503848 ] } },
{ "type": "Feature", "properties": { "access": null, "addr_city": "Santiago", "addr_housenumber": null, "addr_postcode": null, "addr_state": null, "addr_street": null, "addr_unit": null, "amenity": "pharmacy", "building": null, "capacity": null, "denomination": null, "ele": null, "emergency": null, "fee": null, "healthcare": "pharmacy", "healthcare_speciality": null, "name": "Farmacia del Doctor Ahorro", "name_en": null, "name_es": null, "opening_hours": null, "operator": null, "parking": null, "phone": null, "religion": null, "source_transform": null, "surface": null, "website": null, "wheelchair": null, "objectid": 6536673, "osm_id2": "1754033579", "centroide_x": 346625.98765861552, "centroide_y": 6298494.5906323101, "crs_original": "EPSG:4326", "fecha_normalizacion": "2025-10-10 01:59:25" }, "geometry": { "type": "Point", "coordinates": [ 346625.987658615515102, 6298494.590632310137153 ] } },
{ "type": "Feature", "properties": { "access": null, "addr_city": "Santiago", "addr_housenumber": null, "addr_postcode": null, "addr_state": null, "addr_street": "Moneda", "addr_unit": null, "amenity": "pharmacy", "building": null, "capacity": null, "denomination": null, "ele": null, "emergency": null, "fee": null, "healthcare": "pharmacy", "healthcare_speciality": null, "name": "Farmacias KNOP", "name_en": null, "name_es": null, "opening_hours": null, "operator": null, "parking": null, "phone": null, "religion": null, "source_transform": "Reconocimiento cartográfico 2016 por KG.", "surface": null, "website": null, "wheelchair": null, "objectid": 6536778, "osm_id2": "4446914634", "centroide_x": 346488.58288579807, "centroide_y": 6298504.4980058903, "crs_original": "EPSG:4326", "fecha_normalizacion": "2025-10-10 01:59:25" }, "geometry": { "type": "Point", "coordinates": [ 346488.582885798066854, 6298504.498005890287459 ] } },
{ "type": "Feature", "properties": { "access": null, "addr_city": "Santiago", "addr_housenumber": "779", "addr_postcode": null, "addr_state": null, "addr_street": "Avenida Libertador Bernardo O'Higgins", "addr_unit": null, "amenity": "pharmacy", "building": null, "capacity": null, "denomination": null, "ele": null, "emergency": null, "fee": null, "healthcare": "pharmacy", "healthcare_speciality": null, "name": "SalcoBrand", "name_en": null, "name_es": null, "opening_hours": null, "operator": null, "parking": null, "phone": "+5626642881", "religion": null, "source_transform": null, "surface": null, "website": null, "wheelchair": null, "objectid": 6537222, "osm_id2": "867952197", "centroide_x": 346849.58547876927, "centroide_y": 6298410.4601506991, "crs_original": "EPSG:4326", "fecha_normalizacion": "2025-10-10 01:59:25" }, "geometry": { "type": "Point", "coordinates": [ 346849.585478769266047, 6298410.460150699131191 ] } },
{ "type": "Feature", "properties": { "access": null, "addr_city": "Santiago", "addr_housenumber": "833", "addr_postcode": null, "addr_state": null, "addr_street": "Avenida Libertador Bernardo O'Higgins", "addr_unit": null, "amenity": "pharmacy", "building": null, "capacity": null, "denomination": null, "ele": null, "emergency": null, "fee": null, "healthcare": "pharmacy", "healthcare_speciality": null, "name": "SalcoBrand", "name_en": null, "name_es": null, "opening_hours": null, "operator": null, "parking": null, "phone": "+5624202595", "religion": null, "source_transform": null, "surface": null, "website": null, "wheelchair": null, "objectid": 6537245, "osm_id2": "867953601", "centroide_x": 346798.4203459007, "centroide_y": 6298385.5473134201, "crs_original": "EPSG:4326", "fecha_normalizacion": "2025-10-10 01:59:25" }, "geometry": { "type": "Point", "coordinates": [ 346798.420345900696702, 6298385.547313420102 ] } },
{ "type": "Feature", "properties": { "access": null, "addr_city": "Santiago", "addr_housenumber": "56", "addr_postcode": null, "addr_state": null, "addr_street": "Paseo Estado", "addr_unit": null, "amenity": "pharmacy", "building": null, "capacity": null, "denomination": null, "ele": null, "emergency": null, "fee": null, "healthcare": "pharmacy", "healthcare_speciality": null, "name": "Farmacias Ahumada", "name_en": null, "name_es": null, "opening_hours": null, "operator": null, "parking": null, "phone": "+5626971531", "religion": null, "source_transform": "Reconocimiento cartográfico 2016 por KG", "surface": null, "website": null, "wheelchair": null, "objectid": 6537278, "osm_id2": "867952093", "centroide_x": 346690.57541696064, "centroide_y": 6298356.9066611482, "crs_original": "EPSG:4326", "fecha_normalizacion": "2025-10-10 01:59:25" }, "geometry": { "type": "Point", "coordinates": [ 346690.575416960637085, 6298356.906661148183048 ] } },
{ "type": "Feature", "properties": { "access": null, "addr_city": "Santiago", "addr_housenumber": "965", "addr_postcode": null, "addr_state": null, "addr_street": "Avenida Libertador Bernardo O'Higgins", "addr_unit": null, "amenity": "pharmacy", "building": null, "capacity": null, "denomination": null, "ele": null, "emergency": null, "fee": null, "healthcare": "pharmacy", "healthcare_speciality": null, "name": "SalcoBrand", "name_en": null, "name_es": null, "opening_hours": null, "operator": null, "parking": null, "phone": "+5626819474", "religion": null, "source_transform": "Reconocimiento cortográfico de campo 2016 por KG", "surface": null, "website": null, "wheelchair": null, "objectid": 6537321, "osm_id2": "867952683", "centroide_x": 346638.76469054224, "centroide_y": 6298333.4578133356, "crs_original": "EPSG:4326", "fecha_normalizacion": "2025-10-10 01:59:25" }, "geometry": { "type": "Point", "coordinates": [ 346638.764690542244352, 6298333.457813335582614 ] } },
{ "type": "Feature", "properties": { "access": null, "addr_city": "Santiago", "addr_housenumber": null, "addr_postcode": null, "addr_state": null, "addr_street": "Teatinos", "addr_unit": null, "amenity": "pharmacy", "building": null, "capacity": null, "denomination": null, "ele": null, "emergency": null, "fee": null, "healthcare": "pharmacy", "healthcare_speciality": null, "name": "Farmacias Ahumada", "name_en": null, "name_es": null, "opening_hours": null, "operator": null, "parking": null, "phone": null, "religion": null, "source_transform": "Reconocimiento cortográfico de campo 2016 por KG", "surface": null, "website": null, "wheelchair": null, "objectid": 6537451, "osm_id2": "4453903058", "centroide_x": 346228.29278411128, "centroide_y": 6298232.4560890235, "crs_original": "EPSG:4326", "fecha_normalizacion": "2025-10-10 01:59:25" }, "geometry": { "type": "Point", "coordinates": [ 346228.292784111283254, 6298232.456089023500681 ] } },
{ "type": "Feature", "properties": { "access": null, "addr_city": "Santiago", "addr_housenumber": "1395", "addr_postcode": null, "addr_state": null, "addr_street": "Avenida Libertador Bernardo O'Higgins", "addr_unit": null, "amenity": "pharmacy", "building": null, "capacity": null, "denomination": null, "ele": null, "emergency": null, "fee": null, "healthcare": "pharmacy", "healthcare_speciality": null, "name": "SalcoBrand", "name_en": null, "name_es": null, "opening_hours": null, "operator": null, "parking": null, "phone": null, "religion": null, "source_transform": null, "surface": null, "website": null, "wheelchair": null, "objectid": 6537649, "osm_id2": "4455403645", "centroide_x": 346114.58267299214, "centroide_y": 6298200.9536216315, "crs_original": "EPSG:4326", "fecha_normalizacion": "2025-10-10 01:59:25" }, "geometry": { "type": "Point", "coordinates": [ 346114.582672992139123, 6298200.953621631488204 ] } },
{ "type": "Feature", "properties": { "access": null, "addr_city": "Santiago", "addr_housenumber": "10", "addr_postcode": null, "addr_state": null, "addr_street": "Lord Cochrane", "addr_unit": null, "amenity": "pharmacy", "building": null, "capacity": null, "denomination": null, "ele": null, "emergency": null, "fee": null, "healthcare": "pharmacy", "healthcare_speciality": null, "name": "Farmacias del Dr. Simi", "name_en": null, "name_es": null, "opening_hours": null, "operator": null, "parking": null, "phone": null, "religion": null, "source_transform": null, "surface": null, "website": null, "wheelchair": "yes", "objectid": 6537731, "osm_id2": "999676113", "centroide_x": 346149.87122257682, "centroide_y": 6298106.8723723385, "crs_original": "EPSG:4326", "fecha_normalizacion": "2025-10-10 01:59:25" }, "geometry": { "type": "Point", "coordinates": [ 346149.871222576824948, 6298106.872372338548303 ] } },
{ "type": "Feature", "properties": { "access": null, "addr_city": "Santiago", "addr_housenumber": "92", "addr_postcode": null, "addr_state": null, "addr_street": "Profesora Amanda Labarca", "addr_unit": null, "amenity": "pharmacy", "building": null, "capacity": null, "denomination": null, "ele": null, "emergency": null, "fee": null, "healthcare": "pharmacy", "healthcare_speciality": null, "name": "Cruz Verde", "name_en": null, "name_es": null, "opening_hours": "Mo-Fr 08:00-20:30", "operator": null, "parking": null, "phone": null, "religion": null, "source_transform": null, "surface": null, "website": null, "wheelchair": null, "objectid": 6537751, "osm_id2": "4453731916", "centroide_x": 346112.32554502826, "centroide_y": 6298429.0465328917, "crs_original": "EPSG:4326", "fecha_normalizacion": "2025-10-10 01:59:25" }, "geometry": { "type": "Point", "coordinates": [ 346112.325545028259512, 6298429.046532891690731 ] } },
{ "type": "Feature", "properties": { "access": null, "addr_city": "Santiago", "addr_housenumber": "94", "addr_postcode": null, "addr_state": null, "addr_street": "Amunátegui", "addr_unit": null, "amenity": "pharmacy", "building": null, "capacity": null, "denomination": null, "ele": null, "emergency": null, "fee": null, "healthcare": "pharmacy", "healthcare_speciality": null, "name": "Cruz Verde", "name_en": null, "name_es": null, "opening_hours": "Mo-Fr 08:00-20:45; Sa 10:00-14:30", "operator": null, "parking": null, "phone": null, "religion": null, "source_transform": null, "surface": null, "website": null, "wheelchair": null, "objectid": 6537758, "osm_id2": "4453731923", "centroide_x": 346055.13571851724, "centroide_y": 6298425.7729353374, "crs_original": "EPSG:4326", "fecha_normalizacion": "2025-10-10 01:59:25" }, "geometry": { "type": "Point", "coordinates": [ 346055.135718517238274, 6298425.772935337387025 ] } },
{ "type": "Feature", "properties": { "access": null, "addr_city": "Santiago", "addr_housenumber": "75", "addr_postcode": null, "addr_state": null, "addr_street": "Amunátegui", "addr_unit": null, "amenity": "pharmacy", "building": null, "capacity": null, "denomination": null, "ele": null, "emergency": null, "fee": null, "healthcare": "pharmacy", "healthcare_speciality": null, "name": "FarmaPrecio", "name_en": null, "name_es": "FarmaPrecio", "opening_hours": null, "operator": null, "parking": null, "phone": null, "religion": null, "source_transform": null, "surface": null, "website": "http://www.farmaprecio.cl", "wheelchair": null, "objectid": 6537788, "osm_id2": "4479008494", "centroide_x": 346070.17009847524, "centroide_y": 6298359.3307063086, "crs_original": "EPSG:4326", "fecha_normalizacion": "2025-10-10 01:59:25" }, "geometry": { "type": "Point", "coordinates": [ 346070.170098475238774, 6298359.330706308595836 ] } },
{ "type": "Feature", "properties": { "access": null, "addr_city": "Santiago", "addr_housenumber": null, "addr_postcode": null, "addr_state": null, "addr_street": null, "addr_unit": null, "amenity": "pharmacy", "building": null, "capacity": null, "denomination": null, "ele": null, "emergency": null, "fee": null, "healthcare": "pharmacy", "healthcare_speciality": null, "name": "Cruz Verde", "name_en": null, "name_es": null, "opening_hours": null, "operator": null, "parking": null, "phone": null, "religion": null, "source_transform": null, "surface": null, "website": null, "wheelchair": null, "objectid": 6537898, "osm_id2": "1754033580", "centroide_x": 346006.07032241189, "centroide_y": 6298179.9918777347, "crs_original": "EPSG:4326", "fecha_normalizacion": "2025-10-10 01:59:25" }, "geometry": { "type": "Point", "coordinates": [ 346006.070322411891539, 6298179.991877734661102 ] } },
{ "type": "Feature", "properties": { "access": null, "addr_city": "Santiago", "addr_housenumber": "1511", "addr_postcode": null, "addr_state": null, "addr_street": "Avenida Libertador Bernardo O'Higgins", "addr_unit": null, "amenity": "pharmacy", "building": null, "capacity": null, "denomination": null, "ele": null, "emergency": null, "fee": null, "healthcare": "pharmacy", "healthcare_speciality": null, "name": "SalcoBrand", "name_en": null, "name_es": null, "opening_hours": null, "operator": null, "parking": null, "phone": "+56226967010", "religion": null, "source_transform": null, "surface": null, "website": null, "wheelchair": null, "objectid": 6537902, "osm_id2": "867951741", "centroide_x": 345928.64138167247, "centroide_y": 6298190.59186914, "crs_original": "EPSG:4326", "fecha_normalizacion": "2025-10-10 01:59:25" }, "geometry": { "type": "Point", "coordinates": [ 345928.641381672467105, 6298190.591869140043855 ] } },
{ "type": "Feature", "properties": { "access": null, "addr_city": "Santiago", "addr_housenumber": null, "addr_postcode": null, "addr_state": null, "addr_street": "Avenida Ricardo Cumming", "addr_unit": null, "amenity": "pharmacy", "building": null, "capacity": null, "denomination": null, "ele": null, "emergency": null, "fee": null, "healthcare": "pharmacy", "healthcare_speciality": null, "name": "Farmacias del Dr. Simi", "name_en": null, "name_es": null, "opening_hours": null, "operator": null, "parking": null, "phone": null, "religion": null, "source_transform": null, "surface": null, "website": null, "wheelchair": null, "objectid": 6538109, "osm_id2": "5254734020", "centroide_x": 344912.63188057404, "centroide_y": 6298793.8064953825, "crs_original": "EPSG:4326", "fecha_normalizacion": "2025-10-10 01:59:25" }, "geometry": { "type": "Point", "coordinates": [ 344912.631880574044771, 6298793.806495382450521 ] } },
{ "type": "Feature", "properties": { "access": null, "addr_city": "Santiago", "addr_housenumber": "216", "addr_postcode": null, "addr_state": null, "addr_street": "Avenida Presidente Bulnes", "addr_unit": null, "amenity": "pharmacy", "building": null, "capacity": null, "denomination": null, "ele": null, "emergency": null, "fee": null, "healthcare": "pharmacy", "healthcare_speciality": null, "name": "Cruz Verde", "name_en": null, "name_es": null, "opening_hours": "Mo-Fr 08:30-19:45", "operator": null, "parking": null, "phone": null, "religion": null, "source_transform": null, "surface": null, "website": null, "wheelchair": null, "objectid": 6542047, "osm_id2": "3057374161", "centroide_x": 346405.61311474477, "centroide_y": 6297745.3128695441, "crs_original": "EPSG:4326", "fecha_normalizacion": "2025-10-10 01:59:25" }, "geometry": { "type": "Point", "coordinates": [ 346405.613114744774066, 6297745.312869544140995 ] } },
{ "type": "Feature", "properties": { "access": null, "addr_city": "Santiago", "addr_housenumber": "437", "addr_postcode": null, "addr_state": null, "addr_street": "San Diego", "addr_unit": null, "amenity": "pharmacy", "building": null, "capacity": null, "denomination": null, "ele": null, "emergency": null, "fee": null, "healthcare": "pharmacy", "healthcare_speciality": null, "name": "FarmaEco", "name_en": null, "name_es": null, "opening_hours": null, "operator": null, "parking": null, "phone": "+56226955983", "religion": null, "source_transform": null, "surface": null, "website": null, "wheelchair": null, "objectid": 6542587, "osm_id2": "2782451734", "centroide_x": 346587.12623435934, "centroide_y": 6297499.4722583378, "crs_original": "EPSG:4326", "fecha_normalizacion": "2025-10-10 01:59:25" }, "geometry": { "type": "Point", "coordinates": [ 346587.126234359340742, 6297499.472258337773383 ] } },
{ "type": "Feature", "properties": { "access": null, "addr_city": "Santiago", "addr_housenumber": "540", "addr_postcode": null, "addr_state": null, "addr_street": "San Diego", "addr_unit": null, "amenity": "pharmacy", "building": null, "capacity": null, "denomination": null, "ele": null, "emergency": null, "fee": null, "healthcare": "pharmacy", "healthcare_speciality": null, "name": "Farmacia Almagro", "name_en": null, "name_es": null, "opening_hours": null, "operator": null, "parking": null, "phone": null, "religion": null, "source_transform": "Reconocimiento cortográfico de campo 2016 por KG", "surface": null, "website": null, "wheelchair": null, "objectid": 6542779, "osm_id2": "4474194154", "centroide_x": 346630.14221266354, "centroide_y": 6297358.0520422272, "crs_original": "EPSG:4326", "fecha_normalizacion": "2025-10-10 01:59:25" }, "geometry": { "type": "Point", "coordinates": [ 346630.142212663544342, 6297358.052042227238417 ] } },
{ "type": "Feature", "properties": { "access": null, "addr_city": "Santiago", "addr_housenumber": null, "addr_postcode": null, "addr_state": null, "addr_street": "San Diego", "addr_unit": null, "amenity": "pharmacy", "building": null, "capacity": null, "denomination": null, "ele": null, "emergency": null, "fee": null, "healthcare": "pharmacy", "healthcare_speciality": null, "name": "Damyfar", "name_en": null, "name_es": "Damyfar", "opening_hours": null, "operator": null, "parking": null, "phone": "+56979480167", "religion": null, "source_transform": null, "surface": null, "website": null, "wheelchair": null, "objectid": 6542874, "osm_id2": "2495730727", "centroide_x": 346653.5981165368, "centroide_y": 6297195.9683139101, "crs_original": "EPSG:4326", "fecha_normalizacion": "2025-10-10 01:59:25" }, "geometry": { "type": "Point", "coordinates": [ 346653.598116536799353, 6297195.968313910067081 ] } },
{ "type": "Feature", "properties": { "access": null, "addr_city": "Santiago", "addr_housenumber": "620", "addr_postcode": null, "addr_state": null, "addr_street": "Nataniel Cox", "addr_unit": null, "amenity": "pharmacy", "building": null, "capacity": null, "denomination": null, "ele": null, "emergency": null, "fee": null, "healthcare": "pharmacy", "healthcare_speciality": null, "name": "Farmacias Ahumada", "name_en": null, "name_es": null, "opening_hours": null, "operator": null, "parking": null, "phone": null, "religion": null, "source_transform": null, "surface": null, "website": null, "wheelchair": null, "objectid": 6542912, "osm_id2": "4466515406", "centroide_x": 346424.67032068211, "centroide_y": 6297169.0161840562, "crs_original": "EPSG:4326", "fecha_normalizacion": "2025-10-10 01:59:25" }, "geometry": { "type": "Point", "coordinates": [ 346424.670320682111196, 6297169.016184056177735 ] } },
{ "type": "Feature", "properties": { "access": null, "addr_city": "Santiago", "addr_housenumber": "405", "addr_postcode": null, "addr_state": null, "addr_street": "José Miguel Carrera", "addr_unit": null, "amenity": "pharmacy", "building": null, "capacity": null, "denomination": null, "ele": null, "emergency": null, "fee": null, "healthcare": "pharmacy", "healthcare_speciality": null, "name": "Su Salud", "name_en": null, "name_es": null, "opening_hours": null, "operator": null, "parking": null, "phone": null, "religion": null, "source_transform": null, "surface": null, "website": null, "wheelchair": null, "objectid": 6543199, "osm_id2": "8619109909", "centroide_x": 345422.96009634645, "centroide_y": 6297299.8633730616, "crs_original": "EPSG:4326", "fecha_normalizacion": "2025-10-10 01:59:25" }, "geometry": { "type": "Point", "coordinates": [ 345422.960096346447244, 6297299.863373061642051 ] } },
{ "type": "Feature", "properties": { "access": null, "addr_city": "Santiago", "addr_housenumber": "2008", "addr_postcode": null, "addr_state": null, "addr_street": "Toesca", "addr_unit": null, "amenity": "pharmacy", "building": null, "capacity": null, "denomination": null, "ele": null, "emergency": null, "fee": null, "healthcare": "pharmacy", "healthcare_speciality": null, "name": "Bioequilibrio", "name_en": null, "name_es": null, "opening_hours": null, "operator": null, "parking": null, "phone": null, "religion": null, "source_transform": null, "surface": null, "website": null, "wheelchair": null, "objectid": 6543251, "osm_id2": "5674153816", "centroide_x": 345428.82657061651, "centroide_y": 6297162.2118525961, "crs_original": "EPSG:4326", "fecha_normalizacion": "2025-10-10 01:59:25" }, "geometry": { "type": "Point", "coordinates": [ 345428.826570616511162, 6297162.211852596141398 ] } },
{ "type": "Feature", "properties": { "access": null, "addr_city": "Santiago", "addr_housenumber": "2293", "addr_postcode": null, "addr_state": null, "addr_street": "Avenida Libertador Bernardo O'Higgins", "addr_unit": null, "amenity": "pharmacy", "building": null, "capacity": null, "denomination": null, "ele": null, "emergency": null, "fee": null, "healthcare": "pharmacy", "healthcare_speciality": null, "name": "Cruz Verde", "name_en": null, "name_es": null, "opening_hours": "Mo-Sa 09:00-20:00", "operator": null, "parking": null, "phone": null, "religion": null, "source_transform": null, "surface": null, "website": null, "wheelchair": null, "objectid": 6543306, "osm_id2": "4448333453", "centroide_x": 345016.82872967725, "centroide_y": 6297870.9453760488, "crs_original": "EPSG:4326", "fecha_normalizacion": "2025-10-10 01:59:25" }, "geometry": { "type": "Point", "coordinates": [ 345016.828729677246884, 6297870.945376048795879 ] } },
{ "type": "Feature", "properties": { "access": null, "addr_city": "Santiago", "addr_housenumber": "762", "addr_postcode": null, "addr_state": null, "addr_street": "Almirante Latorre", "addr_unit": null, "amenity": "pharmacy", "building": null, "capacity": null, "denomination": null, "ele": null, "emergency": null, "fee": null, "healthcare": "pharmacy", "healthcare_speciality": null, "name": "La Torre", "name_en": null, "name_es": null, "opening_hours": "Mo-Fr 09:00-22:00; Sa-Su 10:00-20:00", "operator": null, "parking": null, "phone": null, "religion": null, "source_transform": null, "surface": null, "website": null, "wheelchair": null, "objectid": 6545065, "osm_id2": "4347970491", "centroide_x": 345352.8534070006, "centroide_y": 6296852.4628016697, "crs_original": "EPSG:4326", "fecha_normalizacion": "2025-10-10 01:59:25" }, "geometry": { "type": "Point", "coordinates": [ 345352.853407000598963, 6296852.462801669724286 ] } },
{ "type": "Feature", "properties": { "access": null, "addr_city": "Santiago", "addr_housenumber": null, "addr_postcode": null, "addr_state": null, "addr_street": null, "addr_unit": null, "amenity": "pharmacy", "building": null, "capacity": null, "denomination": null, "ele": null, "emergency": null, "fee": null, "healthcare": "pharmacy", "healthcare_speciality": null, "name": "Farmamedical", "name_en": null, "name_es": null, "opening_hours": null, "operator": null, "parking": null, "phone": null, "religion": null, "source_transform": "Reconocimiento cartográfico 2016 por KG", "surface": null, "website": null, "wheelchair": null, "objectid": 6568167, "osm_id2": "4452435163", "centroide_x": 346977.83224933373, "centroide_y": 6295023.2089483207, "crs_original": "EPSG:4326", "fecha_normalizacion": "2025-10-10 01:59:25" }, "geometry": { "type": "Point", "coordinates": [ 346977.832249333732761, 6295023.208948320709169 ] } },
{ "type": "Feature", "properties": { "access": null, "addr_city": "Santiago", "addr_housenumber": "2325", "addr_postcode": null, "addr_state": null, "addr_street": "San Diego", "addr_unit": null, "amenity": "pharmacy", "building": null, "capacity": null, "denomination": null, "ele": null, "emergency": null, "fee": null, "healthcare": "pharmacy", "healthcare_speciality": null, "name": "Farmacia Todo", "name_en": null, "name_es": null, "opening_hours": null, "operator": null, "parking": null, "phone": null, "religion": null, "source_transform": "Reconocimiento cartográfico de campo 2016 por KG", "surface": null, "website": null, "wheelchair": null, "objectid": 6568338, "osm_id2": "4452452012", "centroide_x": 346831.68485488044, "centroide_y": 6294732.6564995069, "crs_original": "EPSG:4326", "fecha_normalizacion": "2025-10-10 01:59:25" }, "geometry": { "type": "Point", "coordinates": [ 346831.68485488044098, 6294732.656499506905675 ] } },
{ "type": "Feature", "properties": { "access": null, "addr_city": "Santiago", "addr_housenumber": null, "addr_postcode": null, "addr_state": null, "addr_street": "Bandera", "addr_unit": null, "amenity": "clinic", "building": null, "capacity": null, "denomination": null, "ele": null, "emergency": null, "fee": null, "healthcare": "clinic", "healthcare_speciality": null, "name": "VidaIntegra", "name_en": null, "name_es": null, "opening_hours": null, "operator": null, "parking": null, "phone": null, "religion": null, "source_transform": null, "surface": null, "website": null, "wheelchair": null, "objectid": 11598686, "osm_id2": "12143313439", "centroide_x": 346453.59703628579, "centroide_y": 6298527.0121970652, "crs_original": "EPSG:4326", "fecha_normalizacion": "2025-10-10 01:59:25" }, "geometry": { "type": "Point", "coordinates": [ 346453.597036285791546, 6298527.012197065167129 ] } },
{ "type": "Feature", "properties": { "access": null, "addr_city": "Santiago", "addr_housenumber": "1322", "addr_postcode": null, "addr_state": null, "addr_street": "Avenida Libertador Bernardo O'Higgins", "addr_unit": null, "amenity": "pharmacy", "building": null, "capacity": null, "denomination": null, "ele": null, "emergency": null, "fee": null, "healthcare": "pharmacy", "healthcare_speciality": null, "name": "Cruz Verde", "name_en": null, "name_es": null, "opening_hours": "Mo-Fr 08:30-20:45; Sa 09:30-15:00", "operator": null, "parking": null, "phone": null, "religion": null, "source_transform": null, "surface": null, "website": null, "wheelchair": null, "objectid": 9845395, "osm_id2": "10268906249", "centroide_x": 346223.3377830392, "centroide_y": 6298130.1695792004, "crs_original": "EPSG:4326", "fecha_normalizacion": "2025-10-10 01:59:25" }, "geometry": { "type": "Point", "coordinates": [ 346223.337783039198257, 6298130.169579200446606 ] } },
{ "type": "Feature", "properties": { "access": null, "addr_city": "Santiago", "addr_housenumber": "841", "addr_postcode": null, "addr_state": null, "addr_street": "Amunátegui", "addr_unit": null, "amenity": "pharmacy", "building": null, "capacity": null, "denomination": null, "ele": null, "emergency": null, "fee": null, "healthcare": "pharmacy", "healthcare_speciality": null, "name": "Farmacia Ultra Solidaria", "name_en": null, "name_es": null, "opening_hours": null, "operator": null, "parking": null, "phone": null, "religion": null, "source_transform": null, "surface": null, "website": null, "wheelchair": null, "objectid": 10279418, "osm_id2": "10905309924", "centroide_x": 345930.59334897896, "centroide_y": 6299383.807820864, "crs_original": "EPSG:4326", "fecha_normalizacion": "2025-10-10 01:59:25" }, "geometry": { "type": "Point", "coordinates": [ 345930.593348978960421, 6299383.807820864021778 ] } },
{ "type": "Feature", "properties": { "access": null, "addr_city": "Santiago", "addr_housenumber": null, "addr_postcode": null, "addr_state": null, "addr_street": "Teatinos", "addr_unit": null, "amenity": "pharmacy", "building": null, "capacity": null, "denomination": null, "ele": null, "emergency": null, "fee": null, "healthcare": "pharmacy", "healthcare_speciality": null, "name": "SalcoBrand", "name_en": null, "name_es": null, "opening_hours": null, "operator": null, "parking": null, "phone": null, "religion": null, "source_transform": null, "surface": null, "website": null, "wheelchair": null, "objectid": 10416704, "osm_id2": "11005206274", "centroide_x": 346124.97529317625, "centroide_y": 6298727.1641214751, "crs_original": "EPSG:4326", "fecha_normalizacion": "2025-10-10 01:59:25" }, "geometry": { "type": "Point", "coordinates": [ 346124.97529317624867, 6298727.164121475070715 ] } }
]
}
