{
"type": "FeatureCollection",
"name": "unidades_operativas_pdi_filtradas",
"crs": { "type": "name", "properties": { "name": "urn:ogc:def:crs:EPSG::32719" } },
"features": [
{ "type": "Feature", "properties": { "NUM": 120.0, "INSTITUCIO": "PDI", "TIPO_UNID": "BRIGADA", "SIGLA": "BRIANT", "CATEGORIA": "OPERATIVA", "NOM_UNID": "BRIGADA ANTINARCOTICOS", "NOM_VIAL": "GUADAL", "NUM_2": 920.0, "COMUNA": "ESTACION CENTRAL", "REGION": "METROPOLITANA", "NUM_REG": "RM", "POINT_X": -70.7033206, "POINT_Y": -33.4643763, "centroide_x": 341712.44192425231, "centroide_y": 6295932.708354393, "crs_original": "EPSG:4326", "fecha_normalizacion": "2025-10-10 01:59:25" }, "geometry": { "type": "Point", "coordinates": [ 341712.441924252314493, 6295932.708354393020272 ] } },
{ "type": "Feature", "properties": { "NUM": 168.0, "INSTITUCIO": "PDI", "TIPO_UNID": "GRUPO DE REACCION TACTICA", "SIGLA": "ERTA", "CATEGORIA": "OPERATIVA", "NOM_UNID": "ERTA METROPOLITANO Y BRIGADA DE INTERVENCION CRIMINAL TERRENO NARCOTICOS.", "NOM_VIAL": "PEDRO AGUIRRE CERDA", "NUM_2": 6100.0, "COMUNA": "PEDRO AGUIRRE CERDA", "REGION": "METROPOLITANA", "NUM_REG": "RM", "POINT_X": -70.665829, "POINT_Y": -33.4811229, "centroide_x": 345226.67013693147, "centroide_y": 6294132.2353921467, "crs_original": "EPSG:4326", "fecha_normalizacion": "2025-10-10 01:59:25" }, "geometry": { "type": "Point", "coordinates": [ 345226.670136931468733, 6294132.235392146743834 ] } },
{ "type": "Feature", "properties": { "NUM": 173.0, "INSTITUCIO": "PDI", "TIPO_UNID": "BRIGADA INVESTIGACION CRIMINAL", "SIGLA": "BICRIM", "CATEGORIA": "OPERATIVA", "NOM_UNID": "BICRIM CERRILLOS", "NOM_VIAL": "FRANCIA", "NUM_2": 4040.0, "COMUNA": "CERRILLOS", "REGION": "METROPOLITANA", "NUM_REG": "RM", "POINT_X": -70.720129, "POINT_Y": -33.4803179, "centroide_x": 340179.55210993951, "centroide_y": 6294139.2296775002, "crs_original": "EPSG:4326", "fecha_normalizacion": "2025-10-10 01:59:25" }, "geometry": { "type": "Point", "coordinates": [ 340179.552109939511865, 6294139.229677500203252 ] } },
{ "type": "Feature", "properties": { "NUM": 124.0, "INSTITUCIO": "PDI", "TIPO_UNID": "EDUCACION", "SIGLA": "ESCIPOL", "CATEGORIA": "EDUCACION", "NOM_UNID": "ESCUELA DE INVESTIGACIONES POLICIALES", "NOM_VIAL": "GLADYS MARIN", "NUM_2": 5783.0, "COMUNA": "ESTACION CENTRAL", "REGION": "METROPOLITANA", "NUM_REG": "RM", "POINT_X": -70.715178039500003, "POINT_Y": -33.459008836599999, "centroide_x": 340600.58758829976, "centroide_y": 6296509.761737315, "crs_original": "EPSG:4326", "fecha_normalizacion": "2025-10-10 01:59:25" }, "geometry": { "type": "Point", "coordinates": [ 340600.58758829976432, 6296509.761737314984202 ] } },
{ "type": "Feature", "properties": { "NUM": 140.0, "INSTITUCIO": "PDI", "TIPO_UNID": "BRIGADA", "SIGLA": "BAPOL", "CATEGORIA": "OPERATIVA", "NOM_UNID": "BRIGADA AEROPOLICIAL", "NOM_VIAL": "JOSE ARRIETA", "NUM_2": 7698.0, "COMUNA": "LA REINA", "REGION": "METROPOLITANA", "NUM_REG": "RM", "POINT_X": -70.5509395, "POINT_Y": -33.4625984, "centroide_x": 355871.52641486574, "centroide_y": 6296351.6819726853, "crs_original": "EPSG:4326", "fecha_normalizacion": "2025-10-10 01:59:25" }, "geometry": { "type": "Point", "coordinates": [ 355871.5264148657443, 6296351.681972685270011 ] } },
{ "type": "Feature", "properties": { "NUM": 148.0, "INSTITUCIO": "PDI", "TIPO_UNID": "BRIGADA INVESTIGACION CRIMINAL", "SIGLA": "BICRIM", "CATEGORIA": "OPERATIVA", "NOM_UNID": "BICRIM PROVIDENCIA", "NOM_VIAL": "JOSE MIGUEL INFANTE", "NUM_2": 820.0, "COMUNA": "PROVIDENCIA", "REGION": "METROPOLITANA", "NUM_REG": "RM", "POINT_X": -70.6215514, "POINT_Y": -33.4388197, "centroide_x": 349267.75602077052, "centroide_y": 6298888.1926752236, "crs_original": "EPSG:4326", "fecha_normalizacion": "2025-10-10 01:59:25" }, "geometry": { "type": "Point", "coordinates": [ 349267.756020770524628, 6298888.192675223574042 ] } },
{ "type": "Feature", "properties": { "NUM": 150.0, "INSTITUCIO": "PDI", "TIPO_UNID": "BRIGADA INVESTIGACION CRIMINAL", "SIGLA": "BICRIM", "CATEGORIA": "OPERATIVA", "NOM_UNID": "BICRIM LA REINA", "NOM_VIAL": "ECHENIQUE", "NUM_2": 8634.0, "COMUNA": "LA REINA", "REGION": "METROPOLITANA", "NUM_REG": "RM", "POINT_X": -70.5444669, "POINT_Y": -33.4420553, "centroide_x": 356439.2250384693, "centroide_y": 6298638.5471257558, "crs_original": "EPSG:4326", "fecha_normalizacion": "2025-10-10 01:59:25" }, "geometry": { "type": "Point", "coordinates": [ 356439.225038469303399, 6298638.547125755809247 ] } },
{ "type": "Feature", "properties": { "NUM": 171.0, "INSTITUCIO": "PDI", "TIPO_UNID": "JEFATURA NACIONAL", "SIGLA": "JENACRIM", "CATEGORIA": "OPERATIVA", "NOM_UNID": "JEFATURA NACIONAL DE CRIMINALÍSTICA, LACRIM CENTRAL", "NOM_VIAL": "CARLOS SILVA VILDASOLA", "NUM_2": 9738.0, "COMUNA": "LA REINA", "REGION": "METROPOLITANA", "NUM_REG": "RM", "POINT_X": -70.5294031, "POINT_Y": -33.4415137, "centroide_x": 357838.67900392995, "centroide_y": 6298719.3076810967, "crs_original": "EPSG:4326", "fecha_normalizacion": "2025-10-10 01:59:25" }, "geometry": { "type": "Point", "coordinates": [ 357838.67900392995216, 6298719.307681096717715 ] } },
{ "type": "Feature", "properties": { "NUM": 133.0, "INSTITUCIO": "PDI", "TIPO_UNID": "CUARTEL", "SIGLA": "0", "CATEGORIA": "OPERATIVA", "NOM_UNID": "CUARTEL ZAÑARTU", "NOM_VIAL": "ZANARTU", "NUM_2": 1728.0, "COMUNA": "NUNOA", "REGION": "METROPOLITANA", "NUM_REG": "RM", "POINT_X": -70.6145991, "POINT_Y": -33.4728045, "centroide_x": 349972.63895057933, "centroide_y": 6295129.827346609, "crs_original": "EPSG:4326", "fecha_normalizacion": "2025-10-10 01:59:25" }, "geometry": { "type": "Point", "coordinates": [ 349972.63895057933405, 6295129.82734660897404 ] } },
{ "type": "Feature", "properties": { "NUM": 142.0, "INSTITUCIO": "PDI", "TIPO_UNID": "CUARTEL", "SIGLA": "0", "CATEGORIA": "OPERATIVA", "NOM_UNID": "CUARTEL JOSE PEDRO ALESANDRI PALMA", "NOM_VIAL": "JOSE PEDRO ALESSANDRI PALMA", "NUM_2": 1800.0, "COMUNA": "NUNOA", "REGION": "METROPOLITANA", "NUM_REG": "RM", "POINT_X": -70.5986165, "POINT_Y": -33.4713367, "centroide_x": 351455.37804551632, "centroide_y": 6295315.561360023, "crs_original": "EPSG:4326", "fecha_normalizacion": "2025-10-10 01:59:25" }, "geometry": { "type": "Point", "coordinates": [ 351455.378045516321436, 6295315.561360022984445 ] } },
{ "type": "Feature", "properties": { "NUM": 151.0, "INSTITUCIO": "PDI", "TIPO_UNID": "BRIGADA INVESTIGACION CRIMINAL", "SIGLA": "BICRIM", "CATEGORIA": "OPERATIVA", "NOM_UNID": "BICRIM PEÑALOLEN", "NOM_VIAL": "EL LAGO", "NUM_2": 5720.0, "COMUNA": "PENALOLEN", "REGION": "METROPOLITANA", "NUM_REG": "RM", "POINT_X": -70.5766501, "POINT_Y": -33.4718373, "centroide_x": 353497.55957565003, "centroide_y": 6295291.2566984287, "crs_original": "EPSG:4326", "fecha_normalizacion": "2025-10-10 01:59:25" }, "geometry": { "type": "Point", "coordinates": [ 353497.55957565002609, 6295291.256698428653181 ] } },
{ "type": "Feature", "properties": { "NUM": 166.0, "INSTITUCIO": "PDI", "TIPO_UNID": "PREFECTURA", "SIGLA": "PREMEOR", "CATEGORIA": "OPERATIVA", "NOM_UNID": "PREFECTURA METROPOLITANA ORIENTE BICRIM ÑUÑOA", "NOM_VIAL": "CAMPOS DE DEPORTES", "NUM_2": 565.0, "COMUNA": "NUNOA", "REGION": "METROPOLITANA", "NUM_REG": "RM", "POINT_X": -70.6098917, "POINT_Y": -33.4591422, "centroide_x": 350386.61312638636, "centroide_y": 6296651.5720516201, "crs_original": "EPSG:4326", "fecha_normalizacion": "2025-10-10 01:59:25" }, "geometry": { "type": "Point", "coordinates": [ 350386.613126386364456, 6296651.572051620110869 ] } },
{ "type": "Feature", "properties": { "NUM": 174.0, "INSTITUCIO": "PDI", "TIPO_UNID": "BRIGADA", "SIGLA": "BH", "CATEGORIA": "OPERATIVA", "NOM_UNID": "BRIGADA DE HOMICIDIOS", "NOM_VIAL": "WILLIAMS REBOLLEDO", "NUM_2": 1717.0, "COMUNA": "NUNOA", "REGION": "METROPOLITANA", "NUM_REG": "RM", "POINT_X": -70.6199921, "POINT_Y": -33.4713107, "centroide_x": 349468.88901062938, "centroide_y": 6295287.6644181386, "crs_original": "EPSG:4326", "fecha_normalizacion": "2025-10-10 01:59:25" }, "geometry": { "type": "Point", "coordinates": [ 349468.889010629383847, 6295287.664418138563633 ] } },
{ "type": "Feature", "properties": { "NUM": 175.0, "INSTITUCIO": "PDI", "TIPO_UNID": "CUARTEL", "SIGLA": "0", "CATEGORIA": "OPERATIVA", "NOM_UNID": "CUARTEL WILLIAMS REBOLLEDO", "NOM_VIAL": "WILLIAMS REBOLLEDO", "NUM_2": 1799.0, "COMUNA": "NUNOA", "REGION": "METROPOLITANA", "NUM_REG": "RM", "POINT_X": -70.6199921, "POINT_Y": -33.4713107, "centroide_x": 349468.88901062938, "centroide_y": 6295287.6644181386, "crs_original": "EPSG:4326", "fecha_normalizacion": "2025-10-10 01:59:25" }, "geometry": { "type": "Point", "coordinates": [ 349468.889010629383847, 6295287.664418138563633 ] } },
{ "type": "Feature", "properties": { "NUM": 115.0, "INSTITUCIO": "PDI", "TIPO_UNID": "CUARTEL", "SIGLA": "0", "CATEGORIA": "OPERATIVA", "NOM_UNID": "CUARTEL GENERAL", "NOM_VIAL": "GENERAL MACKENNA", "NUM_2": 1314.0, "COMUNA": "SANTIAGO", "REGION": "METROPOLITANA", "NUM_REG": "RM", "POINT_X": -70.656407582200004, "POINT_Y": -33.4335033602, "centroide_x": 346017.93277062813, "centroide_y": 6299426.6085344097, "crs_original": "EPSG:4326", "fecha_normalizacion": "2025-10-10 01:59:25" }, "geometry": { "type": "Point", "coordinates": [ 346017.932770628132857, 6299426.608534409664571 ] } },
{ "type": "Feature", "properties": { "NUM": 116.0, "INSTITUCIO": "PDI", "TIPO_UNID": "CUARTEL", "SIGLA": "0", "CATEGORIA": "OPERATIVA", "NOM_UNID": "CUARTEL GENERAL", "NOM_VIAL": "GENERAL MACKENNA", "NUM_2": 1370.0, "COMUNA": "SANTIAGO", "REGION": "METROPOLITANA", "NUM_REG": "RM", "POINT_X": -70.657022568200006, "POINT_Y": -33.4335033602, "centroide_x": 345960.7564632991, "centroide_y": 6299425.6973829689, "crs_original": "EPSG:4326", "fecha_normalizacion": "2025-10-10 01:59:25" }, "geometry": { "type": "Point", "coordinates": [ 345960.756463299097959, 6299425.697382968850434 ] } },
{ "type": "Feature", "properties": { "NUM": 117.0, "INSTITUCIO": "PDI", "TIPO_UNID": "CUARTEL", "SIGLA": "0", "CATEGORIA": "OPERATIVA", "NOM_UNID": "CUARTEL INDEPENDENCIA", "NOM_VIAL": "GENERAL BORGONO", "NUM_2": 1204.0, "COMUNA": "INDEPENDENCIA", "REGION": "METROPOLITANA", "NUM_REG": "RM", "POINT_X": -70.6555602, "POINT_Y": -33.4307249, "centroide_x": 346091.80923285818, "centroide_y": 6299735.9561700495, "crs_original": "EPSG:4326", "fecha_normalizacion": "2025-10-10 01:59:25" }, "geometry": { "type": "Point", "coordinates": [ 346091.809232858184259, 6299735.956170049495995 ] } },
{ "type": "Feature", "properties": { "NUM": 137.0, "INSTITUCIO": "PDI", "TIPO_UNID": "JEFATURA NACIONAL", "SIGLA": "JENADEP", "CATEGORIA": "OPERATIVA", "NOM_UNID": "JEFATURA NACIONAL DE DELITOS CONTRA LOS DERECHOS HUMANOS Y LAS PERSONAS", "NOM_VIAL": "CONDELL", "NUM_2": 264.0, "COMUNA": "PROVIDENCIA", "REGION": "METROPOLITANA", "NUM_REG": "RM", "POINT_X": -70.6277908, "POINT_Y": -33.4374965, "centroide_x": 348685.4097475548, "centroide_y": 6299025.850597797, "crs_original": "EPSG:4326", "fecha_normalizacion": "2025-10-10 01:59:25" }, "geometry": { "type": "Point", "coordinates": [ 348685.409747554804198, 6299025.850597796961665 ] } },
{ "type": "Feature", "properties": { "NUM": 139.0, "INSTITUCIO": "PDI", "TIPO_UNID": "BRIGADA", "SIGLA": "BRICO", "CATEGORIA": "OPERATIVA", "NOM_UNID": "BRIGADA INVESTIGACION DEL CRIMEN ORGANIZADO", "NOM_VIAL": "COMPANIA DE JESUS", "NUM_2": 2441.0, "COMUNA": "SANTIAGO", "REGION": "METROPOLITANA", "NUM_REG": "RM", "POINT_X": -70.6708297, "POINT_Y": -33.4405135, "centroide_x": 344689.57594432984, "centroide_y": 6298627.8216099534, "crs_original": "EPSG:4326", "fecha_normalizacion": "2025-10-10 01:59:25" }, "geometry": { "type": "Point", "coordinates": [ 344689.575944329844788, 6298627.821609953418374 ] } },
{ "type": "Feature", "properties": { "NUM": 141.0, "INSTITUCIO": "PDI", "TIPO_UNID": "BRIGADA", "SIGLA": "BIRO", "CATEGORIA": "OPERATIVA", "NOM_UNID": "BRIGADA INVESTIGADORA DE ROBOS METROPOLITANA CENTRO NORTE", "NOM_VIAL": "ROSAS", "NUM_2": 1407.0, "COMUNA": "SANTIAGO", "REGION": "METROPOLITANA", "NUM_REG": "RM", "POINT_X": -70.657380675799999, "POINT_Y": -33.435539671000001, "centroide_x": 345931.06240919221, "centroide_y": 6299199.3678625859, "crs_original": "EPSG:4326", "fecha_normalizacion": "2025-10-10 01:59:25" }, "geometry": { "type": "Point", "coordinates": [ 345931.062409192207269, 6299199.367862585932016 ] } },
{ "type": "Feature", "properties": { "NUM": 169.0, "INSTITUCIO": "PDI", "TIPO_UNID": "CUARTEL", "SIGLA": "0", "CATEGORIA": "OPERATIVA", "NOM_UNID": "CUARTEL EXTRANJERIA", "NOM_VIAL": "ELEUTERIO RAMIREZ", "NUM_2": 852.0, "COMUNA": "SANTIAGO", "REGION": "METROPOLITANA", "NUM_REG": "RM", "POINT_X": -70.6474737, "POINT_Y": -33.4487575, "centroide_x": 346875.34034691565, "centroide_y": 6297748.3344336171, "crs_original": "EPSG:4326", "fecha_normalizacion": "2025-10-10 01:59:25" }, "geometry": { "type": "Point", "coordinates": [ 346875.340346915647388, 6297748.334433617070317 ] } },
{ "type": "Feature", "properties": { "NUM": 177.0, "INSTITUCIO": "PDI", "TIPO_UNID": "CENTRO", "SIGLA": "CENACRIM", "CATEGORIA": "OPERATIVA", "NOM_UNID": "CENTRO NACIONAL DE ANÁLISIS CRIMINAL", "NOM_VIAL": "TEATINOS", "NUM_2": 950.0, "COMUNA": "SANTIAGO", "REGION": "METROPOLITANA", "NUM_REG": "RM", "POINT_X": -70.6560779, "POINT_Y": -33.432653, "centroide_x": 346047.08184310666, "centroide_y": 6299521.3900305964, "crs_original": "EPSG:4326", "fecha_normalizacion": "2025-10-10 01:59:25" }, "geometry": { "type": "Point", "coordinates": [ 346047.081843106658198, 6299521.390030596405268 ] } }
]
}
