{
"type": "FeatureCollection",
"name": "circuito_turistico_filtrado",
"crs": { "type": "name", "properties": { "name": "urn:ogc:def:crs:OGC:1.3:CRS84" } },
"features": [
{ "type": "Feature", "properties": { "objectid": 9, "cut_region": "13", "region": "Metropolitana de Santiago", "circuito": "Circuito Barrio Yungay", "ruta": "Ruta Capital", "extension_": 3.626, "cod_epsg": "EPSG: 4326" }, "geometry": { "type": "MultiLineString", "coordinates": [ [ [ -70.684286607210993, -33.44406965110808 ], [ -70.679550316296655, -33.443835648392934 ] ], [ [ -70.679550316296655, -33.443835648392934 ], [ -70.679502171217479, -33.445029335438385 ], [ -70.678327263459352, -33.444985595098771 ], [ -70.678411567006137, -33.443821244597899 ], [ -70.678615161989129, -33.441462242412626 ], [ -70.676490159120959, -33.441220177235245 ] ], [ [ -70.679550316296655, -33.443835648392934 ], [ -70.680086477620605, -33.438429897668485 ] ], [ [ -70.675917828792308, -33.442353969471306 ], [ -70.675395189651113, -33.442370749626178 ], [ -70.67551395176902, -33.441146282477888 ], [ -70.674158970636228, -33.440985631328246 ], [ -70.674509569328833, -33.437014047406706 ], [ -70.673654857604049, -33.436965935907395 ], [ -70.673532064209681, -33.437981675106535 ], [ -70.668686564113713, -33.437599595450287 ] ], [ [ -70.676490159120959, -33.441220177235245 ], [ -70.676356656189668, -33.442417404683717 ], [ -70.675917828792308, -33.442353969471306 ] ], [ [ -70.676490159120959, -33.441220177235245 ], [ -70.676011038353764, -33.441169389531957 ], [ -70.675917828792308, -33.442353969471306 ] ] ] } },
{ "type": "Feature", "properties": { "objectid": 7, "cut_region": "13", "region": "Metropolitana de Santiago", "circuito": "Circuito Barrio Bellavista", "ruta": "Ruta Capital", "extension_": 3.6807, "cod_epsg": "EPSG: 4326" }, "geometry": { "type": "MultiLineString", "coordinates": [ [ [ -70.634407445323262, -33.434570968066708 ], [ -70.634171057866638, -33.434523131312901 ], [ -70.633255230236486, -33.434248866313737 ], [ -70.632812106509135, -33.434108688943958 ] ], [ [ -70.632812106509135, -33.434108688943958 ], [ -70.63327183886652, -33.432973645133352 ] ], [ [ -70.632812106509135, -33.434108688943958 ], [ -70.632270410250825, -33.433937325511749 ], [ -70.631147242408844, -33.433532153397145 ], [ -70.630525903458008, -33.433177638250307 ], [ -70.628113462488855, -33.430785061534102 ], [ -70.627903271346554, -33.43050148887535 ], [ -70.627706577042261, -33.429721430266653 ], [ -70.627969367482208, -33.429164405789841 ] ], [ [ -70.634717190016175, -33.433294251007226 ], [ -70.634407445323262, -33.434570968066708 ] ], [ [ -70.634717190016175, -33.433294251007226 ], [ -70.63327183886652, -33.432973645133352 ] ], [ [ -70.63327183886652, -33.432973645133352 ], [ -70.633755364442436, -33.431779826820872 ], [ -70.634469364361109, -33.43192244509865 ] ], [ [ -70.635992732421869, -33.432113013879388 ], [ -70.635876223075414, -33.433183521910763 ], [ -70.635691426047728, -33.434254930566212 ], [ -70.635565242302775, -33.434810168533609 ], [ -70.634879529980267, -33.434666502309831 ], [ -70.634407445323262, -33.434570968066708 ] ], [ [ -70.635992732421869, -33.432113013879388 ], [ -70.637130060658606, -33.432059825857387 ], [ -70.638427072902545, -33.432023605664632 ], [ -70.638178304937071, -33.43090065574723 ], [ -70.638055178117938, -33.430405975007602 ], [ -70.637056943542873, -33.430590956282558 ], [ -70.636176088514148, -33.430965269284641 ] ], [ [ -70.634920820568638, -33.432012619452578 ], [ -70.635992732421869, -33.432113013879388 ] ], [ [ -70.634920820568638, -33.432012619452578 ], [ -70.634717190016175, -33.433294251007226 ] ], [ [ -70.634469364361109, -33.43192244509865 ], [ -70.634920820568638, -33.432012619452578 ] ], [ [ -70.634469364361109, -33.43192244509865 ], [ -70.634343927067903, -33.431600271233734 ], [ -70.634158262752834, -33.431411830594804 ], [ -70.633929224460687, -33.43133849360796 ], [ -70.633609143480783, -33.431266356557238 ], [ -70.633379748412665, -33.431173934201773 ], [ -70.633126877788769, -33.431043643423166 ] ], [ [ -70.635061891402245, -33.431037232346924 ], [ -70.634920820568638, -33.432012619452578 ] ], [ [ -70.635061891402245, -33.431037232346924 ], [ -70.634924969857977, -33.431019948696083 ], [ -70.634653989749452, -33.431138053652653 ], [ -70.634337129058409, -33.431237674622139 ] ], [ [ -70.636176088514148, -33.430965269284641 ], [ -70.636160849460694, -33.431366334511829 ], [ -70.635992732421869, -33.432113013879388 ] ], [ [ -70.636176088514148, -33.430965269284641 ], [ -70.63592321457503, -33.430834984314693 ], [ -70.635604566254216, -33.430839187824802 ], [ -70.6353090367584, -33.430862173755337 ], [ -70.635061891402245, -33.431037232346924 ] ], [ [ -70.637810364174598, -33.42949294826213 ], [ -70.636215521093177, -33.430640240006333 ], [ -70.636176088514148, -33.430965269284641 ] ] ] } },
{ "type": "Feature", "properties": { "objectid": 8, "cut_region": "13", "region": "Metropolitana de Santiago", "circuito": "Circuito Barrio Lastarria", "ruta": "Ruta Capital", "extension_": 2.8198, "cod_epsg": "EPSG: 4326" }, "geometry": { "type": "MultiLineString", "coordinates": [ [ [ -70.640691123815131, -33.44029652543405 ], [ -70.640368410377505, -33.440064122642973 ], [ -70.63823503371988, -33.438612953376946 ], [ -70.63748449217168, -33.438050205298211 ], [ -70.636966511986984, -33.43774685313246 ], [ -70.636478331601566, -33.437514688059821 ] ], [ [ -70.643227974213644, -33.437609952927225 ], [ -70.643253706302232, -33.43761596436336 ] ], [ [ -70.643227974213644, -33.437609952927225 ], [ -70.643143492467033, -33.437808312140504 ], [ -70.642639882808552, -33.438268342058244 ], [ -70.642478606027396, -33.438771557437263 ], [ -70.642348927431655, -33.439441380586885 ], [ -70.642246352746753, -33.440039262016285 ], [ -70.642169082425113, -33.440469781647849 ], [ -70.642090463933229, -33.440828735635478 ], [ -70.641897579890127, -33.441165343218323 ], [ -70.640691123815131, -33.44029652543405 ] ], [ [ -70.636478331601566, -33.437514688059821 ], [ -70.635191237192842, -33.437173756075424 ], [ -70.63439008457604, -33.43694570978235 ], [ -70.634899996598321, -33.436819682409769 ], [ -70.635923845799368, -33.436782316330898 ], [ -70.636692144232455, -33.436804912391871 ] ], [ [ -70.641224119978062, -33.437141766883542 ], [ -70.643227974213644, -33.437609952927225 ] ], [ [ -70.641224119978062, -33.437141766883542 ], [ -70.641002336336726, -33.437454894251879 ], [ -70.641011319712305, -33.437931993787785 ], [ -70.641079006601856, -33.438503759431711 ], [ -70.641119140058407, -33.439123611702129 ], [ -70.641155230024282, -33.439528769730238 ], [ -70.64115927321825, -33.439743464798482 ], [ -70.640881474945459, -33.440105054508891 ], [ -70.640691123815131, -33.44029652543405 ] ], [ [ -70.636692144232455, -33.436804912391871 ], [ -70.637603896456042, -33.436831721662124 ], [ -70.638999870937042, -33.436908719371274 ], [ -70.63982499903436, -33.436897809265027 ], [ -70.640281588132709, -33.436963352341316 ], [ -70.641224119978062, -33.437141766883542 ] ], [ [ -70.636692144232455, -33.436804912391871 ], [ -70.636478331601566, -33.437514688059821 ] ], [ [ -70.643069168486676, -33.435375484409285 ], [ -70.643219524384378, -33.435802988228886 ], [ -70.643367632894922, -33.436111217020894 ], [ -70.643486839567061, -33.436395968150066 ], [ -70.643492687337201, -33.436706082338716 ], [ -70.643307013848656, -33.437424369829657 ], [ -70.643227974213644, -33.437609952927225 ] ] ] } },
{ "type": "Feature", "properties": { "objectid": 35, "cut_region": "13", "region": "Metropolitana de Santiago", "circuito": "Circuito Ruta Patrimonial", "ruta": "Ruta Capital", "extension_": 7.0373, "cod_epsg": "EPSG: 4326" }, "geometry": { "type": "MultiLineString", "coordinates": [ [ [ -70.64702359496664, -33.444601724016316 ], [ -70.647023142767594, -33.444613653965142 ] ], [ [ -70.64702359496664, -33.444601724016316 ], [ -70.648435957934311, -33.444671231176812 ], [ -70.648317804795624, -33.44444373755514 ], [ -70.648016458631645, -33.4441614141261 ], [ -70.647898668254641, -33.443953004180401 ], [ -70.648003825313566, -33.443493477969263 ], [ -70.648181242900478, -33.443242966740691 ], [ -70.647083895983442, -33.443009396708298 ], [ -70.647066543070409, -33.443295957913115 ], [ -70.647053518957037, -33.443811525388831 ], [ -70.64702359496664, -33.444601724016316 ] ], [ [ -70.645789917177922, -33.444420055768859 ], [ -70.646908961261488, -33.444596081894431 ], [ -70.64702359496664, -33.444601724016316 ] ], [ [ -70.654582469994551, -33.442203267848484 ], [ -70.653214858098849, -33.442126069305068 ] ], [ [ -70.654582469994551, -33.442203267848484 ], [ -70.65478944599981, -33.441112451944768 ], [ -70.653425289178202, -33.44101643781142 ] ], [ [ -70.644906498253619, -33.442326853429293 ], [ -70.646264840560491, -33.442666737081204 ], [ -70.646456838955899, -33.441530796519203 ] ], [ [ -70.653214858098849, -33.442126069305068 ], [ -70.653030262296141, -33.443197495466002 ], [ -70.654376937670762, -33.443370418846349 ], [ -70.654582469994551, -33.442203267848484 ] ], [ [ -70.650652955760634, -33.441965047357989 ], [ -70.650417158600831, -33.443631581082407 ], [ -70.650732193724437, -33.443734760818629 ], [ -70.651003418023549, -33.443778871053389 ], [ -70.651111123219465, -33.442703698232734 ], [ -70.650652955760634, -33.441965047357989 ] ], [ [ -70.650652955760634, -33.441965047357989 ], [ -70.650641392759994, -33.441946406361318 ] ], [ [ -70.646456838955899, -33.441530796519203 ], [ -70.645050069676017, -33.441413861065342 ], [ -70.644906498253619, -33.442326853429293 ] ], [ [ -70.646456838955899, -33.441530796519203 ], [ -70.647099309235927, -33.441641567196939 ], [ -70.647326298509753, -33.440475334378732 ], [ -70.648010766214625, -33.440549750760717 ], [ -70.64850517274175, -33.440596565118703 ] ], [ [ -70.653425289178202, -33.44101643781142 ], [ -70.653421851170634, -33.44103525425048 ], [ -70.653214858098849, -33.442126069305068 ] ], [ [ -70.653425289178202, -33.44101643781142 ], [ -70.653421489067341, -33.441016170146163 ] ], [ [ -70.650761972175729, -33.44079947969702 ], [ -70.650655619626676, -33.441946216945048 ], [ -70.650652955760634, -33.441965047357989 ] ], [ [ -70.64850517274175, -33.440596565118703 ], [ -70.649336573137361, -33.440675285356519 ], [ -70.649935005035502, -33.440715044802978 ], [ -70.650761972175729, -33.44079947969702 ] ], [ [ -70.64850517274175, -33.440596565118703 ], [ -70.648407752901846, -33.441224507798701 ], [ -70.647922907485793, -33.441171301046488 ] ], [ [ -70.653833650580125, -33.438739121090769 ], [ -70.653628115390248, -33.439906271515341 ], [ -70.653425289178202, -33.44101643781142 ] ], [ [ -70.652417452191145, -33.438648243451816 ], [ -70.653833650580125, -33.438739121090769 ] ], [ [ -70.652417452191145, -33.438648243451816 ], [ -70.652183083273087, -33.43979668806832 ], [ -70.650941291279565, -33.439598482633059 ], [ -70.650761972175729, -33.44079947969702 ] ], [ [ -70.643253706302232, -33.43761596436336 ], [ -70.645617196574079, -33.437987070342494 ], [ -70.646984289449861, -33.438040500420911 ], [ -70.648397446120214, -33.438272260509763 ], [ -70.652417452191145, -33.438648243451816 ] ], [ [ -70.643486839567061, -33.436395968150066 ], [ -70.644251510187431, -33.436499566678933 ], [ -70.645803647578219, -33.436708038611592 ], [ -70.647171892563179, -33.436823490155092 ], [ -70.648540861388852, -33.436977093922415 ], [ -70.649795663387607, -33.437113113591799 ], [ -70.651279175313007, -33.437303339751388 ], [ -70.6524656977966, -33.437440241553041 ], [ -70.654039905296997, -33.437610137599947 ], [ -70.653833650580125, -33.438739121090769 ] ], [ [ -70.643069168486676, -33.435375484409285 ], [ -70.643367632894922, -33.436111217020894 ], [ -70.643492687337201, -33.436706082338716 ], [ -70.643307013848656, -33.437424369829657 ], [ -70.643143492467033, -33.437808312140504 ], [ -70.642639882808552, -33.438268342058244 ], [ -70.642348927431655, -33.439441380586885 ], [ -70.642246352746753, -33.440039262016285 ], [ -70.642090463933229, -33.440828735635478 ], [ -70.641897579890127, -33.441165343218323 ], [ -70.642687792956309, -33.441640444675123 ], [ -70.643405895650872, -33.441988841402441 ], [ -70.643978356588903, -33.442160208491934 ], [ -70.644906498253619, -33.442326853429293 ] ] ] } }
]
}
