{
"type": "FeatureCollection",
"name": "comunas_buffer",
"crs": { "type": "name", "properties": { "name": "urn:ogc:def:crs:OGC:1.3:CRS84" } },
"features": [
{ "type": "Feature", "properties": { "comuna": "Estación Central" }, "geometry": { "type": "Polygon", "coordinates": [ [ [ -70.7391365981387, -33.460531826588138 ], [ -70.739660644025889, -33.460432803576978 ], [ -70.738326616697591, -33.446861858886159 ], [ -70.726939583961595, -33.449041510196324 ], [ -70.723128628765892, -33.449778731141748 ], [ -70.717446626002456, -33.450877661030361 ], [ -70.714578394211898, -33.45143035381318 ], [ -70.714590735928425, -33.451305345309549 ], [ -70.714639558372454, -33.450998787043275 ], [ -70.714770586535465, -33.450211297159861 ], [ -70.714828238537777, -33.449661726501738 ], [ -70.71483696115132, -33.449579857685805 ], [ -70.716077057230677, -33.442632471458147 ], [ -70.707554225254967, -33.442267382021114 ], [ -70.705409508861592, -33.442000082495859 ], [ -70.703871896710751, -33.441804133228615 ], [ -70.702631213516355, -33.441650846805459 ], [ -70.701471769268991, -33.441501069303243 ], [ -70.699968055574132, -33.441323169936474 ], [ -70.699408832924533, -33.441251005889264 ], [ -70.699179570775087, -33.438326586991224 ], [ -70.690103598547935, -33.437847026067445 ], [ -70.685414433028001, -33.437624579579278 ], [ -70.682290470864743, -33.437476645919823 ], [ -70.672112754017277, -33.43716145693535 ], [ -70.671837966379201, -33.442395899067748 ], [ -70.671826638727779, -33.442393411294255 ], [ -70.669985944814769, -33.450534100857624 ], [ -70.670155097404248, -33.452795270056747 ], [ -70.670225165282076, -33.453874837817267 ], [ -70.670307436742192, -33.454983838107154 ], [ -70.670372213882885, -33.455928841457094 ], [ -70.670457503355422, -33.457138786691651 ], [ -70.67056504365074, -33.458620678318702 ], [ -70.670956561589804, -33.464097270617494 ], [ -70.665259943424587, -33.464098488845067 ], [ -70.665115171703604, -33.471864521370627 ], [ -70.66401480298461, -33.472503949675549 ], [ -70.664545525492528, -33.483487591509473 ], [ -70.673329434597065, -33.483012750896577 ], [ -70.673515458874093, -33.483030710776482 ], [ -70.673691116869506, -33.485005817422106 ], [ -70.678745692281808, -33.485002768862991 ], [ -70.690711875104029, -33.49197786314965 ], [ -70.689887650469117, -33.484753511654439 ], [ -70.691233341394252, -33.484765937861006 ], [ -70.691600097762858, -33.484723647072215 ], [ -70.692858650630313, -33.485011066929417 ], [ -70.693406686623518, -33.485148884435034 ], [ -70.693953507479719, -33.48530857673785 ], [ -70.6946469494235, -33.485522929079458 ], [ -70.695208757062488, -33.485696217621388 ], [ -70.695919582890639, -33.485919335246955 ], [ -70.696815375963794, -33.486190062460579 ], [ -70.69780454139331, -33.486392891670754 ], [ -70.69878324326659, -33.486585727028988 ], [ -70.699740993861113, -33.48669971988992 ], [ -70.70004170712815, -33.486732541769022 ], [ -70.700184353986742, -33.486754348286325 ], [ -70.700325803725832, -33.486776227903832 ], [ -70.700620286143774, -33.486833646875986 ], [ -70.70106604820603, -33.486928661790188 ], [ -70.703328681592993, -33.487497877830748 ], [ -70.704499384731122, -33.487764408619874 ], [ -70.704505347145485, -33.487770225346942 ], [ -70.706972062811715, -33.488327314316685 ], [ -70.707676323125554, -33.488487628854294 ], [ -70.707681636697586, -33.488487555652462 ], [ -70.716093632682444, -33.490386857686921 ], [ -70.718693400031995, -33.485871639297784 ], [ -70.720544992027811, -33.484224485665131 ], [ -70.722547419186768, -33.482442943285939 ], [ -70.723965973437259, -33.481260482944165 ], [ -70.724185265236727, -33.480947678327595 ], [ -70.724536764781362, -33.480615931949778 ], [ -70.725291924337341, -33.479917797963566 ], [ -70.725752725295749, -33.479489767934361 ], [ -70.726096547532251, -33.47921341911767 ], [ -70.728575179767944, -33.478452010187922 ], [ -70.728743298075457, -33.478100466684715 ], [ -70.729255241526715, -33.477944560004751 ], [ -70.730034289124362, -33.47772545684419 ], [ -70.73061021254918, -33.47755256006436 ], [ -70.731241673194745, -33.4773715363172 ], [ -70.733313038177556, -33.476733800005789 ], [ -70.733460639383821, -33.476688354518515 ], [ -70.734013181302288, -33.476534905997333 ], [ -70.735057149716312, -33.476212817928342 ], [ -70.736081550222167, -33.475895831846039 ], [ -70.749864237301225, -33.471426963993963 ], [ -70.739170156579959, -33.464817786088688 ], [ -70.739164554463983, -33.463695994333257 ], [ -70.739144259787707, -33.461648142734397 ], [ -70.739138378450463, -33.461062400952869 ], [ -70.7391365981387, -33.460531826588138 ] ] ] } },
{ "type": "Feature", "properties": { "comuna": "La Reina" }, "geometry": { "type": "Polygon", "coordinates": [ [ [ -70.622214209105749, -33.43998874440345 ], [ -70.622852406456957, -33.437538566282527 ], [ -70.585879055668556, -33.425226752712874 ], [ -70.580695685840809, -33.424920702643767 ], [ -70.579007203999907, -33.424822264781263 ], [ -70.57499752502433, -33.424704478429689 ], [ -70.574622505545861, -33.424700271874563 ], [ -70.570405314053218, -33.424529687488366 ], [ -70.565370482112201, -33.424406224850998 ], [ -70.564138643770889, -33.424358298475731 ], [ -70.560155291686087, -33.424185418550231 ], [ -70.557830307677662, -33.424055214463614 ], [ -70.554974913326248, -33.423910535342905 ], [ -70.554624476314061, -33.423901531908733 ], [ -70.552442194414894, -33.423698916908705 ], [ -70.545665180547431, -33.42302298111909 ], [ -70.545491994756247, -33.423107459038327 ], [ -70.54529640101741, -33.423084731561026 ], [ -70.544533013418459, -33.422994587615101 ], [ -70.543447573420835, -33.422867348200839 ], [ -70.54222199524412, -33.422723671236817 ], [ -70.541092877098052, -33.422596057285709 ], [ -70.531200589824977, -33.420928307759375 ], [ -70.53125360726834, -33.426013533568437 ], [ -70.531040574811712, -33.425987514219102 ], [ -70.530401582009219, -33.425908164825522 ], [ -70.529709407597053, -33.425821602821813 ], [ -70.528543816124596, -33.425678476798467 ], [ -70.527238742823371, -33.42552034348995 ], [ -70.52612638832106, -33.425382488893518 ], [ -70.524069720961151, -33.425127449402197 ], [ -70.521427000777763, -33.424915356150564 ], [ -70.520187689264873, -33.425471330207273 ], [ -70.519365375359001, -33.42542277703869 ], [ -70.518619353626846, -33.425943801691972 ], [ -70.517713961934518, -33.42566684096272 ], [ -70.51391412319289, -33.428470735791834 ], [ -70.513145205791432, -33.428921675038538 ], [ -70.50997419996007, -33.42907908767949 ], [ -70.507555314061889, -33.429311645532295 ], [ -70.504380348066661, -33.430373972480297 ], [ -70.50246827487959, -33.431526108907704 ], [ -70.499682198550687, -33.433053310888177 ], [ -70.497940714508118, -33.434452622475497 ], [ -70.496828595000309, -33.43541230846472 ], [ -70.495541870481148, -33.437001567782254 ], [ -70.493781034525341, -33.439403593275181 ], [ -70.492600513997502, -33.440276929798365 ], [ -70.491298268360381, -33.44149388629755 ], [ -70.491172733153363, -33.441675193681199 ], [ -70.49046159714851, -33.442105314936967 ], [ -70.488343687262613, -33.444853821561018 ], [ -70.488151095912372, -33.44720087334926 ], [ -70.488167025934899, -33.448133453207284 ], [ -70.487458118855699, -33.448874173324818 ], [ -70.486807117903581, -33.449323760345386 ], [ -70.486462874758246, -33.449575085060886 ], [ -70.485202766821374, -33.450199021562625 ], [ -70.482182009757238, -33.452803994966352 ], [ -70.482043039382361, -33.454011134030111 ], [ -70.481491308044383, -33.45497026923352 ], [ -70.481372555015625, -33.455564755730194 ], [ -70.480558472710484, -33.456483824795143 ], [ -70.480414147388743, -33.45704398665157 ], [ -70.480154500501342, -33.457312890149318 ], [ -70.479251699131751, -33.459696101534895 ], [ -70.479170618693004, -33.461104529968686 ], [ -70.478831587016842, -33.468515320053683 ], [ -70.494074137310591, -33.468098478980323 ], [ -70.504245832674485, -33.467615442403734 ], [ -70.508161372879769, -33.467328035988608 ], [ -70.508511117573164, -33.467274371463489 ], [ -70.512316698649201, -33.466843860384621 ], [ -70.516405762645491, -33.466571855465716 ], [ -70.518824258626239, -33.466541990736403 ], [ -70.519944001148559, -33.466405850730538 ], [ -70.520218885563921, -33.466348916125426 ], [ -70.521983825511285, -33.466134456878173 ], [ -70.52227401624458, -33.466133214301543 ], [ -70.522682835019708, -33.46610369585423 ], [ -70.523087660798765, -33.466074465022061 ], [ -70.523229852265558, -33.466064198370759 ], [ -70.523377036150535, -33.466493783605308 ], [ -70.523531260430943, -33.466938587671279 ], [ -70.523826696199976, -33.467632008560045 ], [ -70.524135509550945, -33.468142503235633 ], [ -70.52633698394196, -33.471781522977352 ], [ -70.532597935789482, -33.472041158665832 ], [ -70.534539784463789, -33.471455653164675 ], [ -70.53481303911785, -33.471379926208975 ], [ -70.535550010732294, -33.471176641033871 ], [ -70.53687257940247, -33.470804037621157 ], [ -70.538126567850867, -33.470442266659084 ], [ -70.538297583562937, -33.47039635005963 ], [ -70.538471147888288, -33.470348028608235 ], [ -70.539230279110797, -33.470136673832243 ], [ -70.539641459161444, -33.470013933851071 ], [ -70.540130645951166, -33.469879097757769 ], [ -70.540609830412464, -33.469737429512641 ], [ -70.5409945215373, -33.469629794077349 ], [ -70.542986727144083, -33.47036643907223 ], [ -70.545887863267168, -33.47006895266086 ], [ -70.546649632448762, -33.469970748873408 ], [ -70.547253958936594, -33.469896411291423 ], [ -70.549013249459023, -33.469656475924509 ], [ -70.550231321702668, -33.46945018722365 ], [ -70.551494919915967, -33.469234036898243 ], [ -70.551861006723627, -33.469167914898399 ], [ -70.553064802227226, -33.469152418977679 ], [ -70.553623006054437, -33.469145424709808 ], [ -70.55492038181319, -33.469137729162867 ], [ -70.556442039691262, -33.46914024338848 ], [ -70.556753709806841, -33.469134416731222 ], [ -70.55793543803712, -33.469112313212804 ], [ -70.559594670485893, -33.469106091507285 ], [ -70.560523896687528, -33.469076939561354 ], [ -70.560685873817988, -33.469070156372723 ], [ -70.560949918799963, -33.469069579762596 ], [ -70.561264797091781, -33.469067330120147 ], [ -70.561553554014807, -33.469066525736139 ], [ -70.562614357541392, -33.469053153530886 ], [ -70.563455816558374, -33.468959446554067 ], [ -70.564256855959925, -33.468833576588537 ], [ -70.565157777479484, -33.468593064496787 ], [ -70.565809515202048, -33.468381010249288 ], [ -70.565989512887256, -33.468321342559953 ], [ -70.566306616081221, -33.468212500404888 ], [ -70.567127352539757, -33.468269817063202 ], [ -70.568959986847247, -33.467312231541527 ], [ -70.570216334763643, -33.466890930097478 ], [ -70.570905819864151, -33.466632251526896 ], [ -70.571339801046051, -33.466472267085287 ], [ -70.572286277277215, -33.466123346302268 ], [ -70.572612112977211, -33.465984499576287 ], [ -70.573113059530897, -33.465789237044348 ], [ -70.573330590844009, -33.46570123178207 ], [ -70.573647604765625, -33.465580296736036 ], [ -70.574154831413168, -33.465407982178988 ], [ -70.574318189736999, -33.465350694749219 ], [ -70.575109086459037, -33.465106790710436 ], [ -70.575197700546838, -33.465072819836266 ], [ -70.58191032791791, -33.463061555631711 ], [ -70.579553445195529, -33.456156159791931 ], [ -70.579034415070666, -33.454010736612133 ], [ -70.578717074010115, -33.453002419476846 ], [ -70.579990425233419, -33.445072312277375 ], [ -70.580241491653595, -33.444154193365002 ], [ -70.580385296011102, -33.443366700515632 ], [ -70.580585084617667, -33.4423785625793 ], [ -70.580613417209491, -33.442174457610221 ], [ -70.582228165001624, -33.4416219755418 ], [ -70.584319276273462, -33.440581057541557 ], [ -70.586438577840028, -33.43931465368113 ], [ -70.586977930327109, -33.438968885699794 ], [ -70.587746888524464, -33.438475920524482 ], [ -70.622214209105749, -33.43998874440345 ] ] ] } },
{ "type": "Feature", "properties": { "comuna": "Ñuñoa" }, "geometry": { "type": "Polygon", "coordinates": [ [ [ -70.633817170440636, -33.469541325253424 ], [ -70.633999230007092, -33.468904190223675 ], [ -70.634713349155248, -33.466370350130902 ], [ -70.635352592948308, -33.464155553068551 ], [ -70.636133186370671, -33.461465899285123 ], [ -70.637188037695026, -33.457806017369428 ], [ -70.637420009483847, -33.456972807203769 ], [ -70.638457719003412, -33.453541048891367 ], [ -70.639031883390132, -33.451644506875112 ], [ -70.640955085303787, -33.444693673024624 ], [ -70.632974270019133, -33.443412175062157 ], [ -70.632010408404753, -33.443224042433357 ], [ -70.630733139885223, -33.442978279670676 ], [ -70.629764865922041, -33.442782356908324 ], [ -70.628630143343273, -33.442565569066012 ], [ -70.62842807982409, -33.442516182493748 ], [ -70.627157353193951, -33.442204172025228 ], [ -70.626740146320543, -33.442140620184517 ], [ -70.625502101227951, -33.441891528139138 ], [ -70.625039334197979, -33.441802492608893 ], [ -70.624088574526311, -33.44160674090746 ], [ -70.622685517859551, -33.441324529562294 ], [ -70.621642047797764, -33.441123256498756 ], [ -70.613289851152658, -33.439429013428168 ], [ -70.613086307752127, -33.440036670735822 ], [ -70.612078797796812, -33.439767817404771 ], [ -70.61205570384621, -33.43976098742317 ], [ -70.612040287695322, -33.439757540813282 ], [ -70.610661668166827, -33.439389640486546 ], [ -70.60934107193394, -33.439185741897475 ], [ -70.608181659160664, -33.439058601379067 ], [ -70.607401772979728, -33.438971967142002 ], [ -70.607321963769735, -33.438963058345301 ], [ -70.606511489179042, -33.438848927352964 ], [ -70.605471615162472, -33.438703272228764 ], [ -70.604798544867677, -33.43863655642528 ], [ -70.603854978549052, -33.438540131525798 ], [ -70.603165232878169, -33.438467218638664 ], [ -70.602510323642406, -33.438401062843042 ], [ -70.601902333773424, -33.438350282238112 ], [ -70.601446623122627, -33.438308884747322 ], [ -70.601248576676056, -33.438290945283562 ], [ -70.600803675979066, -33.438250511084554 ], [ -70.594957152473995, -33.437719559742845 ], [ -70.594866331599576, -33.437583893488686 ], [ -70.594759945671669, -33.437424976132135 ], [ -70.594715845699, -33.437359101272918 ], [ -70.594659469427356, -33.43727488792625 ], [ -70.594557260840105, -33.437106364412728 ], [ -70.594429788280394, -33.43691509590316 ], [ -70.594338575256614, -33.436778239395615 ], [ -70.594252386029666, -33.436648915988826 ], [ -70.594149988226434, -33.436495806039481 ], [ -70.594095301547526, -33.436414033486855 ], [ -70.593864752866068, -33.436060608044265 ], [ -70.593573848951479, -33.435689977216747 ], [ -70.593404554273306, -33.435474279797965 ], [ -70.593101981114458, -33.435128813982686 ], [ -70.592935585787032, -33.434938830458613 ], [ -70.592282531015357, -33.434201831626254 ], [ -70.591663640380744, -33.433514263997786 ], [ -70.591350054802675, -33.433142410042933 ], [ -70.590816250329397, -33.432564296639207 ], [ -70.590103535873652, -33.431771648901737 ], [ -70.589365209298805, -33.43093065842362 ], [ -70.589235842408812, -33.430785149971122 ], [ -70.589025265402725, -33.430548290723259 ], [ -70.584788130961954, -33.423913329456681 ], [ -70.57717454740208, -33.428794360508412 ], [ -70.575798420092497, -33.429616621628838 ], [ -70.575263168567517, -33.429883047512526 ], [ -70.573946722932661, -33.43033343745536 ], [ -70.572113189775138, -33.430965323640919 ], [ -70.57075405668418, -33.431741804507006 ], [ -70.570163787827497, -33.431866508712638 ], [ -70.566897055851086, -33.434074449128389 ], [ -70.56574272300611, -33.437088901371382 ], [ -70.56553105111611, -33.438213184838816 ], [ -70.565408202339484, -33.438933895328823 ], [ -70.565330126525893, -33.439288729585748 ], [ -70.565225273755075, -33.439919571495693 ], [ -70.565140697831737, -33.440528071391022 ], [ -70.56498777872396, -33.441283729744057 ], [ -70.564911729334582, -33.441699784094375 ], [ -70.56462886387304, -33.442733511513715 ], [ -70.563127233490249, -33.452074890156219 ], [ -70.563106136429852, -33.452456948932166 ], [ -70.562801914088325, -33.4536900998962 ], [ -70.563149968497868, -33.454796681261293 ], [ -70.562824525129386, -33.45489415513088 ], [ -70.565168596730743, -33.462064400795256 ], [ -70.566477903643644, -33.464953237106492 ], [ -70.566680299551336, -33.465493719996665 ], [ -70.567544957931503, -33.467490048000016 ], [ -70.568862245487495, -33.470784385087327 ], [ -70.571578818073547, -33.478391065631904 ], [ -70.576315914080837, -33.477190477950238 ], [ -70.577752547538495, -33.477942493152952 ], [ -70.578046157251336, -33.478094504831169 ], [ -70.579212774737712, -33.478698498822787 ], [ -70.579939232239141, -33.479043502417753 ], [ -70.580935065882898, -33.479453041963502 ], [ -70.581712403552487, -33.479675114560862 ], [ -70.582217146893868, -33.479901082886698 ], [ -70.582787220908031, -33.479960887009007 ], [ -70.582851127059243, -33.480020257654765 ], [ -70.585934060952042, -33.480847242581874 ], [ -70.587894377800339, -33.480994641381884 ], [ -70.589272097545987, -33.480862569063717 ], [ -70.589357469701454, -33.480870404236505 ], [ -70.590874802653261, -33.480634089105799 ], [ -70.59121922701965, -33.480591592911267 ], [ -70.591701082481393, -33.480532181359592 ], [ -70.592653087201001, -33.480416346145788 ], [ -70.592886268796917, -33.480389789213525 ], [ -70.593222203978016, -33.480371161374421 ], [ -70.59373767004756, -33.480345929910627 ], [ -70.594896917829999, -33.480278168780281 ], [ -70.595458188303795, -33.480253962431298 ], [ -70.596499639252627, -33.480187668001548 ], [ -70.59720790416695, -33.480172741616656 ], [ -70.598296398523487, -33.480222995374952 ], [ -70.598965799414714, -33.480257714428923 ], [ -70.600080638556264, -33.480315002098777 ], [ -70.600736727355454, -33.480350438591728 ], [ -70.60221944928513, -33.48043213365424 ], [ -70.603254507083903, -33.480482625837062 ], [ -70.603910229108251, -33.480534716932311 ], [ -70.604263940094043, -33.480532829751752 ], [ -70.605823100906136, -33.480619194676791 ], [ -70.607014150424277, -33.480679839251273 ], [ -70.607663230780943, -33.480707046089641 ], [ -70.609404971392735, -33.480799127238669 ], [ -70.610536822654367, -33.480856014020873 ], [ -70.61175036773443, -33.48092226380129 ], [ -70.613028322396886, -33.480983055969247 ], [ -70.6133784871936, -33.480995532956626 ], [ -70.614552038911654, -33.48105649823475 ], [ -70.615058098921949, -33.481082826813299 ], [ -70.615803638180623, -33.481121546991304 ], [ -70.616361176913102, -33.481154070292646 ], [ -70.61710611326933, -33.48119146963586 ], [ -70.618173168998652, -33.481243247313074 ], [ -70.619015990185645, -33.481291583028636 ], [ -70.61945236515345, -33.481305706197084 ], [ -70.629161705568137, -33.481782459822256 ], [ -70.63100825026072, -33.474882433955663 ], [ -70.631305306038854, -33.473878892089289 ], [ -70.631573016430252, -33.473705819551419 ], [ -70.633717758203716, -33.470951037485584 ], [ -70.633817170440636, -33.469541325253424 ] ] ] } },
{ "type": "Feature", "properties": { "comuna": "Santiago" }, "geometry": { "type": "Polygon", "coordinates": [ [ [ -70.695412915899652, -33.433294885352836 ], [ -70.69502975777111, -33.432893948011063 ], [ -70.692619844610434, -33.432732399203907 ], [ -70.69259268483394, -33.431338618069631 ], [ -70.690142174540483, -33.431282547954659 ], [ -70.688451588765474, -33.430923251693031 ], [ -70.688464642883872, -33.430721599050706 ], [ -70.688544040371426, -33.429583686693888 ], [ -70.688202574993468, -33.427384454507106 ], [ -70.687445584089886, -33.425759881879323 ], [ -70.686659801521643, -33.424561514417583 ], [ -70.685716900116674, -33.423566985957123 ], [ -70.684894359963792, -33.422869078327359 ], [ -70.683794602620765, -33.42193295699569 ], [ -70.682681933552644, -33.421509366046067 ], [ -70.680425962960541, -33.420349411202011 ], [ -70.678945479719246, -33.420328606802151 ], [ -70.678058096878203, -33.412387340358727 ], [ -70.67040065235939, -33.419739346946137 ], [ -70.665027379459744, -33.42171484757673 ], [ -70.658807410770663, -33.423728904294464 ], [ -70.654335458232339, -33.424788027722492 ], [ -70.651080068566998, -33.425525087671645 ], [ -70.649768871835377, -33.42579267340605 ], [ -70.649484371394351, -33.425860127022567 ], [ -70.643338408243807, -33.427317257546065 ], [ -70.638537053946564, -33.428496863843741 ], [ -70.62773645096766, -33.430810958493595 ], [ -70.627564855814512, -33.43589369764647 ], [ -70.627154526954484, -33.437460585342293 ], [ -70.626991500933315, -33.438062309169034 ], [ -70.625285327696005, -33.443829749690167 ], [ -70.623945792938315, -33.448300796876701 ], [ -70.623874574426083, -33.448558013159399 ], [ -70.623339358028417, -33.450324879976755 ], [ -70.62226382697564, -33.453879650854084 ], [ -70.622011834807878, -33.454784201652906 ], [ -70.620973493162637, -33.458384606566888 ], [ -70.620192988791032, -33.461072326769731 ], [ -70.619541131084233, -33.46332945303871 ], [ -70.618987401099716, -33.465292988171143 ], [ -70.613987905839778, -33.468399844888907 ], [ -70.618823005703533, -33.47451165939642 ], [ -70.620254711772532, -33.475685564753284 ], [ -70.621333249028709, -33.47645838346741 ], [ -70.621622069404651, -33.477168439559307 ], [ -70.626912262341264, -33.479143388885468 ], [ -70.628688814685901, -33.479765580299642 ], [ -70.63244257198636, -33.481080502948465 ], [ -70.632464504616891, -33.481070012242093 ], [ -70.63443470185706, -33.481906091882571 ], [ -70.638825991045934, -33.483113512692171 ], [ -70.640899746947511, -33.483365611438764 ], [ -70.641205792194555, -33.483390086366413 ], [ -70.641372482640477, -33.483403418855694 ], [ -70.642523730927238, -33.483495167607678 ], [ -70.648354434820007, -33.483488506362171 ], [ -70.648594335826289, -33.483485314322479 ], [ -70.648801980731733, -33.483482551863148 ], [ -70.649410915460834, -33.483474445347682 ], [ -70.651015077487273, -33.483485882167216 ], [ -70.652662807794997, -33.483463915715269 ], [ -70.654638094349522, -33.483392762067453 ], [ -70.656244032934296, -33.483187309896799 ], [ -70.656798218001455, -33.483116493310035 ], [ -70.65764272573584, -33.483003791363679 ], [ -70.658200189530362, -33.482929444144659 ], [ -70.659002048419168, -33.482868841166322 ], [ -70.661153196493544, -33.482701153160292 ], [ -70.661597398368727, -33.482655959808639 ], [ -70.661732609473304, -33.482654146594655 ], [ -70.663415623377219, -33.482660957910177 ], [ -70.663804542975456, -33.482672031489422 ], [ -70.663759209399103, -33.485011427911111 ], [ -70.689336816005294, -33.484995604042169 ], [ -70.688632772660483, -33.477094697085711 ], [ -70.692622751646709, -33.47702034875509 ], [ -70.686784772746705, -33.467350406106014 ], [ -70.686531841795954, -33.4633677273888 ], [ -70.686200598675768, -33.458745871286183 ], [ -70.686827219308725, -33.450787184837523 ], [ -70.689172399423612, -33.450898403792998 ], [ -70.700211056184912, -33.451481524219737 ], [ -70.699436941609136, -33.441609690847052 ], [ -70.699355323804284, -33.439458311536981 ], [ -70.699020573994645, -33.433642144455831 ], [ -70.695412915899652, -33.433294885352836 ] ] ] } }
]
}
