{
  "type": "FeatureCollection",
  "crs": {
    "type": "name",
    "properties": {
      "name": "urn:ogc:def:crs:OGC:1.3:CRS84"
    }
  },
  "features": [
    {
      "type": "Feature",
      "properties": {
        "comuna": "Estación Central"
      },
      "geometry": {
        "type": "Polygon",
        "coordinates": [
          [
            [
              -70.7391365981387,
              -33.46053182658814
            ],
            [
              -70.73966064402589,
              -33.46043280357698
            ],
            [
              -70.73832661669759,
              -33.44686185888616
            ],
            [
              -70.7269395839616,
              -33.449041510196324
            ],
            [
              -70.72312862876589,
              -33.44977873114175
            ],
            [
              -70.71744662600246,
              -33.45087766103036
            ],
            [
              -70.7145783942119,
              -33.45143035381318
            ],
            [
              -70.71459073592843,
              -33.45130534530955
            ],
            [
              -70.71463955837245,
              -33.450998787043275
            ],
            [
              -70.71477058653547,
              -33.45021129715986
            ],
            [
              -70.71482823853778,
              -33.44966172650174
            ],
            [
              -70.71483696115132,
              -33.449579857685805
            ],
            [
              -70.71607705723068,
              -33.44263247145815
            ],
            [
              -70.70755422525497,
              -33.442267382021114
            ],
            [
              -70.70540950886159,
              -33.44200008249586
            ],
            [
              -70.70387189671075,
              -33.441804133228615
            ],
            [
              -70.70263121351636,
              -33.44165084680546
            ],
            [
              -70.70147176926899,
              -33.44150106930324
            ],
            [
              -70.69996805557413,
              -33.441323169936474
            ],
            [
              -70.69940883292453,
              -33.441251005889264
            ],
            [
              -70.69917957077509,
              -33.438326586991224
            ],
            [
              -70.69010359854794,
              -33.437847026067445
            ],
            [
              -70.685414433028,
              -33.43762457957928
            ],
            [
              -70.68229047086474,
              -33.43747664591982
            ],
            [
              -70.67211275401728,
              -33.43716145693535
            ],
            [
              -70.6718379663792,
              -33.44239589906775
            ],
            [
              -70.67182663872778,
              -33.442393411294255
            ],
            [
              -70.66998594481477,
              -33.450534100857624
            ],
            [
              -70.67015509740425,
              -33.45279527005675
            ],
            [
              -70.67022516528208,
              -33.45387483781727
            ],
            [
              -70.67030743674219,
              -33.454983838107154
            ],
            [
              -70.67037221388289,
              -33.455928841457094
            ],
            [
              -70.67045750335542,
              -33.45713878669165
            ],
            [
              -70.67056504365074,
              -33.4586206783187
            ],
            [
              -70.6709565615898,
              -33.46409727061749
            ],
            [
              -70.66525994342459,
              -33.46409848884507
            ],
            [
              -70.6651151717036,
              -33.47186452137063
            ],
            [
              -70.66401480298461,
              -33.47250394967555
            ],
            [
              -70.66454552549253,
              -33.48348759150947
            ],
            [
              -70.67332943459706,
              -33.48301275089658
            ],
            [
              -70.67351545887409,
              -33.48303071077648
            ],
            [
              -70.6736911168695,
              -33.485005817422106
            ],
            [
              -70.67874569228181,
              -33.48500276886299
            ],
            [
              -70.69071187510403,
              -33.49197786314965
            ],
            [
              -70.68988765046912,
              -33.48475351165444
            ],
            [
              -70.69123334139425,
              -33.484765937861006
            ],
            [
              -70.69160009776286,
              -33.484723647072215
            ],
            [
              -70.69285865063031,
              -33.48501106692942
            ],
            [
              -70.69340668662352,
              -33.485148884435034
            ],
            [
              -70.69395350747972,
              -33.48530857673785
            ],
            [
              -70.6946469494235,
              -33.48552292907946
            ],
            [
              -70.69520875706249,
              -33.48569621762139
            ],
            [
              -70.69591958289064,
              -33.485919335246955
            ],
            [
              -70.6968153759638,
              -33.48619006246058
            ],
            [
              -70.69780454139331,
              -33.486392891670754
            ],
            [
              -70.69878324326659,
              -33.48658572702899
            ],
            [
              -70.69974099386111,
              -33.48669971988992
            ],
            [
              -70.70004170712815,
              -33.48673254176902
            ],
            [
              -70.70018435398674,
              -33.486754348286325
            ],
            [
              -70.70032580372583,
              -33.48677622790383
            ],
            [
              -70.70062028614377,
              -33.486833646875986
            ],
            [
              -70.70106604820603,
              -33.48692866179019
            ],
            [
              -70.70332868159299,
              -33.48749787783075
            ],
            [
              -70.70449938473112,
              -33.487764408619874
            ],
            [
              -70.70450534714548,
              -33.48777022534694
            ],
            [
              -70.70697206281172,
              -33.488327314316685
            ],
            [
              -70.70767632312555,
              -33.488487628854294
            ],
            [
              -70.70768163669759,
              -33.48848755565246
            ],
            [
              -70.71609363268244,
              -33.49038685768692
            ],
            [
              -70.718693400032,
              -33.485871639297784
            ],
            [
              -70.72054499202781,
              -33.48422448566513
            ],
            [
              -70.72254741918677,
              -33.48244294328594
            ],
            [
              -70.72396597343726,
              -33.481260482944165
            ],
            [
              -70.72418526523673,
              -33.480947678327595
            ],
            [
              -70.72453676478136,
              -33.48061593194978
            ],
            [
              -70.72529192433734,
              -33.479917797963566
            ],
            [
              -70.72575272529575,
              -33.47948976793436
            ],
            [
              -70.72609654753225,
              -33.47921341911767
            ],
            [
              -70.72857517976794,
              -33.47845201018792
            ],
            [
              -70.72874329807546,
              -33.478100466684715
            ],
            [
              -70.72925524152672,
              -33.47794456000475
            ],
            [
              -70.73003428912436,
              -33.47772545684419
            ],
            [
              -70.73061021254918,
              -33.47755256006436
            ],
            [
              -70.73124167319475,
              -33.4773715363172
            ],
            [
              -70.73331303817756,
              -33.47673380000579
            ],
            [
              -70.73346063938382,
              -33.476688354518515
            ],
            [
              -70.73401318130229,
              -33.47653490599733
            ],
            [
              -70.73505714971631,
              -33.47621281792834
            ],
            [
              -70.73608155022217,
              -33.47589583184604
            ],
            [
              -70.74986423730122,
              -33.47142696399396
            ],
            [
              -70.73917015657996,
              -33.46481778608869
            ],
            [
              -70.73916455446398,
              -33.46369599433326
            ],
            [
              -70.73914425978771,
              -33.4616481427344
            ],
            [
              -70.73913837845046,
              -33.46106240095287
            ],
            [
              -70.7391365981387,
              -33.46053182658814
            ]
          ]
        ]
      }
    }
  ]
}