{
  "type": "FeatureCollection",
  "crs": {
    "type": "name",
    "properties": {
      "name": "urn:ogc:def:crs:OGC:1.3:CRS84"
    }
  },
  "features": [
    {
      "type": "Feature",
      "properties": {
        "comuna": "Ñuñoa"
      },
      "geometry": {
        "type": "Polygon",
        "coordinates": [
          [
            [
              -70.63381717044064,
              -33.469541325253424
            ],
            [
              -70.63399923000709,
              -33.468904190223675
            ],
            [
              -70.63471334915525,
              -33.4663703501309
            ],
            [
              -70.63535259294831,
              -33.46415555306855
            ],
            [
              -70.63613318637067,
              -33.46146589928512
            ],
            [
              -70.63718803769503,
              -33.45780601736943
            ],
            [
              -70.63742000948385,
              -33.45697280720377
            ],
            [
              -70.63845771900341,
              -33.45354104889137
            ],
            [
              -70.63903188339013,
              -33.45164450687511
            ],
            [
              -70.64095508530379,
              -33.444693673024624
            ],
            [
              -70.63297427001913,
              -33.44341217506216
            ],
            [
              -70.63201040840475,
              -33.44322404243336
            ],
            [
              -70.63073313988522,
              -33.442978279670676
            ],
            [
              -70.62976486592204,
              -33.442782356908324
            ],
            [
              -70.62863014334327,
              -33.44256556906601
            ],
            [
              -70.62842807982409,
              -33.44251618249375
            ],
            [
              -70.62715735319395,
              -33.44220417202523
            ],
            [
              -70.62674014632054,
              -33.44214062018452
            ],
            [
              -70.62550210122795,
              -33.44189152813914
            ],
            [
              -70.62503933419798,
              -33.44180249260889
            ],
            [
              -70.62408857452631,
              -33.44160674090746
            ],
            [
              -70.62268551785955,
              -33.441324529562294
            ],
            [
              -70.62164204779776,
              -33.441123256498756
            ],
            [
              -70.61328985115266,
              -33.43942901342817
            ],
            [
              -70.61308630775213,
              -33.44003667073582
            ],
            [
              -70.61207879779681,
              -33.43976781740477
            ],
            [
              -70.61205570384621,
              -33.43976098742317
            ],
            [
              -70.61204028769532,
              -33.43975754081328
            ],
            [
              -70.61066166816683,
              -33.439389640486546
            ],
            [
              -70.60934107193394,
              -33.439185741897475
            ],
            [
              -70.60818165916066,
              -33.43905860137907
            ],
            [
              -70.60740177297973,
              -33.438971967142
            ],
            [
              -70.60732196376973,
              -33.4389630583453
            ],
            [
              -70.60651148917904,
              -33.438848927352964
            ],
            [
              -70.60547161516247,
              -33.438703272228764
            ],
            [
              -70.60479854486768,
              -33.43863655642528
            ],
            [
              -70.60385497854905,
              -33.4385401315258
            ],
            [
              -70.60316523287817,
              -33.438467218638664
            ],
            [
              -70.6025103236424,
              -33.43840106284304
            ],
            [
              -70.60190233377342,
              -33.43835028223811
            ],
            [
              -70.60144662312263,
              -33.43830888474732
            ],
            [
              -70.60124857667606,
              -33.43829094528356
            ],
            [
              -70.60080367597907,
              -33.438250511084554
            ],
            [
              -70.594957152474,
              -33.437719559742845
            ],
            [
              -70.59486633159958,
              -33.437583893488686
            ],
            [
              -70.59475994567167,
              -33.437424976132135
            ],
            [
              -70.594715845699,
              -33.43735910127292
            ],
            [
              -70.59465946942736,
              -33.43727488792625
            ],
            [
              -70.5945572608401,
              -33.43710636441273
            ],
            [
              -70.5944297882804,
              -33.43691509590316
            ],
            [
              -70.59433857525661,
              -33.436778239395615
            ],
            [
              -70.59425238602967,
              -33.436648915988826
            ],
            [
              -70.59414998822643,
              -33.43649580603948
            ],
            [
              -70.59409530154753,
              -33.436414033486855
            ],
            [
              -70.59386475286607,
              -33.436060608044265
            ],
            [
              -70.59357384895148,
              -33.43568997721675
            ],
            [
              -70.5934045542733,
              -33.435474279797965
            ],
            [
              -70.59310198111446,
              -33.435128813982686
            ],
            [
              -70.59293558578703,
              -33.43493883045861
            ],
            [
              -70.59228253101536,
              -33.434201831626254
            ],
            [
              -70.59166364038074,
              -33.433514263997786
            ],
            [
              -70.59135005480267,
              -33.43314241004293
            ],
            [
              -70.5908162503294,
              -33.43256429663921
            ],
            [
              -70.59010353587365,
              -33.43177164890174
            ],
            [
              -70.5893652092988,
              -33.43093065842362
            ],
            [
              -70.58923584240881,
              -33.43078514997112
            ],
            [
              -70.58902526540273,
              -33.43054829072326
            ],
            [
              -70.58478813096195,
              -33.42391332945668
            ],
            [
              -70.57717454740208,
              -33.42879436050841
            ],
            [
              -70.5757984200925,
              -33.42961662162884
            ],
            [
              -70.57526316856752,
              -33.429883047512526
            ],
            [
              -70.57394672293266,
              -33.43033343745536
            ],
            [
              -70.57211318977514,
              -33.43096532364092
            ],
            [
              -70.57075405668418,
              -33.431741804507006
            ],
            [
              -70.5701637878275,
              -33.43186650871264
            ],
            [
              -70.56689705585109,
              -33.43407444912839
            ],
            [
              -70.56574272300611,
              -33.43708890137138
            ],
            [
              -70.56553105111611,
              -33.438213184838816
            ],
            [
              -70.56540820233948,
              -33.43893389532882
            ],
            [
              -70.5653301265259,
              -33.43928872958575
            ],
            [
              -70.56522527375508,
              -33.43991957149569
            ],
            [
              -70.56514069783174,
              -33.44052807139102
            ],
            [
              -70.56498777872396,
              -33.44128372974406
            ],
            [
              -70.56491172933458,
              -33.441699784094375
            ],
            [
              -70.56462886387304,
              -33.442733511513715
            ],
            [
              -70.56312723349025,
              -33.45207489015622
            ],
            [
              -70.56310613642985,
              -33.452456948932166
            ],
            [
              -70.56280191408833,
              -33.4536900998962
            ],
            [
              -70.56314996849787,
              -33.45479668126129
            ],
            [
              -70.56282452512939,
              -33.45489415513088
            ],
            [
              -70.56516859673074,
              -33.462064400795256
            ],
            [
              -70.56647790364364,
              -33.46495323710649
            ],
            [
              -70.56668029955134,
              -33.465493719996665
            ],
            [
              -70.5675449579315,
              -33.467490048000016
            ],
            [
              -70.5688622454875,
              -33.47078438508733
            ],
            [
              -70.57157881807355,
              -33.478391065631904
            ],
            [
              -70.57631591408084,
              -33.47719047795024
            ],
            [
              -70.5777525475385,
              -33.47794249315295
            ],
            [
              -70.57804615725134,
              -33.47809450483117
            ],
            [
              -70.57921277473771,
              -33.47869849882279
            ],
            [
              -70.57993923223914,
              -33.47904350241775
            ],
            [
              -70.5809350658829,
              -33.4794530419635
            ],
            [
              -70.58171240355249,
              -33.47967511456086
            ],
            [
              -70.58221714689387,
              -33.4799010828867
            ],
            [
              -70.58278722090803,
              -33.47996088700901
            ],
            [
              -70.58285112705924,
              -33.480020257654765
            ],
            [
              -70.58593406095204,
              -33.48084724258187
            ],
            [
              -70.58789437780034,
              -33.48099464138188
            ],
            [
              -70.58927209754599,
              -33.48086256906372
            ],
            [
              -70.58935746970145,
              -33.480870404236505
            ],
            [
              -70.59087480265326,
              -33.4806340891058
            ],
            [
              -70.59121922701965,
              -33.48059159291127
            ],
            [
              -70.59170108248139,
              -33.48053218135959
            ],
            [
              -70.592653087201,
              -33.48041634614579
            ],
            [
              -70.59288626879692,
              -33.480389789213525
            ],
            [
              -70.59322220397802,
              -33.48037116137442
            ],
            [
              -70.59373767004756,
              -33.48034592991063
            ],
            [
              -70.59489691783,
              -33.48027816878028
            ],
            [
              -70.5954581883038,
              -33.4802539624313
            ],
            [
              -70.59649963925263,
              -33.48018766800155
            ],
            [
              -70.59720790416695,
              -33.480172741616656
            ],
            [
              -70.59829639852349,
              -33.48022299537495
            ],
            [
              -70.59896579941471,
              -33.48025771442892
            ],
            [
              -70.60008063855626,
              -33.48031500209878
            ],
            [
              -70.60073672735545,
              -33.48035043859173
            ],
            [
              -70.60221944928513,
              -33.48043213365424
            ],
            [
              -70.6032545070839,
              -33.48048262583706
            ],
            [
              -70.60391022910825,
              -33.48053471693231
            ],
            [
              -70.60426394009404,
              -33.48053282975175
            ],
            [
              -70.60582310090614,
              -33.48061919467679
            ],
            [
              -70.60701415042428,
              -33.48067983925127
            ],
            [
              -70.60766323078094,
              -33.48070704608964
            ],
            [
              -70.60940497139273,
              -33.48079912723867
            ],
            [
              -70.61053682265437,
              -33.48085601402087
            ],
            [
              -70.61175036773443,
              -33.48092226380129
            ],
            [
              -70.61302832239689,
              -33.48098305596925
            ],
            [
              -70.6133784871936,
              -33.48099553295663
            ],
            [
              -70.61455203891165,
              -33.48105649823475
            ],
            [
              -70.61505809892195,
              -33.4810828268133
            ],
            [
              -70.61580363818062,
              -33.481121546991304
            ],
            [
              -70.6163611769131,
              -33.48115407029265
            ],
            [
              -70.61710611326933,
              -33.48119146963586
            ],
            [
              -70.61817316899865,
              -33.481243247313074
            ],
            [
              -70.61901599018564,
              -33.481291583028636
            ],
            [
              -70.61945236515345,
              -33.481305706197084
            ],
            [
              -70.62916170556814,
              -33.481782459822256
            ],
            [
              -70.63100825026072,
              -33.47488243395566
            ],
            [
              -70.63130530603885,
              -33.47387889208929
            ],
            [
              -70.63157301643025,
              -33.47370581955142
            ],
            [
              -70.63371775820372,
              -33.470951037485584
            ],
            [
              -70.63381717044064,
              -33.469541325253424
            ]
          ]
        ]
      }
    }
  ]
}