{
  "type": "FeatureCollection",
  "crs": {
    "type": "name",
    "properties": {
      "name": "urn:ogc:def:crs:OGC:1.3:CRS84"
    }
  },
  "features": [
    {
      "type": "Feature",
      "properties": {
        "comuna": "La Reina"
      },
      "geometry": {
        "type": "Polygon",
        "coordinates": [
          [
            [
              -70.62221420910575,
              -33.43998874440345
            ],
            [
              -70.62285240645696,
              -33.43753856628253
            ],
            [
              -70.58587905566856,
              -33.425226752712874
            ],
            [
              -70.58069568584081,
              -33.42492070264377
            ],
            [
              -70.57900720399991,
              -33.42482226478126
            ],
            [
              -70.57499752502433,
              -33.42470447842969
            ],
            [
              -70.57462250554586,
              -33.42470027187456
            ],
            [
              -70.57040531405322,
              -33.424529687488366
            ],
            [
              -70.5653704821122,
              -33.424406224851
            ],
            [
              -70.56413864377089,
              -33.42435829847573
            ],
            [
              -70.56015529168609,
              -33.42418541855023
            ],
            [
              -70.55783030767766,
              -33.424055214463614
            ],
            [
              -70.55497491332625,
              -33.423910535342905
            ],
            [
              -70.55462447631406,
              -33.42390153190873
            ],
            [
              -70.5524421944149,
              -33.423698916908705
            ],
            [
              -70.54566518054743,
              -33.42302298111909
            ],
            [
              -70.54549199475625,
              -33.42310745903833
            ],
            [
              -70.54529640101741,
              -33.423084731561026
            ],
            [
              -70.54453301341846,
              -33.4229945876151
            ],
            [
              -70.54344757342083,
              -33.42286734820084
            ],
            [
              -70.54222199524412,
              -33.42272367123682
            ],
            [
              -70.54109287709805,
              -33.42259605728571
            ],
            [
              -70.53120058982498,
              -33.420928307759375
            ],
            [
              -70.53125360726834,
              -33.42601353356844
            ],
            [
              -70.53104057481171,
              -33.4259875142191
            ],
            [
              -70.53040158200922,
              -33.42590816482552
            ],
            [
              -70.52970940759705,
              -33.42582160282181
            ],
            [
              -70.5285438161246,
              -33.42567847679847
            ],
            [
              -70.52723874282337,
              -33.42552034348995
            ],
            [
              -70.52612638832106,
              -33.42538248889352
            ],
            [
              -70.52406972096115,
              -33.4251274494022
            ],
            [
              -70.52142700077776,
              -33.424915356150564
            ],
            [
              -70.52018768926487,
              -33.42547133020727
            ],
            [
              -70.519365375359,
              -33.42542277703869
            ],
            [
              -70.51861935362685,
              -33.42594380169197
            ],
            [
              -70.51771396193452,
              -33.42566684096272
            ],
            [
              -70.51391412319289,
              -33.428470735791834
            ],
            [
              -70.51314520579143,
              -33.42892167503854
            ],
            [
              -70.50997419996007,
              -33.42907908767949
            ],
            [
              -70.50755531406189,
              -33.429311645532295
            ],
            [
              -70.50438034806666,
              -33.4303739724803
            ],
            [
              -70.50246827487959,
              -33.431526108907704
            ],
            [
              -70.49968219855069,
              -33.43305331088818
            ],
            [
              -70.49794071450812,
              -33.4344526224755
            ],
            [
              -70.49682859500031,
              -33.43541230846472
            ],
            [
              -70.49554187048115,
              -33.437001567782254
            ],
            [
              -70.49378103452534,
              -33.43940359327518
            ],
            [
              -70.4926005139975,
              -33.440276929798365
            ],
            [
              -70.49129826836038,
              -33.44149388629755
            ],
            [
              -70.49117273315336,
              -33.4416751936812
            ],
            [
              -70.49046159714851,
              -33.44210531493697
            ],
            [
              -70.48834368726261,
              -33.44485382156102
            ],
            [
              -70.48815109591237,
              -33.44720087334926
            ],
            [
              -70.4881670259349,
              -33.448133453207284
            ],
            [
              -70.4874581188557,
              -33.44887417332482
            ],
            [
              -70.48680711790358,
              -33.449323760345386
            ],
            [
              -70.48646287475825,
              -33.449575085060886
            ],
            [
              -70.48520276682137,
              -33.450199021562625
            ],
            [
              -70.48218200975724,
              -33.45280399496635
            ],
            [
              -70.48204303938236,
              -33.45401113403011
            ],
            [
              -70.48149130804438,
              -33.45497026923352
            ],
            [
              -70.48137255501562,
              -33.455564755730194
            ],
            [
              -70.48055847271048,
              -33.45648382479514
            ],
            [
              -70.48041414738874,
              -33.45704398665157
            ],
            [
              -70.48015450050134,
              -33.45731289014932
            ],
            [
              -70.47925169913175,
              -33.459696101534895
            ],
            [
              -70.479170618693,
              -33.46110452996869
            ],
            [
              -70.47883158701684,
              -33.46851532005368
            ],
            [
              -70.49407413731059,
              -33.46809847898032
            ],
            [
              -70.50424583267448,
              -33.46761544240373
            ],
            [
              -70.50816137287977,
              -33.46732803598861
            ],
            [
              -70.50851111757316,
              -33.46727437146349
            ],
            [
              -70.5123166986492,
              -33.46684386038462
            ],
            [
              -70.51640576264549,
              -33.466571855465716
            ],
            [
              -70.51882425862624,
              -33.4665419907364
            ],
            [
              -70.51994400114856,
              -33.46640585073054
            ],
            [
              -70.52021888556392,
              -33.466348916125426
            ],
            [
              -70.52198382551128,
              -33.46613445687817
            ],
            [
              -70.52227401624458,
              -33.46613321430154
            ],
            [
              -70.52268283501971,
              -33.46610369585423
            ],
            [
              -70.52308766079877,
              -33.46607446502206
            ],
            [
              -70.52322985226556,
              -33.46606419837076
            ],
            [
              -70.52337703615053,
              -33.46649378360531
            ],
            [
              -70.52353126043094,
              -33.46693858767128
            ],
            [
              -70.52382669619998,
              -33.467632008560045
            ],
            [
              -70.52413550955094,
              -33.46814250323563
            ],
            [
              -70.52633698394196,
              -33.47178152297735
            ],
            [
              -70.53259793578948,
              -33.47204115866583
            ],
            [
              -70.53453978446379,
              -33.471455653164675
            ],
            [
              -70.53481303911785,
              -33.471379926208975
            ],
            [
              -70.5355500107323,
              -33.47117664103387
            ],
            [
              -70.53687257940247,
              -33.47080403762116
            ],
            [
              -70.53812656785087,
              -33.470442266659084
            ],
            [
              -70.53829758356294,
              -33.47039635005963
            ],
            [
              -70.53847114788829,
              -33.470348028608235
            ],
            [
              -70.5392302791108,
              -33.47013667383224
            ],
            [
              -70.53964145916144,
              -33.47001393385107
            ],
            [
              -70.54013064595117,
              -33.46987909775777
            ],
            [
              -70.54060983041246,
              -33.46973742951264
            ],
            [
              -70.5409945215373,
              -33.46962979407735
            ],
            [
              -70.54298672714408,
              -33.47036643907223
            ],
            [
              -70.54588786326717,
              -33.47006895266086
            ],
            [
              -70.54664963244876,
              -33.46997074887341
            ],
            [
              -70.5472539589366,
              -33.46989641129142
            ],
            [
              -70.54901324945902,
              -33.46965647592451
            ],
            [
              -70.55023132170267,
              -33.46945018722365
            ],
            [
              -70.55149491991597,
              -33.46923403689824
            ],
            [
              -70.55186100672363,
              -33.4691679148984
            ],
            [
              -70.55306480222723,
              -33.46915241897768
            ],
            [
              -70.55362300605444,
              -33.46914542470981
            ],
            [
              -70.55492038181319,
              -33.46913772916287
            ],
            [
              -70.55644203969126,
              -33.46914024338848
            ],
            [
              -70.55675370980684,
              -33.46913441673122
            ],
            [
              -70.55793543803712,
              -33.469112313212804
            ],
            [
              -70.5595946704859,
              -33.469106091507285
            ],
            [
              -70.56052389668753,
              -33.469076939561354
            ],
            [
              -70.56068587381799,
              -33.46907015637272
            ],
            [
              -70.56094991879996,
              -33.469069579762596
            ],
            [
              -70.56126479709178,
              -33.46906733012015
            ],
            [
              -70.56155355401481,
              -33.46906652573614
            ],
            [
              -70.56261435754139,
              -33.469053153530886
            ],
            [
              -70.56345581655837,
              -33.46895944655407
            ],
            [
              -70.56425685595993,
              -33.46883357658854
            ],
            [
              -70.56515777747948,
              -33.46859306449679
            ],
            [
              -70.56580951520205,
              -33.46838101024929
            ],
            [
              -70.56598951288726,
              -33.46832134255995
            ],
            [
              -70.56630661608122,
              -33.46821250040489
            ],
            [
              -70.56712735253976,
              -33.4682698170632
            ],
            [
              -70.56895998684725,
              -33.46731223154153
            ],
            [
              -70.57021633476364,
              -33.46689093009748
            ],
            [
              -70.57090581986415,
              -33.466632251526896
            ],
            [
              -70.57133980104605,
              -33.46647226708529
            ],
            [
              -70.57228627727721,
              -33.46612334630227
            ],
            [
              -70.57261211297721,
              -33.46598449957629
            ],
            [
              -70.5731130595309,
              -33.46578923704435
            ],
            [
              -70.57333059084401,
              -33.46570123178207
            ],
            [
              -70.57364760476563,
              -33.465580296736036
            ],
            [
              -70.57415483141317,
              -33.46540798217899
            ],
            [
              -70.574318189737,
              -33.46535069474922
            ],
            [
              -70.57510908645904,
              -33.465106790710436
            ],
            [
              -70.57519770054684,
              -33.465072819836266
            ],
            [
              -70.58191032791791,
              -33.46306155563171
            ],
            [
              -70.57955344519553,
              -33.45615615979193
            ],
            [
              -70.57903441507067,
              -33.45401073661213
            ],
            [
              -70.57871707401011,
              -33.453002419476846
            ],
            [
              -70.57999042523342,
              -33.445072312277375
            ],
            [
              -70.5802414916536,
              -33.444154193365
            ],
            [
              -70.5803852960111,
              -33.44336670051563
            ],
            [
              -70.58058508461767,
              -33.4423785625793
            ],
            [
              -70.58061341720949,
              -33.44217445761022
            ],
            [
              -70.58222816500162,
              -33.4416219755418
            ],
            [
              -70.58431927627346,
              -33.44058105754156
            ],
            [
              -70.58643857784003,
              -33.43931465368113
            ],
            [
              -70.58697793032711,
              -33.43896888569979
            ],
            [
              -70.58774688852446,
              -33.43847592052448
            ],
            [
              -70.62221420910575,
              -33.43998874440345
            ]
          ]
        ]
      }
    }
  ]
}