{
  "type": "FeatureCollection",
  "crs": {
    "type": "name",
    "properties": {
      "name": "urn:ogc:def:crs:OGC:1.3:CRS84"
    }
  },
  "features": [
    {
      "type": "Feature",
      "properties": {
        "comuna": "Santiago"
      },
      "geometry": {
        "type": "Polygon",
        "coordinates": [
          [
            [
              -70.69541291589965,
              -33.433294885352836
            ],
            [
              -70.69502975777111,
              -33.43289394801106
            ],
            [
              -70.69261984461043,
              -33.43273239920391
            ],
            [
              -70.69259268483394,
              -33.43133861806963
            ],
            [
              -70.69014217454048,
              -33.43128254795466
            ],
            [
              -70.68845158876547,
              -33.43092325169303
            ],
            [
              -70.68846464288387,
              -33.430721599050706
            ],
            [
              -70.68854404037143,
              -33.42958368669389
            ],
            [
              -70.68820257499347,
              -33.427384454507106
            ],
            [
              -70.68744558408989,
              -33.42575988187932
            ],
            [
              -70.68665980152164,
              -33.42456151441758
            ],
            [
              -70.68571690011667,
              -33.42356698595712
            ],
            [
              -70.68489435996379,
              -33.42286907832736
            ],
            [
              -70.68379460262076,
              -33.42193295699569
            ],
            [
              -70.68268193355264,
              -33.42150936604607
            ],
            [
              -70.68042596296054,
              -33.42034941120201
            ],
            [
              -70.67894547971925,
              -33.42032860680215
            ],
            [
              -70.6780580968782,
              -33.41238734035873
            ],
            [
              -70.67040065235939,
              -33.41973934694614
            ],
            [
              -70.66502737945974,
              -33.42171484757673
            ],
            [
              -70.65880741077066,
              -33.423728904294464
            ],
            [
              -70.65433545823234,
              -33.42478802772249
            ],
            [
              -70.651080068567,
              -33.425525087671645
            ],
            [
              -70.64976887183538,
              -33.42579267340605
            ],
            [
              -70.64948437139435,
              -33.42586012702257
            ],
            [
              -70.6433384082438,
              -33.427317257546065
            ],
            [
              -70.63853705394656,
              -33.42849686384374
            ],
            [
              -70.62773645096766,
              -33.430810958493595
            ],
            [
              -70.62756485581451,
              -33.43589369764647
            ],
            [
              -70.62715452695448,
              -33.43746058534229
            ],
            [
              -70.62699150093331,
              -33.438062309169034
            ],
            [
              -70.625285327696,
              -33.44382974969017
            ],
            [
              -70.62394579293831,
              -33.4483007968767
            ],
            [
              -70.62387457442608,
              -33.4485580131594
            ],
            [
              -70.62333935802842,
              -33.450324879976755
            ],
            [
              -70.62226382697564,
              -33.453879650854084
            ],
            [
              -70.62201183480788,
              -33.454784201652906
            ],
            [
              -70.62097349316264,
              -33.45838460656689
            ],
            [
              -70.62019298879103,
              -33.46107232676973
            ],
            [
              -70.61954113108423,
              -33.46332945303871
            ],
            [
              -70.61898740109972,
              -33.46529298817114
            ],
            [
              -70.61398790583978,
              -33.46839984488891
            ],
            [
              -70.61882300570353,
              -33.47451165939642
            ],
            [
              -70.62025471177253,
              -33.475685564753284
            ],
            [
              -70.62133324902871,
              -33.47645838346741
            ],
            [
              -70.62162206940465,
              -33.47716843955931
            ],
            [
              -70.62691226234126,
              -33.47914338888547
            ],
            [
              -70.6286888146859,
              -33.47976558029964
            ],
            [
              -70.63244257198636,
              -33.481080502948465
            ],
            [
              -70.63246450461689,
              -33.48107001224209
            ],
            [
              -70.63443470185706,
              -33.48190609188257
            ],
            [
              -70.63882599104593,
              -33.48311351269217
            ],
            [
              -70.64089974694751,
              -33.483365611438764
            ],
            [
              -70.64120579219455,
              -33.48339008636641
            ],
            [
              -70.64137248264048,
              -33.483403418855694
            ],
            [
              -70.64252373092724,
              -33.48349516760768
            ],
            [
              -70.64835443482,
              -33.48348850636217
            ],
            [
              -70.64859433582629,
              -33.48348531432248
            ],
            [
              -70.64880198073173,
              -33.48348255186315
            ],
            [
              -70.64941091546083,
              -33.48347444534768
            ],
            [
              -70.65101507748727,
              -33.483485882167216
            ],
            [
              -70.652662807795,
              -33.48346391571527
            ],
            [
              -70.65463809434952,
              -33.48339276206745
            ],
            [
              -70.6562440329343,
              -33.4831873098968
            ],
            [
              -70.65679821800146,
              -33.483116493310035
            ],
            [
              -70.65764272573584,
              -33.48300379136368
            ],
            [
              -70.65820018953036,
              -33.48292944414466
            ],
            [
              -70.65900204841917,
              -33.48286884116632
            ],
            [
              -70.66115319649354,
              -33.48270115316029
            ],
            [
              -70.66159739836873,
              -33.48265595980864
            ],
            [
              -70.6617326094733,
              -33.482654146594655
            ],
            [
              -70.66341562337722,
              -33.48266095791018
            ],
            [
              -70.66380454297546,
              -33.48267203148942
            ],
            [
              -70.6637592093991,
              -33.48501142791111
            ],
            [
              -70.6893368160053,
              -33.48499560404217
            ],
            [
              -70.68863277266048,
              -33.47709469708571
            ],
            [
              -70.69262275164671,
              -33.47702034875509
            ],
            [
              -70.6867847727467,
              -33.467350406106014
            ],
            [
              -70.68653184179595,
              -33.4633677273888
            ],
            [
              -70.68620059867577,
              -33.45874587128618
            ],
            [
              -70.68682721930873,
              -33.45078718483752
            ],
            [
              -70.68917239942361,
              -33.450898403793
            ],
            [
              -70.70021105618491,
              -33.45148152421974
            ],
            [
              -70.69943694160914,
              -33.44160969084705
            ],
            [
              -70.69935532380428,
              -33.43945831153698
            ],
            [
              -70.69902057399464,
              -33.43364214445583
            ],
            [
              -70.69541291589965,
              -33.433294885352836
            ]
          ]
        ]
      }
    }
  ]
}