{
"type": "FeatureCollection",
"name": "DatoSalida",
"crs": { "type": "name", "properties": { "name": "urn:ogc:def:crs:OGC:1.3:CRS84" } },
"features": [
{ "type": "Feature", "properties": { "NOMBRE_CEN": "Centro de la Mujer Estación Central", "EJECUTOR": "Municipalidad de Estación Central", "COBERTURA": "Estación Central", "DIRECCION": "Las Rejas Sur 626 – H, Estación Central", "TELEFONO": "(02) 2779 8056 - 800 646 551", "EMAIL": "centromujer.estacioncentral@gmail.com; centrodelamujer@estacioncentral.cl", "REGION": "Metropolitana" }, "geometry": { "type": "Point", "coordinates": [ -70.704487999773136, -33.461370000349284 ] } },
{ "type": "Feature", "properties": { "NOMBRE_CEN": "Centro de la Mujer Peñalolén", "EJECUTOR": "Municipalidad de Peñalolen", "COBERTURA": "Peñalolén", "DIRECCION": "Calle 17-A , Nº 931, Villa Naciones Unidas Peñalolén", "TELEFONO": "(02) 2279 1761 - (02) 2279 3009", "EMAIL": "centromujer@penalolen.cl", "REGION": "Metropolitana" }, "geometry": { "type": "Point", "coordinates": [ -70.551611000477777, -33.466270000223886 ] } },
{ "type": "Feature", "properties": { "NOMBRE_CEN": "Centro de la Mujer Ñuñoa", "EJECUTOR": "Fundación Beata Laura Bicuña", "COBERTURA": "Ñuñoa, La Reina", "DIRECCION": "Psje. Dr. Agustín Andrade N°4395 , Ñuñoa (Grecia con Jorge Monkeberg)", "TELEFONO": "(02) 2752 3369 - (09) 7861 1142", "EMAIL": "centrovifnunoa@fundacionlauravicuna.cl", "REGION": "Metropolitana" }, "geometry": { "type": "Point", "coordinates": [ -70.585301000376631, -33.463998000375241 ] } },
{ "type": "Feature", "properties": { "NOMBRE_CEN": "Centro de la Mujer Santiago", "EJECUTOR": "Municipalidad de Santiago", "COBERTURA": "Santiago, Providencia, Las Condes", "DIRECCION": "Balmaceda Nº 1114, 3º piso, Santiago", "TELEFONO": "(02) 2413 4775 - 2413 4780 - 2413 4772", "EMAIL": "centrodelamujerstgo@gmail.com", "REGION": "Metropolitana" }, "geometry": { "type": "Point", "coordinates": [ -70.653517999604446, -33.432823999686043 ] } },
{ "type": "Feature", "properties": { "NOMBRE_CEN": "Centro de la Mujer Quinta Normal", "EJECUTOR": "Municipalidad de Quinta Normal", "COBERTURA": "Quinta Normal", "DIRECCION": "Villasana #1697 (a 1 cuadra de Mapocho), Quinta Normal", "TELEFONO": "(02) 2786 4811 (en proceso de traslado)- (09) 9362 8806", "EMAIL": "centromujerquintanormal@gmail.com", "REGION": "Metropolitana" }, "geometry": { "type": "Point", "coordinates": [ -70.688248999865976, -33.431423999653525 ] } }
]
}
