{
"type": "FeatureCollection",
"name": "puntos_medicos_farmacias_hospitales_filtrados",
"crs": { "type": "name", "properties": { "name": "urn:ogc:def:crs:OGC:1.3:CRS84" } },
"features": [
{ "type": "Feature", "properties": { "access": null, "addr_city": "Santiago", "addr_housenumber": "543", "addr_postcode": null, "addr_state": null, "addr_street": "Cueto", "addr_unit": null, "amenity": "clinic", "building": null, "capacity": null, "denomination": null, "ele": null, "emergency": null, "fee": null, "healthcare": "clinic", "healthcare_speciality": null, "name": "Cesfam Ignacio Domeyko", "name_en": null, "name_es": null, "opening_hours": null, "operator": null, "parking": null, "phone": null, "religion": null, "source_transform": null, "surface": null, "website": null, "wheelchair": null, "objectid": 6538445, "osm_id2": "3481174039" }, "geometry": { "type": "Point", "coordinates": [ -70.6724005, -33.4387766 ] } },
{ "type": "Feature", "properties": { "access": null, "addr_city": "Santiago", "addr_housenumber": "2837", "addr_postcode": null, "addr_state": null, "addr_street": "Avenida Libertador Bernardo O'Higgins", "addr_unit": null, "amenity": "pharmacy", "building": null, "capacity": null, "denomination": null, "ele": null, "emergency": null, "fee": null, "healthcare": "pharmacy", "healthcare_speciality": null, "name": "SalcoBrand", "name_en": null, "name_es": null, "opening_hours": null, "operator": null, "parking": null, "phone": "+5626814725", "religion": null, "source_transform": null, "surface": null, "website": null, "wheelchair": null, "objectid": 6543535, "osm_id2": "867953593" }, "geometry": { "type": "Point", "coordinates": [ -70.6738939, -33.449231 ] } },
{ "type": "Feature", "properties": { "access": null, "addr_city": "Estación Central", "addr_housenumber": "3250", "addr_postcode": null, "addr_state": null, "addr_street": "Avenida Libertador Bernardo O'Higgins", "addr_unit": null, "amenity": "pharmacy", "building": null, "capacity": null, "denomination": null, "ele": null, "emergency": null, "fee": null, "healthcare": "pharmacy", "healthcare_speciality": null, "name": "SalcoBrand", "name_en": null, "name_es": null, "opening_hours": null, "operator": null, "parking": null, "phone": "+5624420028", "religion": null, "source_transform": null, "surface": null, "website": null, "wheelchair": "yes", "objectid": 6544175, "osm_id2": "867951533" }, "geometry": { "type": "Point", "coordinates": [ -70.6801104, -33.4515837 ] } },
{ "type": "Feature", "properties": { "access": null, "addr_city": "Estación Central", "addr_housenumber": null, "addr_postcode": null, "addr_state": null, "addr_street": "Avenida Libertador Bernardo O'Higgins", "addr_unit": null, "amenity": "pharmacy", "building": null, "capacity": null, "denomination": null, "ele": null, "emergency": null, "fee": null, "healthcare": "pharmacy", "healthcare_speciality": null, "name": "Farmacia Belgo Chilena", "name_en": null, "name_es": null, "opening_hours": null, "operator": null, "parking": null, "phone": null, "religion": null, "source_transform": "Reconocimiento cortográfico de campo 2016 por KG", "surface": null, "website": null, "wheelchair": null, "objectid": 6546961, "osm_id2": "4455294466" }, "geometry": { "type": "Point", "coordinates": [ -70.6867604, -33.4533239 ] } },
{ "type": "Feature", "properties": { "access": null, "addr_city": "Santiago", "addr_housenumber": "1599", "addr_postcode": "8370723", "addr_state": null, "addr_street": "Bascuñán Guerrero", "addr_unit": null, "amenity": "pharmacy", "building": null, "capacity": null, "denomination": null, "ele": null, "emergency": null, "fee": null, "healthcare": null, "healthcare_speciality": null, "name": "FarmaVip", "name_en": null, "name_es": null, "opening_hours": null, "operator": null, "parking": null, "phone": "+56226840244", "religion": null, "source_transform": "Reconocimiento cartográfico de campo 2016 por KG.", "surface": null, "website": null, "wheelchair": null, "objectid": 6567447, "osm_id2": "4455750335" }, "geometry": { "type": "Point", "coordinates": [ -70.671826299580701, -33.468226599724602 ] } },
{ "type": "Feature", "properties": { "access": null, "addr_city": "La Reina", "addr_housenumber": null, "addr_postcode": null, "addr_state": null, "addr_street": null, "addr_unit": "7C", "amenity": "clinic", "building": null, "capacity": null, "denomination": null, "ele": null, "emergency": null, "fee": null, "healthcare": "clinic", "healthcare_speciality": null, "name": "Clínica CELA La Reina", "name_en": null, "name_es": null, "opening_hours": null, "operator": null, "parking": null, "phone": null, "religion": null, "source_transform": null, "surface": null, "website": null, "wheelchair": null, "objectid": 6374394, "osm_id2": "6644792888" }, "geometry": { "type": "Point", "coordinates": [ -70.5361088, -33.4397627 ] } },
{ "type": "Feature", "properties": { "access": null, "addr_city": "La Reina", "addr_housenumber": "345", "addr_postcode": null, "addr_state": null, "addr_street": "Avenida Ossa", "addr_unit": null, "amenity": "clinic", "building": null, "capacity": null, "denomination": null, "ele": null, "emergency": null, "fee": null, "healthcare": "clinic", "healthcare_speciality": null, "name": "Centro Médico La Reina - Clínica Santa María", "name_en": null, "name_es": null, "opening_hours": null, "operator": null, "parking": null, "phone": null, "religion": null, "source_transform": null, "surface": null, "website": null, "wheelchair": null, "objectid": 6378163, "osm_id2": "2838589219" }, "geometry": { "type": "Point", "coordinates": [ -70.5704583, -33.4500779 ] } },
{ "type": "Feature", "properties": { "access": null, "addr_city": "La Reina", "addr_housenumber": "5862", "addr_postcode": null, "addr_state": null, "addr_street": null, "addr_unit": null, "amenity": "clinic", "building": null, "capacity": null, "denomination": null, "ele": null, "emergency": null, "fee": null, "healthcare": "clinic", "healthcare_speciality": null, "name": "Integramédica Plaza Egaña", "name_en": null, "name_es": null, "opening_hours": null, "operator": "Bupa", "parking": null, "phone": null, "religion": null, "source_transform": null, "surface": null, "website": null, "wheelchair": null, "objectid": 6378373, "osm_id2": "4706012834" }, "geometry": { "type": "Point", "coordinates": [ -70.5698713, -33.4532949 ] } },
{ "type": "Feature", "properties": { "access": null, "addr_city": "La Reina", "addr_housenumber": null, "addr_postcode": null, "addr_state": null, "addr_street": "Avenida Príncipe de Gales", "addr_unit": null, "amenity": "clinic", "building": null, "capacity": null, "denomination": null, "ele": null, "emergency": null, "fee": null, "healthcare": "clinic", "healthcare_speciality": null, "name": "Clínica Alemana", "name_en": null, "name_es": null, "opening_hours": null, "operator": null, "parking": null, "phone": null, "religion": null, "source_transform": null, "surface": null, "website": null, "wheelchair": null, "objectid": 10081886, "osm_id2": "10719134027" }, "geometry": { "type": "Point", "coordinates": [ -70.5362276, -33.440957 ] } },
{ "type": "Feature", "properties": { "access": null, "addr_city": "La Reina", "addr_housenumber": null, "addr_postcode": null, "addr_state": null, "addr_street": "Avenida Príncipe de Gales", "addr_unit": null, "amenity": "clinic", "building": null, "capacity": null, "denomination": null, "ele": null, "emergency": null, "fee": null, "healthcare": "clinic", "healthcare_speciality": null, "name": "Clínica Meds", "name_en": null, "name_es": null, "opening_hours": null, "operator": null, "parking": null, "phone": null, "religion": null, "source_transform": null, "surface": null, "website": null, "wheelchair": null, "objectid": 10095094, "osm_id2": "10726889611" }, "geometry": { "type": "Point", "coordinates": [ -70.5361522, -33.4401112 ] } },
{ "type": "Feature", "properties": { "access": null, "addr_city": "La Reina", "addr_housenumber": "8481", "addr_postcode": null, "addr_state": null, "addr_street": "Avenida Príncipe de Gales", "addr_unit": null, "amenity": "pharmacy", "building": null, "capacity": null, "denomination": null, "ele": null, "emergency": null, "fee": null, "healthcare": "pharmacy", "healthcare_speciality": null, "name": "Farmacias Ahumada", "name_en": null, "name_es": null, "opening_hours": "Mo-Fr 09:00-21:30; PH,Sa,Su 10:00-21:30", "operator": null, "parking": null, "phone": null, "religion": null, "source_transform": null, "surface": null, "website": null, "wheelchair": "yes", "objectid": 6374539, "osm_id2": "8544878591" }, "geometry": { "type": "Point", "coordinates": [ -70.5435687, -33.4407408 ] } },
{ "type": "Feature", "properties": { "access": null, "addr_city": "La Reina", "addr_housenumber": null, "addr_postcode": null, "addr_state": null, "addr_street": null, "addr_unit": null, "amenity": "pharmacy", "building": null, "capacity": null, "denomination": null, "ele": null, "emergency": null, "fee": null, "healthcare": "pharmacy", "healthcare_speciality": null, "name": "Cruz Verde", "name_en": null, "name_es": null, "opening_hours": null, "operator": null, "parking": null, "phone": "+56227586068", "religion": null, "source_transform": null, "surface": null, "website": null, "wheelchair": null, "objectid": 6374544, "osm_id2": "8544878590" }, "geometry": { "type": "Point", "coordinates": [ -70.5436267, -33.4417026 ] } },
{ "type": "Feature", "properties": { "access": null, "addr_city": "La Reina", "addr_housenumber": "1300", "addr_postcode": null, "addr_state": null, "addr_street": null, "addr_unit": null, "amenity": "pharmacy", "building": null, "capacity": null, "denomination": null, "ele": null, "emergency": null, "fee": null, "healthcare": "pharmacy", "healthcare_speciality": null, "name": "SalcoBrand", "name_en": null, "name_es": null, "opening_hours": null, "operator": null, "parking": null, "phone": null, "religion": null, "source_transform": null, "surface": null, "website": null, "wheelchair": null, "objectid": 6374571, "osm_id2": "3911406732" }, "geometry": { "type": "Point", "coordinates": [ -70.5436215, -33.4410924 ] } },
{ "type": "Feature", "properties": { "access": null, "addr_city": "La Reina", "addr_housenumber": "8751", "addr_postcode": null, "addr_state": null, "addr_street": "Avenida Alcalde Fernando Castillo Velasco", "addr_unit": null, "amenity": "pharmacy", "building": null, "capacity": null, "denomination": null, "ele": null, "emergency": null, "fee": null, "healthcare": "pharmacy", "healthcare_speciality": null, "name": "Cruz Verde", "name_en": null, "name_es": null, "opening_hours": null, "operator": null, "parking": null, "phone": null, "religion": null, "source_transform": null, "surface": null, "website": null, "wheelchair": null, "objectid": 6377465, "osm_id2": "4474447007" }, "geometry": { "type": "Point", "coordinates": [ -70.5403952, -33.4518641 ] } },
{ "type": "Feature", "properties": { "access": null, "addr_city": "La Reina", "addr_housenumber": "345", "addr_postcode": null, "addr_state": null, "addr_street": "Avenida Ossa", "addr_unit": null, "amenity": "pharmacy", "building": null, "capacity": null, "denomination": null, "ele": null, "emergency": null, "fee": null, "healthcare": "pharmacy", "healthcare_speciality": null, "name": "Farmacias Ahumada", "name_en": null, "name_es": null, "opening_hours": null, "operator": null, "parking": null, "phone": null, "religion": null, "source_transform": null, "surface": null, "website": null, "wheelchair": null, "objectid": 6378164, "osm_id2": "1700949421" }, "geometry": { "type": "Point", "coordinates": [ -70.5707438, -33.450023 ] } },
{ "type": "Feature", "properties": { "access": null, "addr_city": "La Reina", "addr_housenumber": "6997", "addr_postcode": null, "addr_state": null, "addr_street": "Avenida Alcalde Fernando Castillo Velasco", "addr_unit": null, "amenity": "pharmacy", "building": null, "capacity": null, "denomination": null, "ele": null, "emergency": null, "fee": null, "healthcare": "pharmacy", "healthcare_speciality": null, "name": "Farmacias La Reina", "name_en": null, "name_es": null, "opening_hours": null, "operator": null, "parking": null, "phone": null, "religion": null, "source_transform": null, "surface": null, "website": null, "wheelchair": null, "objectid": 6378212, "osm_id2": "4478221225" }, "geometry": { "type": "Point", "coordinates": [ -70.5556718, -33.4519346 ] } },
{ "type": "Feature", "properties": { "access": null, "addr_city": "La Reina", "addr_housenumber": "7059", "addr_postcode": null, "addr_state": null, "addr_street": "Avenida Alcalde Fernando Castillo Velasco", "addr_unit": null, "amenity": "pharmacy", "building": null, "capacity": null, "denomination": null, "ele": null, "emergency": null, "fee": null, "healthcare": "pharmacy", "healthcare_speciality": null, "name": "Cruz Verde", "name_en": null, "name_es": null, "opening_hours": null, "operator": null, "parking": null, "phone": null, "religion": null, "source_transform": null, "surface": null, "website": null, "wheelchair": null, "objectid": 6378231, "osm_id2": "4479712743" }, "geometry": { "type": "Point", "coordinates": [ -70.5548215, -33.4520065 ] } },
{ "type": "Feature", "properties": { "access": null, "addr_city": "La Reina", "addr_housenumber": "5819", "addr_postcode": null, "addr_state": null, "addr_street": "Avenida Larraín", "addr_unit": null, "amenity": "pharmacy", "building": null, "capacity": null, "denomination": null, "ele": null, "emergency": null, "fee": null, "healthcare": "pharmacy", "healthcare_speciality": null, "name": "Farmacias del Dr. Simi", "name_en": null, "name_es": null, "opening_hours": null, "operator": null, "parking": null, "phone": null, "religion": null, "source_transform": null, "surface": null, "website": null, "wheelchair": null, "objectid": 6378384, "osm_id2": "4472083482" }, "geometry": { "type": "Point", "coordinates": [ -70.569907, -33.453579 ] } },
{ "type": "Feature", "properties": { "access": null, "addr_city": "La Reina", "addr_housenumber": null, "addr_postcode": null, "addr_state": null, "addr_street": null, "addr_unit": null, "amenity": "doctors", "building": null, "capacity": null, "denomination": null, "ele": null, "emergency": null, "fee": null, "healthcare": "clinic", "healthcare_speciality": "psychiatry", "name": "COSAM La Reina", "name_en": null, "name_es": null, "opening_hours": null, "operator": null, "parking": null, "phone": null, "religion": null, "source_transform": null, "surface": null, "website": null, "wheelchair": null, "objectid": 10810806, "osm_id2": "11205691079" }, "geometry": { "type": "Point", "coordinates": [ -70.5336445, -33.4570086 ] } },
{ "type": "Feature", "properties": { "access": null, "addr_city": "La Reina", "addr_housenumber": "427", "addr_postcode": null, "addr_state": null, "addr_street": "Carmela Ramírez", "addr_unit": null, "amenity": "doctors", "building": null, "capacity": null, "denomination": null, "ele": null, "emergency": null, "fee": null, "healthcare": "doctor", "healthcare_speciality": "anthroposophical", "name": "Centro Médico Antroposófico", "name_en": null, "name_es": null, "opening_hours": null, "operator": null, "parking": null, "phone": "+56222263311", "religion": null, "source_transform": null, "surface": null, "website": "https://medicina-antroposofica.cl/", "wheelchair": null, "objectid": 11362444, "osm_id2": "11952640842" }, "geometry": { "type": "Point", "coordinates": [ -70.5591201, -33.4560112 ] } },
{ "type": "Feature", "properties": { "access": null, "addr_city": "La Reina", "addr_housenumber": null, "addr_postcode": null, "addr_state": null, "addr_street": "Avenida Alcalde Fernando Castillo Velasco", "addr_unit": null, "amenity": "pharmacy", "building": null, "capacity": null, "denomination": null, "ele": null, "emergency": null, "fee": null, "healthcare": "pharmacy", "healthcare_speciality": null, "name": "Farmacia Comunitaria La Reina", "name_en": null, "name_es": null, "opening_hours": null, "operator": null, "parking": null, "phone": null, "religion": null, "source_transform": null, "surface": null, "website": null, "wheelchair": null, "objectid": 12068992, "osm_id2": "12392964997" }, "geometry": { "type": "Point", "coordinates": [ -70.5429207, -33.4507136 ] } },
{ "type": "Feature", "properties": { "access": null, "addr_city": "La Reina", "addr_housenumber": null, "addr_postcode": null, "addr_state": null, "addr_street": "Mateo de Toro y Zambrano", "addr_unit": null, "amenity": "pharmacy", "building": null, "capacity": null, "denomination": null, "ele": null, "emergency": null, "fee": null, "healthcare": "pharmacy", "healthcare_speciality": null, "name": "Cruz Verde", "name_en": null, "name_es": null, "opening_hours": null, "operator": null, "parking": null, "phone": null, "religion": null, "source_transform": null, "surface": null, "website": null, "wheelchair": null, "objectid": 12129360, "osm_id2": "12454378030" }, "geometry": { "type": "Point", "coordinates": [ -70.5560292, -33.4397814 ] } },
{ "type": "Feature", "properties": { "access": null, "addr_city": "La Reina", "addr_housenumber": "5862", "addr_postcode": null, "addr_state": null, "addr_street": "Avenida Larraín", "addr_unit": null, "amenity": "pharmacy", "building": null, "capacity": null, "denomination": null, "ele": null, "emergency": null, "fee": null, "healthcare": "pharmacy", "healthcare_speciality": null, "name": "Cruz Verde", "name_en": null, "name_es": null, "opening_hours": null, "operator": null, "parking": null, "phone": null, "religion": null, "source_transform": null, "surface": null, "website": null, "wheelchair": null, "objectid": 7868956, "osm_id2": "8949365217" }, "geometry": { "type": "Point", "coordinates": [ -70.5697376, -33.4531469 ] } },
{ "type": "Feature", "properties": { "access": null, "addr_city": "La Reina", "addr_housenumber": "5839", "addr_postcode": null, "addr_state": null, "addr_street": "Avenida Echeñique", "addr_unit": null, "amenity": "pharmacy", "building": null, "capacity": null, "denomination": null, "ele": null, "emergency": null, "fee": null, "healthcare": "pharmacy", "healthcare_speciality": null, "name": "Farmacias Human Pharma", "name_en": null, "name_es": null, "opening_hours": null, "operator": null, "parking": null, "phone": null, "religion": null, "source_transform": null, "surface": null, "website": null, "wheelchair": null, "objectid": 9548821, "osm_id2": "10080785041" }, "geometry": { "type": "Point", "coordinates": [ -70.5706304, -33.4455087 ] } },
{ "type": "Feature", "properties": { "access": null, "addr_city": "Santiago", "addr_housenumber": null, "addr_postcode": null, "addr_state": null, "addr_street": "Avenida Portugal", "addr_unit": null, "amenity": "doctors", "building": null, "capacity": null, "denomination": null, "ele": null, "emergency": null, "fee": null, "healthcare": "doctor", "healthcare_speciality": null, "name": "Instituto Nacional de Acupuntura y medicina china", "name_en": null, "name_es": null, "opening_hours": null, "operator": null, "parking": null, "phone": "+56226341120", "religion": null, "source_transform": null, "surface": null, "website": "http://www.acupunturainchile.cl", "wheelchair": null, "objectid": 6395329, "osm_id2": "5865796985" }, "geometry": { "type": "Point", "coordinates": [ -70.6350134, -33.4488244 ] } },
{ "type": "Feature", "properties": { "access": null, "addr_city": "Santiago", "addr_housenumber": "1708", "addr_postcode": null, "addr_state": null, "addr_street": null, "addr_unit": null, "amenity": "clinic", "building": null, "capacity": null, "denomination": null, "ele": null, "emergency": null, "fee": null, "healthcare": "hospital", "healthcare_speciality": null, "name": "CESFAM Padre Orellana", "name_en": null, "name_es": null, "opening_hours": null, "operator": null, "parking": null, "phone": null, "religion": null, "source_transform": null, "surface": null, "website": null, "wheelchair": null, "objectid": 10741280, "osm_id2": "11172535584" }, "geometry": { "type": "Point", "coordinates": [ -70.6297342, -33.4663653 ] } },
{ "type": "Feature", "properties": { "access": null, "addr_city": "Santiago", "addr_housenumber": "170", "addr_postcode": null, "addr_state": null, "addr_street": "Avenida Portugal", "addr_unit": null, "amenity": "pharmacy", "building": null, "capacity": null, "denomination": null, "ele": null, "emergency": null, "fee": null, "healthcare": "pharmacy", "healthcare_speciality": null, "name": "Farmacias Ahumada", "name_en": null, "name_es": null, "opening_hours": null, "operator": null, "parking": null, "phone": null, "religion": null, "source_transform": null, "surface": null, "website": null, "wheelchair": null, "objectid": 6388923, "osm_id2": "3661031900" }, "geometry": { "type": "Point", "coordinates": [ -70.6368492, -33.4443175 ] } },
{ "type": "Feature", "properties": { "access": null, "addr_city": "Santiago", "addr_housenumber": "174", "addr_postcode": null, "addr_state": null, "addr_street": "Avenida Portugal", "addr_unit": null, "amenity": "pharmacy", "building": null, "capacity": null, "denomination": null, "ele": null, "emergency": null, "fee": null, "healthcare": "pharmacy", "healthcare_speciality": null, "name": "SalcoBrand", "name_en": null, "name_es": null, "opening_hours": null, "operator": null, "parking": null, "phone": null, "religion": null, "source_transform": null, "surface": null, "website": null, "wheelchair": null, "objectid": 6389054, "osm_id2": "3661015375" }, "geometry": { "type": "Point", "coordinates": [ -70.6366772, -33.4445791 ] } },
{ "type": "Feature", "properties": { "access": null, "addr_city": "Santiago", "addr_housenumber": null, "addr_postcode": null, "addr_state": null, "addr_street": "Santa Isabel", "addr_unit": null, "amenity": "pharmacy", "building": null, "capacity": null, "denomination": null, "ele": null, "emergency": null, "fee": null, "healthcare": "pharmacy", "healthcare_speciality": null, "name": "Cruz Verde", "name_en": null, "name_es": null, "opening_hours": null, "operator": "Cruz Verde", "parking": null, "phone": null, "religion": null, "source_transform": null, "surface": null, "website": "https://www.cruzverde.cl/", "wheelchair": null, "objectid": 6395212, "osm_id2": "4453962892" }, "geometry": { "type": "Point", "coordinates": [ -70.6354935, -33.448123 ] } },
{ "type": "Feature", "properties": { "access": null, "addr_city": "Santiago", "addr_housenumber": "699", "addr_postcode": null, "addr_state": null, "addr_street": "Avenida Vicuña Mackenna", "addr_unit": null, "amenity": "pharmacy", "building": null, "capacity": null, "denomination": null, "ele": null, "emergency": null, "fee": null, "healthcare": "pharmacy", "healthcare_speciality": null, "name": "Cruz Verde", "name_en": null, "name_es": null, "opening_hours": null, "operator": null, "parking": null, "phone": null, "religion": null, "source_transform": null, "surface": null, "website": null, "wheelchair": null, "objectid": 6395728, "osm_id2": "4438519073" }, "geometry": { "type": "Point", "coordinates": [ -70.631297, -33.4517192 ] } },
{ "type": "Feature", "properties": { "access": null, "addr_city": "Santiago", "addr_housenumber": "1173", "addr_postcode": null, "addr_state": null, "addr_street": "Artemio Gutiérrez", "addr_unit": null, "amenity": "clinic", "building": null, "capacity": null, "denomination": null, "ele": null, "emergency": null, "fee": null, "healthcare": "clinic", "healthcare_speciality": null, "name": "Policlínico Genchi", "name_en": null, "name_es": null, "opening_hours": null, "operator": null, "parking": null, "phone": null, "religion": null, "source_transform": null, "surface": null, "website": null, "wheelchair": null, "objectid": 6398166, "osm_id2": "4653643475" }, "geometry": { "type": "Point", "coordinates": [ -70.6377595, -33.4583411 ] } },
{ "type": "Feature", "properties": { "access": null, "addr_city": "Santiago", "addr_housenumber": "418", "addr_postcode": null, "addr_state": null, "addr_street": "San Antonio", "addr_unit": null, "amenity": "clinic", "building": null, "capacity": null, "denomination": null, "ele": null, "emergency": null, "fee": null, "healthcare": "clinic", "healthcare_speciality": null, "name": "Laboratorios Médicos Santiago Centro", "name_en": null, "name_es": null, "opening_hours": "Mo-Fr 08:00-18:30; Sa 08:00-12:30", "operator": null, "parking": null, "phone": "+56226392276", "religion": null, "source_transform": null, "surface": null, "website": "https://laboratoriosmedicos.cl/", "wheelchair": null, "objectid": 6534254, "osm_id2": "4102780390" }, "geometry": { "type": "Point", "coordinates": [ -70.648424, -33.4378163 ] } },
{ "type": "Feature", "properties": { "access": null, "addr_city": "Santiago", "addr_housenumber": "168", "addr_postcode": null, "addr_state": null, "addr_street": "Bandera", "addr_unit": null, "amenity": "clinic", "building": null, "capacity": null, "denomination": null, "ele": null, "emergency": null, "fee": null, "healthcare": "clinic", "healthcare_speciality": null, "name": "IntegraMédica", "name_en": null, "name_es": null, "opening_hours": null, "operator": null, "parking": null, "phone": null, "religion": null, "source_transform": "Reconocimiento cartográfico 2016 por KG.", "surface": null, "website": null, "wheelchair": null, "objectid": 6536734, "osm_id2": "4446260068" }, "geometry": { "type": "Point", "coordinates": [ -70.652159, -33.4414548 ] } },
{ "type": "Feature", "properties": { "access": null, "addr_city": "Santiago", "addr_housenumber": "929", "addr_postcode": null, "addr_state": null, "addr_street": null, "addr_unit": null, "amenity": "clinic", "building": null, "capacity": null, "denomination": null, "ele": null, "emergency": null, "fee": null, "healthcare": "clinic", "healthcare_speciality": null, "name": "Clínica CELA Santiago Centro", "name_en": null, "name_es": null, "opening_hours": "Mo-Fr 09:00-20:00; Sa 09:30-16:00; Su,PH off", "operator": null, "parking": null, "phone": "+56223069251", "religion": null, "source_transform": null, "surface": null, "website": null, "wheelchair": null, "objectid": 6537273, "osm_id2": "5920962879" }, "geometry": { "type": "Point", "coordinates": [ -70.6495153, -33.4430123 ] } },
{ "type": "Feature", "properties": { "access": null, "addr_city": "Santiago", "addr_housenumber": "1217", "addr_postcode": null, "addr_state": null, "addr_street": "San Ignacio", "addr_unit": null, "amenity": "doctors", "building": null, "capacity": null, "denomination": null, "ele": null, "emergency": null, "fee": null, "healthcare": null, "healthcare_speciality": null, "name": "Doctor Benjamín Cousiño", "name_en": null, "name_es": "Doctor Benjamín Cousiño", "opening_hours": null, "operator": null, "parking": null, "phone": null, "religion": null, "source_transform": null, "surface": null, "website": null, "wheelchair": null, "objectid": 6566434, "osm_id2": "4406278889" }, "geometry": { "type": "Point", "coordinates": [ -70.6554967, -33.4617374 ] } },
{ "type": "Feature", "properties": { "access": null, "addr_city": "Santiago", "addr_housenumber": "219", "addr_postcode": null, "addr_state": null, "addr_street": "Ejército Libertador", "addr_unit": null, "amenity": "clinic", "building": null, "capacity": null, "denomination": null, "ele": null, "emergency": null, "fee": null, "healthcare": "clinic", "healthcare_speciality": null, "name": "Clínica odontologica UDP", "name_en": null, "name_es": null, "opening_hours": null, "operator": null, "parking": null, "phone": null, "religion": null, "source_transform": null, "surface": null, "website": "https://clinicaodontologica.udp.cl", "wheelchair": null, "objectid": 6542473, "osm_id2": "3058138092" }, "geometry": { "type": "Point", "coordinates": [ -70.6611506, -33.4499133 ] } },
{ "type": "Feature", "properties": { "access": null, "addr_city": "Santiago", "addr_housenumber": null, "addr_postcode": null, "addr_state": null, "addr_street": "San Diego", "addr_unit": null, "amenity": "clinic", "building": null, "capacity": null, "denomination": null, "ele": null, "emergency": null, "fee": null, "healthcare": "clinic", "healthcare_speciality": null, "name": "Laboratorio metropolitana", "name_en": null, "name_es": "Laboratorio metropolitana", "opening_hours": null, "operator": null, "parking": null, "phone": null, "religion": null, "source_transform": null, "surface": null, "website": null, "wheelchair": null, "objectid": 6542861, "osm_id2": "4488812889" }, "geometry": { "type": "Point", "coordinates": [ -70.650058, -33.4533572 ] } },
{ "type": "Feature", "properties": { "access": null, "addr_city": "Santiago", "addr_housenumber": "654", "addr_postcode": null, "addr_state": null, "addr_street": null, "addr_unit": null, "amenity": "clinic", "building": null, "capacity": null, "denomination": null, "ele": null, "emergency": null, "fee": null, "healthcare": "clinic", "healthcare_speciality": null, "name": "IntegraMédica Alameda", "name_en": null, "name_es": null, "opening_hours": "Mo-Sa 07:30-20:00", "operator": "Bupa", "parking": null, "phone": null, "religion": null, "source_transform": null, "surface": null, "website": null, "wheelchair": null, "objectid": 10400341, "osm_id2": "10992814872" }, "geometry": { "type": "Point", "coordinates": [ -70.6454667, -33.4431409 ] } },
{ "type": "Feature", "properties": { "access": null, "addr_city": "Santiago", "addr_housenumber": "936", "addr_postcode": null, "addr_state": null, "addr_street": "Santa Isabel", "addr_unit": null, "amenity": "pharmacy", "building": null, "capacity": null, "denomination": null, "ele": null, "emergency": null, "fee": null, "healthcare": "pharmacy", "healthcare_speciality": null, "name": "Farmacias La Rebaja", "name_en": null, "name_es": null, "opening_hours": null, "operator": null, "parking": null, "phone": null, "religion": null, "source_transform": null, "surface": null, "website": null, "wheelchair": null, "objectid": 10618569, "osm_id2": "11082199317" }, "geometry": { "type": "Point", "coordinates": [ -70.6482898, -33.4515964 ] } },
{ "type": "Feature", "properties": { "access": null, "addr_city": "Santiago", "addr_housenumber": "20", "addr_postcode": null, "addr_state": null, "addr_street": "Avenida Libertador Bernardo O'Higgins", "addr_unit": null, "amenity": "pharmacy", "building": null, "capacity": null, "denomination": null, "ele": null, "emergency": null, "fee": null, "healthcare": "pharmacy", "healthcare_speciality": null, "name": "SalcoBrand", "name_en": null, "name_es": null, "opening_hours": null, "operator": null, "parking": null, "phone": "+56226331817", "religion": null, "source_transform": null, "surface": null, "website": null, "wheelchair": null, "objectid": 6386083, "osm_id2": "867951613" }, "geometry": { "type": "Point", "coordinates": [ -70.6356283, -33.4375353 ] } },
{ "type": "Feature", "properties": { "access": null, "addr_city": "Santiago", "addr_housenumber": null, "addr_postcode": null, "addr_state": null, "addr_street": "Moneda", "addr_unit": null, "amenity": "pharmacy", "building": null, "capacity": null, "denomination": null, "ele": null, "emergency": null, "fee": null, "healthcare": "pharmacy", "healthcare_speciality": null, "name": "Hahnemann", "name_en": null, "name_es": null, "opening_hours": null, "operator": null, "parking": null, "phone": null, "religion": null, "source_transform": null, "surface": null, "website": null, "wheelchair": null, "objectid": 6388702, "osm_id2": "4446300348" }, "geometry": { "type": "Point", "coordinates": [ -70.6462166, -33.4414288 ] } },
{ "type": "Feature", "properties": { "access": null, "addr_city": "Santiago", "addr_housenumber": null, "addr_postcode": null, "addr_state": null, "addr_street": "Ñuble", "addr_unit": null, "amenity": "doctors", "building": null, "capacity": null, "denomination": null, "ele": null, "emergency": null, "fee": null, "healthcare": "doctor", "healthcare_speciality": null, "name": "Núcleo Salud", "name_en": null, "name_es": null, "opening_hours": null, "operator": "Red Megacentro", "parking": null, "phone": null, "religion": null, "source_transform": null, "surface": null, "website": null, "wheelchair": null, "objectid": 11043539, "osm_id2": "11419307099" }, "geometry": { "type": "Point", "coordinates": [ -70.6475601, -33.4695154 ] } },
{ "type": "Feature", "properties": { "access": null, "addr_city": "Santiago", "addr_housenumber": "692", "addr_postcode": null, "addr_state": null, "addr_street": "Avenida Manuel Antonio Matta", "addr_unit": null, "amenity": "pharmacy", "building": null, "capacity": null, "denomination": null, "ele": null, "emergency": null, "fee": null, "healthcare": "pharmacy", "healthcare_speciality": null, "name": "Farmacia Nobel", "name_en": null, "name_es": null, "opening_hours": null, "operator": null, "parking": null, "phone": "+56 2 25 561 159", "religion": null, "source_transform": "Reconocimiento cortográfico de campo 2016 por KG", "surface": null, "website": null, "wheelchair": null, "objectid": 6398250, "osm_id2": "4457101115" }, "geometry": { "type": "Point", "coordinates": [ -70.6430734, -33.4585651 ] } },
{ "type": "Feature", "properties": { "access": null, "addr_city": "Santiago", "addr_housenumber": "315", "addr_postcode": null, "addr_state": null, "addr_street": "Paseo Ahumada", "addr_unit": null, "amenity": "pharmacy", "building": null, "capacity": null, "denomination": null, "ele": null, "emergency": null, "fee": null, "healthcare": "pharmacy", "healthcare_speciality": null, "name": "SalcoBrand", "name_en": null, "name_es": null, "opening_hours": null, "operator": null, "parking": null, "phone": "+5624202580", "religion": null, "source_transform": null, "surface": null, "website": null, "wheelchair": null, "objectid": 6534447, "osm_id2": "867952129" }, "geometry": { "type": "Point", "coordinates": [ -70.6509212, -33.4385748 ] } },
{ "type": "Feature", "properties": { "access": null, "addr_city": "Santiago", "addr_housenumber": "2259", "addr_postcode": null, "addr_state": null, "addr_street": "San Pablo", "addr_unit": null, "amenity": "pharmacy", "building": null, "capacity": null, "denomination": null, "ele": null, "emergency": null, "fee": null, "healthcare": "pharmacy", "healthcare_speciality": null, "name": "Farmacia Jardín", "name_en": null, "name_es": null, "opening_hours": null, "operator": null, "parking": null, "phone": null, "religion": null, "source_transform": "Reconocimiento cortográfico de campo 2016 por KG", "surface": null, "website": null, "wheelchair": null, "objectid": 6535548, "osm_id2": "4452128423" }, "geometry": { "type": "Point", "coordinates": [ -70.6682625, -33.4347958 ] } },
{ "type": "Feature", "properties": { "access": null, "addr_city": "Santiago", "addr_housenumber": "206", "addr_postcode": null, "addr_state": null, "addr_street": "San Antonio", "addr_unit": null, "amenity": "pharmacy", "building": null, "capacity": null, "denomination": null, "ele": null, "emergency": null, "fee": null, "healthcare": "pharmacy", "healthcare_speciality": null, "name": "SalcoBrand", "name_en": null, "name_es": null, "opening_hours": null, "operator": null, "parking": null, "phone": "+5626641961", "religion": null, "source_transform": null, "surface": null, "website": null, "wheelchair": null, "objectid": 6536120, "osm_id2": "867953144" }, "geometry": { "type": "Point", "coordinates": [ -70.6480712, -33.4392106 ] } },
{ "type": "Feature", "properties": { "access": null, "addr_city": "Santiago", "addr_housenumber": null, "addr_postcode": null, "addr_state": null, "addr_street": "San Antonio", "addr_unit": null, "amenity": "pharmacy", "building": null, "capacity": null, "denomination": null, "ele": null, "emergency": null, "fee": null, "healthcare": "pharmacy", "healthcare_speciality": null, "name": "Farmacia Mapuche Makelawen", "name_en": null, "name_es": null, "opening_hours": null, "operator": null, "parking": null, "phone": null, "religion": null, "source_transform": "Reconocimiento cartográfico de campo 2016 por KG", "surface": null, "website": null, "wheelchair": null, "objectid": 6536193, "osm_id2": "4452590268" }, "geometry": { "type": "Point", "coordinates": [ -70.6481762, -33.4401271 ] } },
{ "type": "Feature", "properties": { "access": null, "addr_city": "Santiago", "addr_housenumber": "900", "addr_postcode": null, "addr_state": null, "addr_street": "Huérfanos", "addr_unit": null, "amenity": "pharmacy", "building": null, "capacity": null, "denomination": null, "ele": null, "emergency": null, "fee": null, "healthcare": "pharmacy", "healthcare_speciality": null, "name": "SalcoBrand", "name_en": null, "name_es": null, "opening_hours": null, "operator": null, "parking": null, "phone": "+5626389049", "religion": null, "source_transform": null, "surface": null, "website": null, "wheelchair": null, "objectid": 6536329, "osm_id2": "867951554" }, "geometry": { "type": "Point", "coordinates": [ -70.6510162, -33.4397388 ] } },
{ "type": "Feature", "properties": { "access": null, "addr_city": "Santiago", "addr_housenumber": "389", "addr_postcode": null, "addr_state": null, "addr_street": "Paseo Ahumada", "addr_unit": null, "amenity": "pharmacy", "building": null, "capacity": null, "denomination": null, "ele": null, "emergency": null, "fee": null, "healthcare": "pharmacy", "healthcare_speciality": null, "name": "SalcoBrand", "name_en": null, "name_es": null, "opening_hours": null, "operator": null, "parking": null, "phone": "+5626991596", "religion": null, "source_transform": null, "surface": null, "website": null, "wheelchair": null, "objectid": 6536333, "osm_id2": "867951674" }, "geometry": { "type": "Point", "coordinates": [ -70.6510109, -33.4398015 ] } },
{ "type": "Feature", "properties": { "access": null, "addr_city": "Santiago", "addr_housenumber": null, "addr_postcode": null, "addr_state": null, "addr_street": "Bandera", "addr_unit": null, "amenity": "pharmacy", "building": null, "capacity": null, "denomination": null, "ele": null, "emergency": null, "fee": null, "healthcare": "pharmacy", "healthcare_speciality": null, "name": "Farmacia Cruz Verde", "name_en": null, "name_es": null, "opening_hours": null, "operator": null, "parking": null, "phone": null, "religion": null, "source_transform": "Reconocimiento cartográfico 2016 por KG.", "surface": null, "website": null, "wheelchair": null, "objectid": 6536342, "osm_id2": "1747224690" }, "geometry": { "type": "Point", "coordinates": [ -70.652208799676202, -33.439693099335301 ] } },
{ "type": "Feature", "properties": { "access": null, "addr_city": "Santiago", "addr_housenumber": "1199", "addr_postcode": null, "addr_state": null, "addr_street": "Huérfanos", "addr_unit": null, "amenity": "pharmacy", "building": null, "capacity": null, "denomination": null, "ele": null, "emergency": null, "fee": null, "healthcare": "pharmacy", "healthcare_speciality": null, "name": "La Botica Salcobrand", "name_en": null, "name_es": null, "opening_hours": null, "operator": null, "parking": null, "phone": null, "religion": null, "source_transform": "Reconocimiento cortográfico de campo 2016 por KG", "surface": null, "website": null, "wheelchair": null, "objectid": 6536368, "osm_id2": "2584336818" }, "geometry": { "type": "Point", "coordinates": [ -70.6535974, -33.4397814 ] } },
{ "type": "Feature", "properties": { "access": null, "addr_city": "Santiago", "addr_housenumber": "101", "addr_postcode": null, "addr_state": null, "addr_street": "Paseo Ahumada", "addr_unit": null, "amenity": "pharmacy", "building": null, "capacity": null, "denomination": null, "ele": null, "emergency": null, "fee": null, "healthcare": "pharmacy", "healthcare_speciality": null, "name": "SalcoBrand", "name_en": null, "name_es": null, "opening_hours": null, "operator": null, "parking": null, "phone": null, "religion": null, "source_transform": null, "surface": null, "website": null, "wheelchair": null, "objectid": 6536650, "osm_id2": "1721061650" }, "geometry": { "type": "Point", "coordinates": [ -70.6505561, -33.4418437 ] } },
{ "type": "Feature", "properties": { "access": null, "addr_city": "Santiago", "addr_housenumber": null, "addr_postcode": null, "addr_state": null, "addr_street": null, "addr_unit": null, "amenity": "pharmacy", "building": null, "capacity": null, "denomination": null, "ele": null, "emergency": null, "fee": null, "healthcare": "pharmacy", "healthcare_speciality": null, "name": "Farmacia del Doctor Ahorro", "name_en": null, "name_es": null, "opening_hours": null, "operator": null, "parking": null, "phone": null, "religion": null, "source_transform": null, "surface": null, "website": null, "wheelchair": null, "objectid": 6536673, "osm_id2": "1754033579" }, "geometry": { "type": "Point", "coordinates": [ -70.6500281, -33.4419936 ] } },
{ "type": "Feature", "properties": { "access": null, "addr_city": "Santiago", "addr_housenumber": null, "addr_postcode": null, "addr_state": null, "addr_street": "Moneda", "addr_unit": null, "amenity": "pharmacy", "building": null, "capacity": null, "denomination": null, "ele": null, "emergency": null, "fee": null, "healthcare": "pharmacy", "healthcare_speciality": null, "name": "Farmacias KNOP", "name_en": null, "name_es": null, "opening_hours": null, "operator": null, "parking": null, "phone": null, "religion": null, "source_transform": "Reconocimiento cartográfico 2016 por KG.", "surface": null, "website": null, "wheelchair": null, "objectid": 6536778, "osm_id2": "4446914634" }, "geometry": { "type": "Point", "coordinates": [ -70.651504100081894, -33.441884599935797 ] } },
{ "type": "Feature", "properties": { "access": null, "addr_city": "Santiago", "addr_housenumber": "779", "addr_postcode": null, "addr_state": null, "addr_street": "Avenida Libertador Bernardo O'Higgins", "addr_unit": null, "amenity": "pharmacy", "building": null, "capacity": null, "denomination": null, "ele": null, "emergency": null, "fee": null, "healthcare": "pharmacy", "healthcare_speciality": null, "name": "SalcoBrand", "name_en": null, "name_es": null, "opening_hours": null, "operator": null, "parking": null, "phone": "+5626642881", "religion": null, "source_transform": null, "surface": null, "website": null, "wheelchair": null, "objectid": 6537222, "osm_id2": "867952197" }, "geometry": { "type": "Point", "coordinates": [ -70.6476378, -33.4427841 ] } },
{ "type": "Feature", "properties": { "access": null, "addr_city": "Santiago", "addr_housenumber": "833", "addr_postcode": null, "addr_state": null, "addr_street": "Avenida Libertador Bernardo O'Higgins", "addr_unit": null, "amenity": "pharmacy", "building": null, "capacity": null, "denomination": null, "ele": null, "emergency": null, "fee": null, "healthcare": "pharmacy", "healthcare_speciality": null, "name": "SalcoBrand", "name_en": null, "name_es": null, "opening_hours": null, "operator": null, "parking": null, "phone": "+5624202595", "religion": null, "source_transform": null, "surface": null, "website": null, "wheelchair": null, "objectid": 6537245, "osm_id2": "867953601" }, "geometry": { "type": "Point", "coordinates": [ -70.648192299988594, -33.443001399946397 ] } },
{ "type": "Feature", "properties": { "access": null, "addr_city": "Santiago", "addr_housenumber": "56", "addr_postcode": null, "addr_state": null, "addr_street": "Paseo Estado", "addr_unit": null, "amenity": "pharmacy", "building": null, "capacity": null, "denomination": null, "ele": null, "emergency": null, "fee": null, "healthcare": "pharmacy", "healthcare_speciality": null, "name": "Farmacias Ahumada", "name_en": null, "name_es": null, "opening_hours": null, "operator": null, "parking": null, "phone": "+5626971531", "religion": null, "source_transform": "Reconocimiento cartográfico 2016 por KG", "surface": null, "website": null, "wheelchair": null, "objectid": 6537278, "osm_id2": "867952093" }, "geometry": { "type": "Point", "coordinates": [ -70.649356999890401, -33.4432441992642 ] } },
{ "type": "Feature", "properties": { "access": null, "addr_city": "Santiago", "addr_housenumber": "965", "addr_postcode": null, "addr_state": null, "addr_street": "Avenida Libertador Bernardo O'Higgins", "addr_unit": null, "amenity": "pharmacy", "building": null, "capacity": null, "denomination": null, "ele": null, "emergency": null, "fee": null, "healthcare": "pharmacy", "healthcare_speciality": null, "name": "SalcoBrand", "name_en": null, "name_es": null, "opening_hours": null, "operator": null, "parking": null, "phone": "+5626819474", "religion": null, "source_transform": "Reconocimiento cortográfico de campo 2016 por KG", "surface": null, "website": null, "wheelchair": null, "objectid": 6537321, "osm_id2": "867952683" }, "geometry": { "type": "Point", "coordinates": [ -70.649918199906296, -33.443448199578398 ] } },
{ "type": "Feature", "properties": { "access": null, "addr_city": "Santiago", "addr_housenumber": null, "addr_postcode": null, "addr_state": null, "addr_street": "Teatinos", "addr_unit": null, "amenity": "pharmacy", "building": null, "capacity": null, "denomination": null, "ele": null, "emergency": null, "fee": null, "healthcare": "pharmacy", "healthcare_speciality": null, "name": "Farmacias Ahumada", "name_en": null, "name_es": null, "opening_hours": null, "operator": null, "parking": null, "phone": null, "religion": null, "source_transform": "Reconocimiento cortográfico de campo 2016 por KG", "surface": null, "website": null, "wheelchair": null, "objectid": 6537451, "osm_id2": "4453903058" }, "geometry": { "type": "Point", "coordinates": [ -70.6543499, -33.4443 ] } },
{ "type": "Feature", "properties": { "access": null, "addr_city": "Santiago", "addr_housenumber": "1395", "addr_postcode": null, "addr_state": null, "addr_street": "Avenida Libertador Bernardo O'Higgins", "addr_unit": null, "amenity": "pharmacy", "building": null, "capacity": null, "denomination": null, "ele": null, "emergency": null, "fee": null, "healthcare": "pharmacy", "healthcare_speciality": null, "name": "SalcoBrand", "name_en": null, "name_es": null, "opening_hours": null, "operator": null, "parking": null, "phone": null, "religion": null, "source_transform": null, "surface": null, "website": null, "wheelchair": null, "objectid": 6537649, "osm_id2": "4455403645" }, "geometry": { "type": "Point", "coordinates": [ -70.6555782, -33.4445677 ] } },
{ "type": "Feature", "properties": { "access": null, "addr_city": "Santiago", "addr_housenumber": "10", "addr_postcode": null, "addr_state": null, "addr_street": "Lord Cochrane", "addr_unit": null, "amenity": "pharmacy", "building": null, "capacity": null, "denomination": null, "ele": null, "emergency": null, "fee": null, "healthcare": "pharmacy", "healthcare_speciality": null, "name": "Farmacias del Dr. Simi", "name_en": null, "name_es": null, "opening_hours": null, "operator": null, "parking": null, "phone": null, "religion": null, "source_transform": null, "surface": null, "website": null, "wheelchair": "yes", "objectid": 6537731, "osm_id2": "999676113" }, "geometry": { "type": "Point", "coordinates": [ -70.6552148, -33.445421 ] } },
{ "type": "Feature", "properties": { "access": null, "addr_city": "Santiago", "addr_housenumber": "92", "addr_postcode": null, "addr_state": null, "addr_street": "Profesora Amanda Labarca", "addr_unit": null, "amenity": "pharmacy", "building": null, "capacity": null, "denomination": null, "ele": null, "emergency": null, "fee": null, "healthcare": "pharmacy", "healthcare_speciality": null, "name": "Cruz Verde", "name_en": null, "name_es": null, "opening_hours": "Mo-Fr 08:00-20:30", "operator": null, "parking": null, "phone": null, "religion": null, "source_transform": null, "surface": null, "website": null, "wheelchair": null, "objectid": 6537751, "osm_id2": "4453731916" }, "geometry": { "type": "Point", "coordinates": [ -70.6555634, -33.4425109 ] } },
{ "type": "Feature", "properties": { "access": null, "addr_city": "Santiago", "addr_housenumber": "94", "addr_postcode": null, "addr_state": null, "addr_street": "Amunátegui", "addr_unit": null, "amenity": "pharmacy", "building": null, "capacity": null, "denomination": null, "ele": null, "emergency": null, "fee": null, "healthcare": "pharmacy", "healthcare_speciality": null, "name": "Cruz Verde", "name_en": null, "name_es": null, "opening_hours": "Mo-Fr 08:00-20:45; Sa 10:00-14:30", "operator": null, "parking": null, "phone": null, "religion": null, "source_transform": null, "surface": null, "website": null, "wheelchair": null, "objectid": 6537758, "osm_id2": "4453731923" }, "geometry": { "type": "Point", "coordinates": [ -70.656179, -33.4425322 ] } },
{ "type": "Feature", "properties": { "access": null, "addr_city": "Santiago", "addr_housenumber": "75", "addr_postcode": null, "addr_state": null, "addr_street": "Amunátegui", "addr_unit": null, "amenity": "pharmacy", "building": null, "capacity": null, "denomination": null, "ele": null, "emergency": null, "fee": null, "healthcare": "pharmacy", "healthcare_speciality": null, "name": "FarmaPrecio", "name_en": null, "name_es": "FarmaPrecio", "opening_hours": null, "operator": null, "parking": null, "phone": null, "religion": null, "source_transform": null, "surface": null, "website": "http://www.farmaprecio.cl", "wheelchair": null, "objectid": 6537788, "osm_id2": "4479008494" }, "geometry": { "type": "Point", "coordinates": [ -70.6560287, -33.4431334 ] } },
{ "type": "Feature", "properties": { "access": null, "addr_city": "Santiago", "addr_housenumber": null, "addr_postcode": null, "addr_state": null, "addr_street": null, "addr_unit": null, "amenity": "pharmacy", "building": null, "capacity": null, "denomination": null, "ele": null, "emergency": null, "fee": null, "healthcare": "pharmacy", "healthcare_speciality": null, "name": "Cruz Verde", "name_en": null, "name_es": null, "opening_hours": null, "operator": null, "parking": null, "phone": null, "religion": null, "source_transform": null, "surface": null, "website": null, "wheelchair": null, "objectid": 6537898, "osm_id2": "1754033580" }, "geometry": { "type": "Point", "coordinates": [ -70.6567488, -33.4447411 ] } },
{ "type": "Feature", "properties": { "access": null, "addr_city": "Santiago", "addr_housenumber": "1511", "addr_postcode": null, "addr_state": null, "addr_street": "Avenida Libertador Bernardo O'Higgins", "addr_unit": null, "amenity": "pharmacy", "building": null, "capacity": null, "denomination": null, "ele": null, "emergency": null, "fee": null, "healthcare": "pharmacy", "healthcare_speciality": null, "name": "SalcoBrand", "name_en": null, "name_es": null, "opening_hours": null, "operator": null, "parking": null, "phone": "+56226967010", "religion": null, "source_transform": null, "surface": null, "website": null, "wheelchair": null, "objectid": 6537902, "osm_id2": "867951741" }, "geometry": { "type": "Point", "coordinates": [ -70.6575797, -33.4446344 ] } },
{ "type": "Feature", "properties": { "access": null, "addr_city": "Santiago", "addr_housenumber": null, "addr_postcode": null, "addr_state": null, "addr_street": "Avenida Ricardo Cumming", "addr_unit": null, "amenity": "pharmacy", "building": null, "capacity": null, "denomination": null, "ele": null, "emergency": null, "fee": null, "healthcare": "pharmacy", "healthcare_speciality": null, "name": "Farmacias del Dr. Simi", "name_en": null, "name_es": null, "opening_hours": null, "operator": null, "parking": null, "phone": null, "religion": null, "source_transform": null, "surface": null, "website": null, "wheelchair": null, "objectid": 6538109, "osm_id2": "5254734020" }, "geometry": { "type": "Point", "coordinates": [ -70.6684023, -33.4390493 ] } },
{ "type": "Feature", "properties": { "access": null, "addr_city": "Santiago", "addr_housenumber": "216", "addr_postcode": null, "addr_state": null, "addr_street": "Avenida Presidente Bulnes", "addr_unit": null, "amenity": "pharmacy", "building": null, "capacity": null, "denomination": null, "ele": null, "emergency": null, "fee": null, "healthcare": "pharmacy", "healthcare_speciality": null, "name": "Cruz Verde", "name_en": null, "name_es": null, "opening_hours": "Mo-Fr 08:30-19:45", "operator": null, "parking": null, "phone": null, "religion": null, "source_transform": null, "surface": null, "website": null, "wheelchair": null, "objectid": 6542047, "osm_id2": "3057374161" }, "geometry": { "type": "Point", "coordinates": [ -70.6525262, -33.4487175 ] } },
{ "type": "Feature", "properties": { "access": null, "addr_city": "Santiago", "addr_housenumber": "437", "addr_postcode": null, "addr_state": null, "addr_street": "San Diego", "addr_unit": null, "amenity": "pharmacy", "building": null, "capacity": null, "denomination": null, "ele": null, "emergency": null, "fee": null, "healthcare": "pharmacy", "healthcare_speciality": null, "name": "FarmaEco", "name_en": null, "name_es": null, "opening_hours": null, "operator": null, "parking": null, "phone": "+56226955983", "religion": null, "source_transform": null, "surface": null, "website": null, "wheelchair": null, "objectid": 6542587, "osm_id2": "2782451734" }, "geometry": { "type": "Point", "coordinates": [ -70.650616, -33.45096 ] } },
{ "type": "Feature", "properties": { "access": null, "addr_city": "Santiago", "addr_housenumber": "540", "addr_postcode": null, "addr_state": null, "addr_street": "San Diego", "addr_unit": null, "amenity": "pharmacy", "building": null, "capacity": null, "denomination": null, "ele": null, "emergency": null, "fee": null, "healthcare": "pharmacy", "healthcare_speciality": null, "name": "Farmacia Almagro", "name_en": null, "name_es": null, "opening_hours": null, "operator": null, "parking": null, "phone": null, "religion": null, "source_transform": "Reconocimiento cortográfico de campo 2016 por KG", "surface": null, "website": null, "wheelchair": null, "objectid": 6542779, "osm_id2": "4474194154" }, "geometry": { "type": "Point", "coordinates": [ -70.6501775, -33.4522412 ] } },
{ "type": "Feature", "properties": { "access": null, "addr_city": "Santiago", "addr_housenumber": null, "addr_postcode": null, "addr_state": null, "addr_street": "San Diego", "addr_unit": null, "amenity": "pharmacy", "building": null, "capacity": null, "denomination": null, "ele": null, "emergency": null, "fee": null, "healthcare": "pharmacy", "healthcare_speciality": null, "name": "Damyfar", "name_en": null, "name_es": "Damyfar", "opening_hours": null, "operator": null, "parking": null, "phone": "+56979480167", "religion": null, "source_transform": null, "surface": null, "website": null, "wheelchair": null, "objectid": 6542874, "osm_id2": "2495730727" }, "geometry": { "type": "Point", "coordinates": [ -70.6499529, -33.4537059 ] } },
{ "type": "Feature", "properties": { "access": null, "addr_city": "Santiago", "addr_housenumber": "620", "addr_postcode": null, "addr_state": null, "addr_street": "Nataniel Cox", "addr_unit": null, "amenity": "pharmacy", "building": null, "capacity": null, "denomination": null, "ele": null, "emergency": null, "fee": null, "healthcare": "pharmacy", "healthcare_speciality": null, "name": "Farmacias Ahumada", "name_en": null, "name_es": null, "opening_hours": null, "operator": null, "parking": null, "phone": null, "religion": null, "source_transform": null, "surface": null, "website": null, "wheelchair": null, "objectid": 6542912, "osm_id2": "4466515406" }, "geometry": { "type": "Point", "coordinates": [ -70.6524198, -33.4539161 ] } },
{ "type": "Feature", "properties": { "access": null, "addr_city": "Santiago", "addr_housenumber": "405", "addr_postcode": null, "addr_state": null, "addr_street": "José Miguel Carrera", "addr_unit": null, "amenity": "pharmacy", "building": null, "capacity": null, "denomination": null, "ele": null, "emergency": null, "fee": null, "healthcare": "pharmacy", "healthcare_speciality": null, "name": "Su Salud", "name_en": null, "name_es": null, "opening_hours": null, "operator": null, "parking": null, "phone": null, "religion": null, "source_transform": null, "surface": null, "website": null, "wheelchair": null, "objectid": 6543199, "osm_id2": "8619109909" }, "geometry": { "type": "Point", "coordinates": [ -70.663171400127396, -33.452592299455901 ] } },
{ "type": "Feature", "properties": { "access": null, "addr_city": "Santiago", "addr_housenumber": "2008", "addr_postcode": null, "addr_state": null, "addr_street": "Toesca", "addr_unit": null, "amenity": "pharmacy", "building": null, "capacity": null, "denomination": null, "ele": null, "emergency": null, "fee": null, "healthcare": "pharmacy", "healthcare_speciality": null, "name": "Bioequilibrio", "name_en": null, "name_es": null, "opening_hours": null, "operator": null, "parking": null, "phone": null, "religion": null, "source_transform": null, "surface": null, "website": null, "wheelchair": null, "objectid": 6543251, "osm_id2": "5674153816" }, "geometry": { "type": "Point", "coordinates": [ -70.663132000019104, -33.453834199499497 ] } },
{ "type": "Feature", "properties": { "access": null, "addr_city": "Santiago", "addr_housenumber": "2293", "addr_postcode": null, "addr_state": null, "addr_street": "Avenida Libertador Bernardo O'Higgins", "addr_unit": null, "amenity": "pharmacy", "building": null, "capacity": null, "denomination": null, "ele": null, "emergency": null, "fee": null, "healthcare": "pharmacy", "healthcare_speciality": null, "name": "Cruz Verde", "name_en": null, "name_es": null, "opening_hours": "Mo-Sa 09:00-20:00", "operator": null, "parking": null, "phone": null, "religion": null, "source_transform": null, "surface": null, "website": null, "wheelchair": null, "objectid": 6543306, "osm_id2": "4448333453" }, "geometry": { "type": "Point", "coordinates": [ -70.667441, -33.4473848 ] } },
{ "type": "Feature", "properties": { "access": null, "addr_city": "Santiago", "addr_housenumber": "762", "addr_postcode": null, "addr_state": null, "addr_street": "Almirante Latorre", "addr_unit": null, "amenity": "pharmacy", "building": null, "capacity": null, "denomination": null, "ele": null, "emergency": null, "fee": null, "healthcare": "pharmacy", "healthcare_speciality": null, "name": "La Torre", "name_en": null, "name_es": null, "opening_hours": "Mo-Fr 09:00-22:00; Sa-Su 10:00-20:00", "operator": null, "parking": null, "phone": null, "religion": null, "source_transform": null, "surface": null, "website": null, "wheelchair": null, "objectid": 6545065, "osm_id2": "4347970491" }, "geometry": { "type": "Point", "coordinates": [ -70.6640025, -33.4566159 ] } },
{ "type": "Feature", "properties": { "access": null, "addr_city": "Santiago", "addr_housenumber": null, "addr_postcode": null, "addr_state": null, "addr_street": null, "addr_unit": null, "amenity": "pharmacy", "building": null, "capacity": null, "denomination": null, "ele": null, "emergency": null, "fee": null, "healthcare": "pharmacy", "healthcare_speciality": null, "name": "Farmamedical", "name_en": null, "name_es": null, "opening_hours": null, "operator": null, "parking": null, "phone": null, "religion": null, "source_transform": "Reconocimiento cartográfico 2016 por KG", "surface": null, "website": null, "wheelchair": null, "objectid": 6568167, "osm_id2": "4452435163" }, "geometry": { "type": "Point", "coordinates": [ -70.646836, -33.4733418 ] } },
{ "type": "Feature", "properties": { "access": null, "addr_city": "Santiago", "addr_housenumber": "2325", "addr_postcode": null, "addr_state": null, "addr_street": "San Diego", "addr_unit": null, "amenity": "pharmacy", "building": null, "capacity": null, "denomination": null, "ele": null, "emergency": null, "fee": null, "healthcare": "pharmacy", "healthcare_speciality": null, "name": "Farmacia Todo", "name_en": null, "name_es": null, "opening_hours": null, "operator": null, "parking": null, "phone": null, "religion": null, "source_transform": "Reconocimiento cartográfico de campo 2016 por KG", "surface": null, "website": null, "wheelchair": null, "objectid": 6568338, "osm_id2": "4452452012" }, "geometry": { "type": "Point", "coordinates": [ -70.6484579, -33.4759405 ] } },
{ "type": "Feature", "properties": { "access": null, "addr_city": "Santiago", "addr_housenumber": null, "addr_postcode": null, "addr_state": null, "addr_street": "Bandera", "addr_unit": null, "amenity": "clinic", "building": null, "capacity": null, "denomination": null, "ele": null, "emergency": null, "fee": null, "healthcare": "clinic", "healthcare_speciality": null, "name": "VidaIntegra", "name_en": null, "name_es": null, "opening_hours": null, "operator": null, "parking": null, "phone": null, "religion": null, "source_transform": null, "surface": null, "website": null, "wheelchair": null, "objectid": 11598686, "osm_id2": "12143313439" }, "geometry": { "type": "Point", "coordinates": [ -70.6518765, -33.4416766 ] } },
{ "type": "Feature", "properties": { "access": null, "addr_city": "Santiago", "addr_housenumber": "1322", "addr_postcode": null, "addr_state": null, "addr_street": "Avenida Libertador Bernardo O'Higgins", "addr_unit": null, "amenity": "pharmacy", "building": null, "capacity": null, "denomination": null, "ele": null, "emergency": null, "fee": null, "healthcare": "pharmacy", "healthcare_speciality": null, "name": "Cruz Verde", "name_en": null, "name_es": null, "opening_hours": "Mo-Fr 08:30-20:45; Sa 09:30-15:00", "operator": null, "parking": null, "phone": null, "religion": null, "source_transform": null, "surface": null, "website": null, "wheelchair": null, "objectid": 9845395, "osm_id2": "10268906249" }, "geometry": { "type": "Point", "coordinates": [ -70.6544207, -33.4452215 ] } },
{ "type": "Feature", "properties": { "access": null, "addr_city": "Santiago", "addr_housenumber": "841", "addr_postcode": null, "addr_state": null, "addr_street": "Amunátegui", "addr_unit": null, "amenity": "pharmacy", "building": null, "capacity": null, "denomination": null, "ele": null, "emergency": null, "fee": null, "healthcare": "pharmacy", "healthcare_speciality": null, "name": "Farmacia Ultra Solidaria", "name_en": null, "name_es": null, "opening_hours": null, "operator": null, "parking": null, "phone": null, "religion": null, "source_transform": null, "surface": null, "website": null, "wheelchair": null, "objectid": 10279418, "osm_id2": "10905309924" }, "geometry": { "type": "Point", "coordinates": [ -70.6573541, -33.4338767 ] } },
{ "type": "Feature", "properties": { "access": null, "addr_city": "Santiago", "addr_housenumber": null, "addr_postcode": null, "addr_state": null, "addr_street": "Teatinos", "addr_unit": null, "amenity": "pharmacy", "building": null, "capacity": null, "denomination": null, "ele": null, "emergency": null, "fee": null, "healthcare": "pharmacy", "healthcare_speciality": null, "name": "SalcoBrand", "name_en": null, "name_es": null, "opening_hours": null, "operator": null, "parking": null, "phone": null, "religion": null, "source_transform": null, "surface": null, "website": null, "wheelchair": null, "objectid": 10416704, "osm_id2": "11005206274" }, "geometry": { "type": "Point", "coordinates": [ -70.6553763, -33.4398249 ] } }
]
}
