{
"type": "FeatureCollection",
"name": "unidades_operativas_pdi_filtradas",
"crs": { "type": "name", "properties": { "name": "urn:ogc:def:crs:OGC:1.3:CRS84" } },
"features": [
{ "type": "Feature", "properties": { "NUM": 120.0, "INSTITUCIO": "PDI", "TIPO_UNID": "BRIGADA", "SIGLA": "BRIANT", "CATEGORIA": "OPERATIVA", "NOM_UNID": "BRIGADA ANTINARCOTICOS", "NOM_VIAL": "GUADAL", "NUM_2": 920.0, "COMUNA": "ESTACION CENTRAL", "REGION": "METROPOLITANA", "NUM_REG": "RM", "POINT_X": -70.7033206, "POINT_Y": -33.4643763 }, "geometry": { "type": "Point", "coordinates": [ -70.703320599999898, -33.4643763 ] } },
{ "type": "Feature", "properties": { "NUM": 168.0, "INSTITUCIO": "PDI", "TIPO_UNID": "GRUPO DE REACCION TACTICA", "SIGLA": "ERTA", "CATEGORIA": "OPERATIVA", "NOM_UNID": "ERTA METROPOLITANO Y BRIGADA DE INTERVENCION CRIMINAL TERRENO NARCOTICOS.", "NOM_VIAL": "PEDRO AGUIRRE CERDA", "NUM_2": 6100.0, "COMUNA": "PEDRO AGUIRRE CERDA", "REGION": "METROPOLITANA", "NUM_REG": "RM", "POINT_X": -70.665829, "POINT_Y": -33.4811229 }, "geometry": { "type": "Point", "coordinates": [ -70.665829, -33.4811229 ] } },
{ "type": "Feature", "properties": { "NUM": 173.0, "INSTITUCIO": "PDI", "TIPO_UNID": "BRIGADA INVESTIGACION CRIMINAL", "SIGLA": "BICRIM", "CATEGORIA": "OPERATIVA", "NOM_UNID": "BICRIM CERRILLOS", "NOM_VIAL": "FRANCIA", "NUM_2": 4040.0, "COMUNA": "CERRILLOS", "REGION": "METROPOLITANA", "NUM_REG": "RM", "POINT_X": -70.720129, "POINT_Y": -33.4803179 }, "geometry": { "type": "Point", "coordinates": [ -70.720129, -33.4803179 ] } },
{ "type": "Feature", "properties": { "NUM": 124.0, "INSTITUCIO": "PDI", "TIPO_UNID": "EDUCACION", "SIGLA": "ESCIPOL", "CATEGORIA": "EDUCACION", "NOM_UNID": "ESCUELA DE INVESTIGACIONES POLICIALES", "NOM_VIAL": "GLADYS MARIN", "NUM_2": 5783.0, "COMUNA": "ESTACION CENTRAL", "REGION": "METROPOLITANA", "NUM_REG": "RM", "POINT_X": -70.715178039500003, "POINT_Y": -33.459008836599999 }, "geometry": { "type": "Point", "coordinates": [ -70.715178039535303, -33.459008836633558 ] } },
{ "type": "Feature", "properties": { "NUM": 140.0, "INSTITUCIO": "PDI", "TIPO_UNID": "BRIGADA", "SIGLA": "BAPOL", "CATEGORIA": "OPERATIVA", "NOM_UNID": "BRIGADA AEROPOLICIAL", "NOM_VIAL": "JOSE ARRIETA", "NUM_2": 7698.0, "COMUNA": "LA REINA", "REGION": "METROPOLITANA", "NUM_REG": "RM", "POINT_X": -70.5509395, "POINT_Y": -33.4625984 }, "geometry": { "type": "Point", "coordinates": [ -70.550939499999899, -33.462598399999898 ] } },
{ "type": "Feature", "properties": { "NUM": 148.0, "INSTITUCIO": "PDI", "TIPO_UNID": "BRIGADA INVESTIGACION CRIMINAL", "SIGLA": "BICRIM", "CATEGORIA": "OPERATIVA", "NOM_UNID": "BICRIM PROVIDENCIA", "NOM_VIAL": "JOSE MIGUEL INFANTE", "NUM_2": 820.0, "COMUNA": "PROVIDENCIA", "REGION": "METROPOLITANA", "NUM_REG": "RM", "POINT_X": -70.6215514, "POINT_Y": -33.4388197 }, "geometry": { "type": "Point", "coordinates": [ -70.6215514, -33.4388197 ] } },
{ "type": "Feature", "properties": { "NUM": 150.0, "INSTITUCIO": "PDI", "TIPO_UNID": "BRIGADA INVESTIGACION CRIMINAL", "SIGLA": "BICRIM", "CATEGORIA": "OPERATIVA", "NOM_UNID": "BICRIM LA REINA", "NOM_VIAL": "ECHENIQUE", "NUM_2": 8634.0, "COMUNA": "LA REINA", "REGION": "METROPOLITANA", "NUM_REG": "RM", "POINT_X": -70.5444669, "POINT_Y": -33.4420553 }, "geometry": { "type": "Point", "coordinates": [ -70.5444669, -33.4420552999999 ] } },
{ "type": "Feature", "properties": { "NUM": 171.0, "INSTITUCIO": "PDI", "TIPO_UNID": "JEFATURA NACIONAL", "SIGLA": "JENACRIM", "CATEGORIA": "OPERATIVA", "NOM_UNID": "JEFATURA NACIONAL DE CRIMINALÍSTICA, LACRIM CENTRAL", "NOM_VIAL": "CARLOS SILVA VILDASOLA", "NUM_2": 9738.0, "COMUNA": "LA REINA", "REGION": "METROPOLITANA", "NUM_REG": "RM", "POINT_X": -70.5294031, "POINT_Y": -33.4415137 }, "geometry": { "type": "Point", "coordinates": [ -70.529403099999897, -33.441513699999902 ] } },
{ "type": "Feature", "properties": { "NUM": 133.0, "INSTITUCIO": "PDI", "TIPO_UNID": "CUARTEL", "SIGLA": "0", "CATEGORIA": "OPERATIVA", "NOM_UNID": "CUARTEL ZAÑARTU", "NOM_VIAL": "ZANARTU", "NUM_2": 1728.0, "COMUNA": "NUNOA", "REGION": "METROPOLITANA", "NUM_REG": "RM", "POINT_X": -70.6145991, "POINT_Y": -33.4728045 }, "geometry": { "type": "Point", "coordinates": [ -70.614599099999893, -33.4728045 ] } },
{ "type": "Feature", "properties": { "NUM": 142.0, "INSTITUCIO": "PDI", "TIPO_UNID": "CUARTEL", "SIGLA": "0", "CATEGORIA": "OPERATIVA", "NOM_UNID": "CUARTEL JOSE PEDRO ALESANDRI PALMA", "NOM_VIAL": "JOSE PEDRO ALESSANDRI PALMA", "NUM_2": 1800.0, "COMUNA": "NUNOA", "REGION": "METROPOLITANA", "NUM_REG": "RM", "POINT_X": -70.5986165, "POINT_Y": -33.4713367 }, "geometry": { "type": "Point", "coordinates": [ -70.598616499999906, -33.4713367 ] } },
{ "type": "Feature", "properties": { "NUM": 151.0, "INSTITUCIO": "PDI", "TIPO_UNID": "BRIGADA INVESTIGACION CRIMINAL", "SIGLA": "BICRIM", "CATEGORIA": "OPERATIVA", "NOM_UNID": "BICRIM PEÑALOLEN", "NOM_VIAL": "EL LAGO", "NUM_2": 5720.0, "COMUNA": "PENALOLEN", "REGION": "METROPOLITANA", "NUM_REG": "RM", "POINT_X": -70.5766501, "POINT_Y": -33.4718373 }, "geometry": { "type": "Point", "coordinates": [ -70.576650099999895, -33.471837299999898 ] } },
{ "type": "Feature", "properties": { "NUM": 166.0, "INSTITUCIO": "PDI", "TIPO_UNID": "PREFECTURA", "SIGLA": "PREMEOR", "CATEGORIA": "OPERATIVA", "NOM_UNID": "PREFECTURA METROPOLITANA ORIENTE BICRIM ÑUÑOA", "NOM_VIAL": "CAMPOS DE DEPORTES", "NUM_2": 565.0, "COMUNA": "NUNOA", "REGION": "METROPOLITANA", "NUM_REG": "RM", "POINT_X": -70.6098917, "POINT_Y": -33.4591422 }, "geometry": { "type": "Point", "coordinates": [ -70.609891699999906, -33.4591422 ] } },
{ "type": "Feature", "properties": { "NUM": 174.0, "INSTITUCIO": "PDI", "TIPO_UNID": "BRIGADA", "SIGLA": "BH", "CATEGORIA": "OPERATIVA", "NOM_UNID": "BRIGADA DE HOMICIDIOS", "NOM_VIAL": "WILLIAMS REBOLLEDO", "NUM_2": 1717.0, "COMUNA": "NUNOA", "REGION": "METROPOLITANA", "NUM_REG": "RM", "POINT_X": -70.6199921, "POINT_Y": -33.4713107 }, "geometry": { "type": "Point", "coordinates": [ -70.619992099999905, -33.471310699999897 ] } },
{ "type": "Feature", "properties": { "NUM": 175.0, "INSTITUCIO": "PDI", "TIPO_UNID": "CUARTEL", "SIGLA": "0", "CATEGORIA": "OPERATIVA", "NOM_UNID": "CUARTEL WILLIAMS REBOLLEDO", "NOM_VIAL": "WILLIAMS REBOLLEDO", "NUM_2": 1799.0, "COMUNA": "NUNOA", "REGION": "METROPOLITANA", "NUM_REG": "RM", "POINT_X": -70.6199921, "POINT_Y": -33.4713107 }, "geometry": { "type": "Point", "coordinates": [ -70.619992099999905, -33.471310699999897 ] } },
{ "type": "Feature", "properties": { "NUM": 115.0, "INSTITUCIO": "PDI", "TIPO_UNID": "CUARTEL", "SIGLA": "0", "CATEGORIA": "OPERATIVA", "NOM_UNID": "CUARTEL GENERAL", "NOM_VIAL": "GENERAL MACKENNA", "NUM_2": 1314.0, "COMUNA": "SANTIAGO", "REGION": "METROPOLITANA", "NUM_REG": "RM", "POINT_X": -70.656407582200004, "POINT_Y": -33.4335033602 }, "geometry": { "type": "Point", "coordinates": [ -70.65640758217765, -33.433503360224726 ] } },
{ "type": "Feature", "properties": { "NUM": 116.0, "INSTITUCIO": "PDI", "TIPO_UNID": "CUARTEL", "SIGLA": "0", "CATEGORIA": "OPERATIVA", "NOM_UNID": "CUARTEL GENERAL", "NOM_VIAL": "GENERAL MACKENNA", "NUM_2": 1370.0, "COMUNA": "SANTIAGO", "REGION": "METROPOLITANA", "NUM_REG": "RM", "POINT_X": -70.657022568200006, "POINT_Y": -33.4335033602 }, "geometry": { "type": "Point", "coordinates": [ -70.657022568179599, -33.433503360224726 ] } },
{ "type": "Feature", "properties": { "NUM": 117.0, "INSTITUCIO": "PDI", "TIPO_UNID": "CUARTEL", "SIGLA": "0", "CATEGORIA": "OPERATIVA", "NOM_UNID": "CUARTEL INDEPENDENCIA", "NOM_VIAL": "GENERAL BORGONO", "NUM_2": 1204.0, "COMUNA": "INDEPENDENCIA", "REGION": "METROPOLITANA", "NUM_REG": "RM", "POINT_X": -70.6555602, "POINT_Y": -33.4307249 }, "geometry": { "type": "Point", "coordinates": [ -70.655560199999897, -33.4307249 ] } },
{ "type": "Feature", "properties": { "NUM": 137.0, "INSTITUCIO": "PDI", "TIPO_UNID": "JEFATURA NACIONAL", "SIGLA": "JENADEP", "CATEGORIA": "OPERATIVA", "NOM_UNID": "JEFATURA NACIONAL DE DELITOS CONTRA LOS DERECHOS HUMANOS Y LAS PERSONAS", "NOM_VIAL": "CONDELL", "NUM_2": 264.0, "COMUNA": "PROVIDENCIA", "REGION": "METROPOLITANA", "NUM_REG": "RM", "POINT_X": -70.6277908, "POINT_Y": -33.4374965 }, "geometry": { "type": "Point", "coordinates": [ -70.6277907999999, -33.4374965 ] } },
{ "type": "Feature", "properties": { "NUM": 139.0, "INSTITUCIO": "PDI", "TIPO_UNID": "BRIGADA", "SIGLA": "BRICO", "CATEGORIA": "OPERATIVA", "NOM_UNID": "BRIGADA INVESTIGACION DEL CRIMEN ORGANIZADO", "NOM_VIAL": "COMPANIA DE JESUS", "NUM_2": 2441.0, "COMUNA": "SANTIAGO", "REGION": "METROPOLITANA", "NUM_REG": "RM", "POINT_X": -70.6708297, "POINT_Y": -33.4405135 }, "geometry": { "type": "Point", "coordinates": [ -70.6708297, -33.4405135 ] } },
{ "type": "Feature", "properties": { "NUM": 141.0, "INSTITUCIO": "PDI", "TIPO_UNID": "BRIGADA", "SIGLA": "BIRO", "CATEGORIA": "OPERATIVA", "NOM_UNID": "BRIGADA INVESTIGADORA DE ROBOS METROPOLITANA CENTRO NORTE", "NOM_VIAL": "ROSAS", "NUM_2": 1407.0, "COMUNA": "SANTIAGO", "REGION": "METROPOLITANA", "NUM_REG": "RM", "POINT_X": -70.657380675799999, "POINT_Y": -33.435539671000001 }, "geometry": { "type": "Point", "coordinates": [ -70.657380675817862, -33.435539670981619 ] } },
{ "type": "Feature", "properties": { "NUM": 169.0, "INSTITUCIO": "PDI", "TIPO_UNID": "CUARTEL", "SIGLA": "0", "CATEGORIA": "OPERATIVA", "NOM_UNID": "CUARTEL EXTRANJERIA", "NOM_VIAL": "ELEUTERIO RAMIREZ", "NUM_2": 852.0, "COMUNA": "SANTIAGO", "REGION": "METROPOLITANA", "NUM_REG": "RM", "POINT_X": -70.6474737, "POINT_Y": -33.4487575 }, "geometry": { "type": "Point", "coordinates": [ -70.647473699999907, -33.4487575 ] } },
{ "type": "Feature", "properties": { "NUM": 177.0, "INSTITUCIO": "PDI", "TIPO_UNID": "CENTRO", "SIGLA": "CENACRIM", "CATEGORIA": "OPERATIVA", "NOM_UNID": "CENTRO NACIONAL DE ANÁLISIS CRIMINAL", "NOM_VIAL": "TEATINOS", "NUM_2": 950.0, "COMUNA": "SANTIAGO", "REGION": "METROPOLITANA", "NUM_REG": "RM", "POINT_X": -70.6560779, "POINT_Y": -33.432653 }, "geometry": { "type": "Point", "coordinates": [ -70.6560778999999, -33.432653 ] } }
]
}
