{
"type": "FeatureCollection",
"name": "atracciones_turisticas_filtradas",
"crs": { "type": "name", "properties": { "name": "urn:ogc:def:crs:EPSG::32719" } },
"features": [
{ "type": "Feature", "properties": { "addr_city": "Santiago", "addr_country": null, "addr_housenumber": "391", "addr_postcode": "8350485", "addr_street": "Pasaje Lucrecia Valdes De Barros", "addr_unit": null, "amenity": null, "attraction": null, "bicycle": null, "board_type": null, "building": null, "building_levels": null, "description": null, "ele": null, "historic": null, "information": null, "name": "Bed and Breakfast Brothers", "name_en": "BNB Bros", "name_es": null, "opening_hours": null, "operator": null, "phone": null, "ref": null, "source_transform": null, "tourism": "guest_house", "website": null, "wheelchair": null, "zoo": null, "objectid": 6539137, "osm_id2": "5542015021", "centroide_x": 344217.08791504387, "centroide_y": 6298519.0267686239, "crs_original": "EPSG:4326", "fecha_normalizacion": "2025-10-10 01:59:23" }, "geometry": { "type": "Point", "coordinates": [ 344217.087915043870453, 6298519.02676862385124 ] } },
{ "type": "Feature", "properties": { "addr_city": "Santiago", "addr_country": "CL", "addr_housenumber": null, "addr_postcode": null, "addr_street": "Santo Domingo", "addr_unit": null, "amenity": null, "attraction": null, "bicycle": null, "board_type": null, "building": null, "building_levels": null, "description": null, "ele": null, "historic": null, "information": null, "name": "Museo Infantil", "name_en": null, "name_es": null, "opening_hours": null, "operator": "Corporación Privada para la Divulgación de la Ciencia y Tecnología (Corpdicyt)", "phone": null, "ref": null, "source_transform": null, "tourism": "museum", "website": "http://www.corpdicyt.cl/minfantil/", "wheelchair": null, "zoo": null, "objectid": 6540492, "osm_id2": "2463424205", "centroide_x": 343489.87344434159, "centroide_y": 6298685.5932837948, "crs_original": "EPSG:4326", "fecha_normalizacion": "2025-10-10 01:59:23" }, "geometry": { "type": "Point", "coordinates": [ 343489.873444341588765, 6298685.593283794820309 ] } },
{ "type": "Feature", "properties": { "addr_city": "Estación Central", "addr_country": null, "addr_housenumber": "1240", "addr_postcode": null, "addr_street": "San Francisco de Borja", "addr_unit": null, "amenity": null, "attraction": null, "bicycle": null, "board_type": null, "building": null, "building_levels": null, "description": null, "ele": null, "historic": null, "information": null, "name": "Museo Jedimar", "name_en": null, "name_es": null, "opening_hours": null, "operator": "Turbus", "phone": null, "ref": null, "source_transform": null, "tourism": "attraction", "website": null, "wheelchair": null, "zoo": null, "objectid": 10183742, "osm_id2": "10822849636", "centroide_x": 343271.29595842073, "centroide_y": 6297173.5337028271, "crs_original": "EPSG:4326", "fecha_normalizacion": "2025-10-10 01:59:23" }, "geometry": { "type": "Point", "coordinates": [ 343271.295958420727402, 6297173.533702827058733 ] } },
{ "type": "Feature", "properties": { "addr_city": "Santiago", "addr_country": null, "addr_housenumber": null, "addr_postcode": null, "addr_street": "Matucana", "addr_unit": null, "amenity": null, "attraction": null, "bicycle": null, "board_type": null, "building": null, "building_levels": null, "description": null, "ele": null, "historic": null, "information": null, "name": "Galería de la Memoria", "name_en": null, "name_es": null, "opening_hours": null, "operator": "Museo de la Memoria y los DD.HH.", "phone": null, "ref": null, "source_transform": null, "tourism": "attraction", "website": null, "wheelchair": null, "zoo": null, "objectid": 10375421, "osm_id2": "10975976055", "centroide_x": 343861.85643495445, "centroide_y": 6298653.6119251996, "crs_original": "EPSG:4326", "fecha_normalizacion": "2025-10-10 01:59:23" }, "geometry": { "type": "Point", "coordinates": [ 343861.85643495444674, 6298653.611925199627876 ] } },
{ "type": "Feature", "properties": { "addr_city": "Santiago", "addr_country": null, "addr_housenumber": null, "addr_postcode": null, "addr_street": "Matucana", "addr_unit": null, "amenity": null, "attraction": null, "bicycle": null, "board_type": null, "building": null, "building_levels": null, "description": null, "ele": null, "historic": null, "information": null, "name": "Sala Pablo Neruda", "name_en": null, "name_es": null, "opening_hours": null, "operator": "Corporación Cultural MetroArte", "phone": null, "ref": null, "source_transform": null, "tourism": "gallery", "website": null, "wheelchair": null, "zoo": null, "objectid": 10375419, "osm_id2": "10975976053", "centroide_x": 343835.2837187089, "centroide_y": 6298646.483156532, "crs_original": "EPSG:4326", "fecha_normalizacion": "2025-10-10 01:59:23" }, "geometry": { "type": "Point", "coordinates": [ 343835.283718708902597, 6298646.483156532049179 ] } },
{ "type": "Feature", "properties": { "addr_city": "Santiago", "addr_country": null, "addr_housenumber": "304", "addr_postcode": null, "addr_street": "Libertad", "addr_unit": null, "amenity": null, "attraction": null, "bicycle": null, "board_type": null, "building": null, "building_levels": null, "description": null, "ele": null, "historic": null, "information": null, "name": "Galería Hifas", "name_en": null, "name_es": null, "opening_hours": null, "operator": null, "phone": null, "ref": null, "source_transform": null, "tourism": "gallery", "website": null, "wheelchair": null, "zoo": null, "objectid": 10760271, "osm_id2": "11179738327", "centroide_x": 344382.83871947764, "centroide_y": 6298471.6749888537, "crs_original": "EPSG:4326", "fecha_normalizacion": "2025-10-10 01:59:23" }, "geometry": { "type": "Point", "coordinates": [ 344382.83871947764419, 6298471.674988853745162 ] } },
{ "type": "Feature", "properties": { "addr_city": "Santiago", "addr_country": null, "addr_housenumber": "232", "addr_postcode": null, "addr_street": "Rafael Sotomayor", "addr_unit": null, "amenity": null, "attraction": null, "bicycle": null, "board_type": null, "building": null, "building_levels": null, "description": null, "ele": null, "historic": null, "information": null, "name": "Galería de Arte Contemporáneo TIM", "name_en": null, "name_es": null, "opening_hours": null, "operator": "The Intuitive Machine", "phone": null, "ref": null, "source_transform": null, "tourism": "gallery", "website": null, "wheelchair": null, "zoo": null, "objectid": 10760272, "osm_id2": "11179738328", "centroide_x": 344472.73368171335, "centroide_y": 6298391.699510552, "crs_original": "EPSG:4326", "fecha_normalizacion": "2025-10-10 01:59:23" }, "geometry": { "type": "Point", "coordinates": [ 344472.733681713347323, 6298391.699510551989079 ] } },
{ "type": "Feature", "properties": { "addr_city": "Santiago", "addr_country": null, "addr_housenumber": "1717", "addr_postcode": "8370778", "addr_street": "Francisco Pizarro", "addr_unit": null, "amenity": null, "attraction": null, "bicycle": null, "board_type": null, "building": null, "building_levels": null, "description": null, "ele": null, "historic": null, "information": null, "name": "Gatos de campo, tiernos y traviesos", "name_en": null, "name_es": null, "opening_hours": null, "operator": null, "phone": "+56998913632", "ref": null, "source_transform": null, "tourism": "hotel", "website": null, "wheelchair": null, "zoo": null, "objectid": 6568516, "osm_id2": "8248463356", "centroide_x": 344786.68639241252, "centroide_y": 6295392.5355047099, "crs_original": "EPSG:4326", "fecha_normalizacion": "2025-10-10 01:59:23" }, "geometry": { "type": "Point", "coordinates": [ 344786.686392412520945, 6295392.535504709929228 ] } },
{ "type": "Feature", "properties": { "addr_city": "Santiago", "addr_country": null, "addr_housenumber": "2780", "addr_postcode": null, "addr_street": "Manuel de Amat", "addr_unit": null, "amenity": null, "attraction": null, "bicycle": null, "board_type": null, "building": null, "building_levels": null, "description": null, "ele": null, "historic": null, "information": null, "name": "Blu", "name_en": null, "name_es": null, "opening_hours": null, "operator": null, "phone": "+56 34 231 7644", "ref": null, "source_transform": null, "tourism": "hotel", "website": "https://hotelblu.cl/", "wheelchair": null, "zoo": null, "objectid": 8837920, "osm_id2": "9519462090", "centroide_x": 344706.34523608629, "centroide_y": 6295526.4494552426, "crs_original": "EPSG:4326", "fecha_normalizacion": "2025-10-10 01:59:23" }, "geometry": { "type": "Point", "coordinates": [ 344706.345236086286604, 6295526.449455242604017 ] } },
{ "type": "Feature", "properties": { "addr_city": "La Reina", "addr_country": null, "addr_housenumber": null, "addr_postcode": null, "addr_street": null, "addr_unit": null, "amenity": null, "attraction": null, "bicycle": null, "board_type": null, "building": null, "building_levels": null, "description": null, "ele": null, "historic": null, "information": null, "name": "zona de picnic frío", "name_en": null, "name_es": null, "opening_hours": null, "operator": "RENAMU Mawida", "phone": null, "ref": null, "source_transform": null, "tourism": "picnic_site", "website": null, "wheelchair": null, "zoo": null, "objectid": 6376674, "osm_id2": "1406574548", "centroide_x": 359111.28396615176, "centroide_y": 6296994.0571553614, "crs_original": "EPSG:4326", "fecha_normalizacion": "2025-10-10 01:59:23" }, "geometry": { "type": "Point", "coordinates": [ 359111.283966151764616, 6296994.057155361399055 ] } },
{ "type": "Feature", "properties": { "addr_city": "La Reina", "addr_country": null, "addr_housenumber": null, "addr_postcode": null, "addr_street": "Parque Mahuida", "addr_unit": null, "amenity": null, "attraction": null, "bicycle": null, "board_type": null, "building": null, "building_levels": null, "description": null, "ele": null, "historic": null, "information": "office", "name": "Oficinas de Montaña y Educación", "name_en": null, "name_es": null, "opening_hours": null, "operator": "Municipalidad de La Reina", "phone": null, "ref": null, "source_transform": null, "tourism": "information", "website": null, "wheelchair": null, "zoo": null, "objectid": 11032517, "osm_id2": "11409906763", "centroide_x": 358941.85753086372, "centroide_y": 6297108.6129953638, "crs_original": "EPSG:4326", "fecha_normalizacion": "2025-10-10 01:59:23" }, "geometry": { "type": "Point", "coordinates": [ 358941.857530863722786, 6297108.612995363771915 ] } },
{ "type": "Feature", "properties": { "addr_city": "La Reina", "addr_country": null, "addr_housenumber": "311", "addr_postcode": null, "addr_street": "Álvaro Casanova", "addr_unit": null, "amenity": null, "attraction": null, "bicycle": null, "board_type": null, "building": null, "building_levels": null, "description": null, "ele": null, "historic": null, "information": null, "name": "Casa de Campo de Carabineros", "name_en": null, "name_es": null, "opening_hours": null, "operator": null, "phone": null, "ref": null, "source_transform": null, "tourism": "hotel", "website": null, "wheelchair": null, "zoo": null, "objectid": 6376384, "osm_id2": "4488337992", "centroide_x": 359004.97027022403, "centroide_y": 6297964.573534688, "crs_original": "EPSG:4326", "fecha_normalizacion": "2025-10-10 01:59:23" }, "geometry": { "type": "Point", "coordinates": [ 359004.970270224031992, 6297964.573534687981009 ] } },
{ "type": "Feature", "properties": { "addr_city": "La Reina", "addr_country": null, "addr_housenumber": null, "addr_postcode": null, "addr_street": "Sendero Loma Pelada (3 km.)", "addr_unit": null, "amenity": null, "attraction": null, "bicycle": null, "board_type": null, "building": null, "building_levels": null, "description": null, "ele": null, "historic": null, "information": "office", "name": "Caseta de Guardaparques", "name_en": null, "name_es": null, "opening_hours": null, "operator": "Parque Mahuida", "phone": null, "ref": null, "source_transform": null, "tourism": "information", "website": null, "wheelchair": null, "zoo": null, "objectid": 11032530, "osm_id2": "11409913242", "centroide_x": 359368.46897659008, "centroide_y": 6296816.5286098225, "crs_original": "EPSG:4326", "fecha_normalizacion": "2025-10-10 01:59:23" }, "geometry": { "type": "Point", "coordinates": [ 359368.468976590083912, 6296816.528609822504222 ] } },
{ "type": "Feature", "properties": { "addr_city": "Santiago", "addr_country": "CL", "addr_housenumber": "506", "addr_postcode": null, "addr_street": "Ismael Valdés Vergara", "addr_unit": null, "amenity": null, "attraction": null, "bicycle": null, "board_type": null, "building": null, "building_levels": null, "description": null, "ele": null, "historic": null, "information": null, "name": "Museo de Arte Contemporáneo", "name_en": "Museum of Contemporary Art", "name_es": null, "opening_hours": null, "operator": null, "phone": null, "ref": null, "source_transform": null, "tourism": "gallery", "website": "https://www.mac.uchile.cl/", "wheelchair": "no", "zoo": null, "objectid": 6386221, "osm_id2": "8197637769", "centroide_x": 347129.27283503104, "centroide_y": 6299265.7647377159, "crs_original": "EPSG:4326", "fecha_normalizacion": "2025-10-10 01:59:23" }, "geometry": { "type": "Point", "coordinates": [ 347129.272835031035356, 6299265.764737715944648 ] } },
{ "type": "Feature", "properties": { "addr_city": "Santiago", "addr_country": "CL", "addr_housenumber": "307", "addr_postcode": null, "addr_street": "José Victorino Lastarria", "addr_unit": null, "amenity": null, "attraction": null, "bicycle": null, "board_type": null, "building": null, "building_levels": null, "description": null, "ele": null, "historic": null, "information": null, "name": "Museo de Artes Visuales", "name_en": null, "name_es": null, "opening_hours": null, "operator": "Fundación Cultural Plaza Mulato", "phone": null, "ref": null, "source_transform": null, "tourism": "gallery", "website": "https://www.mavi.cl/", "wheelchair": "yes", "zoo": null, "objectid": 6386405, "osm_id2": "1773356036", "centroide_x": 347492.88588351285, "centroide_y": 6298992.8618322136, "crs_original": "EPSG:4326", "fecha_normalizacion": "2025-10-10 01:59:23" }, "geometry": { "type": "Point", "coordinates": [ 347492.885883512848523, 6298992.861832213588059 ] } },
{ "type": "Feature", "properties": { "addr_city": "Santiago", "addr_country": null, "addr_housenumber": "41", "addr_postcode": null, "addr_street": "Concha y Toro", "addr_unit": null, "amenity": null, "attraction": null, "bicycle": null, "board_type": null, "building": null, "building_levels": null, "description": null, "ele": null, "historic": null, "information": null, "name": null, "name_en": null, "name_es": null, "opening_hours": null, "operator": null, "phone": null, "ref": null, "source_transform": null, "tourism": "guest_house", "website": null, "wheelchair": null, "zoo": null, "objectid": 6539599, "osm_id2": "5008531422", "centroide_x": 345187.88534551911, "centroide_y": 6298066.4921351913, "crs_original": "EPSG:4326", "fecha_normalizacion": "2025-10-10 01:59:23" }, "geometry": { "type": "Point", "coordinates": [ 345187.885345519112889, 6298066.492135191336274 ] } },
{ "type": "Feature", "properties": { "addr_city": "Santiago", "addr_country": "CL", "addr_housenumber": "659", "addr_postcode": null, "addr_street": "Marcoleta", "addr_unit": null, "amenity": null, "attraction": null, "bicycle": null, "board_type": null, "building": null, "building_levels": null, "description": null, "ele": null, "historic": null, "information": null, "name": "Museo Masónico", "name_en": null, "name_es": null, "opening_hours": null, "operator": null, "phone": null, "ref": null, "source_transform": null, "tourism": "museum", "website": null, "wheelchair": null, "zoo": null, "objectid": 6389375, "osm_id2": "1278934534", "centroide_x": 347080.92336514534, "centroide_y": 6298308.7897219667, "crs_original": "EPSG:4326", "fecha_normalizacion": "2025-10-10 01:59:23" }, "geometry": { "type": "Point", "coordinates": [ 347080.923365145339631, 6298308.789721966721117 ] } },
{ "type": "Feature", "properties": { "addr_city": "Santiago", "addr_country": null, "addr_housenumber": null, "addr_postcode": null, "addr_street": "Mapocho 42k", "addr_unit": null, "amenity": null, "attraction": null, "bicycle": null, "board_type": null, "building": null, "building_levels": null, "description": null, "ele": null, "historic": null, "information": null, "name": "Tajamares del Mapocho", "name_en": null, "name_es": null, "opening_hours": null, "operator": null, "phone": null, "ref": null, "source_transform": null, "tourism": "attraction", "website": null, "wheelchair": null, "zoo": null, "objectid": 6525132, "osm_id2": "7931620608", "centroide_x": 344406.94874285068, "centroide_y": 6300207.4998253062, "crs_original": "EPSG:4326", "fecha_normalizacion": "2025-10-10 01:59:23" }, "geometry": { "type": "Point", "coordinates": [ 344406.94874285068363, 6300207.499825306236744 ] } },
{ "type": "Feature", "properties": { "addr_city": "Santiago", "addr_country": null, "addr_housenumber": "1199", "addr_postcode": null, "addr_street": "Huérfanos", "addr_unit": null, "amenity": "pharmacy", "attraction": null, "bicycle": null, "board_type": null, "building": null, "building_levels": null, "description": null, "ele": null, "historic": null, "information": null, "name": "La Botica Salcobrand", "name_en": null, "name_es": null, "opening_hours": null, "operator": null, "phone": null, "ref": null, "source_transform": "Reconocimiento cortográfico de campo 2016 por KG", "tourism": "attraction", "website": null, "wheelchair": null, "zoo": null, "objectid": 6536368, "osm_id2": "2584336818", "centroide_x": 346290.27387368574, "centroide_y": 6298734.619956946, "crs_original": "EPSG:4326", "fecha_normalizacion": "2025-10-10 01:59:23" }, "geometry": { "type": "Point", "coordinates": [ 346290.273873685742728, 6298734.619956946000457 ] } },
{ "type": "Feature", "properties": { "addr_city": "Santiago", "addr_country": "CL", "addr_housenumber": "834", "addr_postcode": null, "addr_street": "Avenida Libertador Bernardo O'Higgins", "addr_unit": null, "amenity": null, "attraction": null, "bicycle": null, "board_type": null, "building": null, "building_levels": null, "description": null, "ele": null, "historic": null, "information": null, "name": "Museo de Arte Colonial de San Francisco", "name_en": null, "name_es": null, "opening_hours": "Mo-Fr 09:30-13:30,15:00-18:00; Sa,Su 10:00-14:00", "operator": null, "phone": "+56 2 26398737", "ref": null, "source_transform": "survey", "tourism": "museum", "website": "http://www.museosanfrancisco.com", "wheelchair": null, "zoo": null, "objectid": 6537293, "osm_id2": "1297908112", "centroide_x": 346832.70557938854, "centroide_y": 6298318.5775676984, "crs_original": "EPSG:4326", "fecha_normalizacion": "2025-10-10 01:59:23" }, "geometry": { "type": "Point", "coordinates": [ 346832.705579388537444, 6298318.577567698433995 ] } },
{ "type": "Feature", "properties": { "addr_city": "Santiago", "addr_country": "CL", "addr_housenumber": "661", "addr_postcode": null, "addr_street": "Enrique Mac Iver", "addr_unit": null, "amenity": null, "attraction": null, "bicycle": null, "board_type": null, "building": null, "building_levels": null, "description": null, "ele": null, "historic": null, "information": null, "name": "Santiago Backpackers", "name_en": null, "name_es": null, "opening_hours": null, "operator": null, "phone": "+56 2 26648451", "ref": null, "source_transform": null, "tourism": "hostel", "website": "https://www.santiagobackpackers.com/", "wheelchair": null, "zoo": null, "objectid": 6533872, "osm_id2": "1748379180", "centroide_x": 346866.51057592867, "centroide_y": 6299239.9985666126, "crs_original": "EPSG:4326", "fecha_normalizacion": "2025-10-10 01:59:23" }, "geometry": { "type": "Point", "coordinates": [ 346866.510575928667095, 6299239.99856661260128 ] } },
{ "type": "Feature", "properties": { "addr_city": "Santiago", "addr_country": null, "addr_housenumber": "457", "addr_postcode": null, "addr_street": "Almirante Barroso", "addr_unit": null, "amenity": null, "attraction": null, "bicycle": null, "board_type": null, "building": null, "building_levels": null, "description": null, "ele": null, "historic": null, "information": null, "name": "Walking Santiago Boutique Hostel", "name_en": null, "name_es": null, "opening_hours": null, "operator": null, "phone": null, "ref": null, "source_transform": null, "tourism": "hostel", "website": null, "wheelchair": null, "zoo": null, "objectid": 6536963, "osm_id2": "5118516922", "centroide_x": 345483.55866427702, "centroide_y": 6298816.0634945333, "crs_original": "EPSG:4326", "fecha_normalizacion": "2025-10-10 01:59:23" }, "geometry": { "type": "Point", "coordinates": [ 345483.558664277021307, 6298816.0634945333004 ] } },
{ "type": "Feature", "properties": { "addr_city": "Santiago", "addr_country": null, "addr_housenumber": "2191", "addr_postcode": null, "addr_street": "Grajales", "addr_unit": null, "amenity": null, "attraction": null, "bicycle": null, "board_type": null, "building": null, "building_levels": null, "description": null, "ele": null, "historic": null, "information": null, "name": "Motel Sol & Luna", "name_en": null, "name_es": null, "opening_hours": null, "operator": null, "phone": null, "ref": null, "source_transform": null, "tourism": "motel", "website": null, "wheelchair": null, "zoo": null, "objectid": 6543795, "osm_id2": "4984101665", "centroide_x": 345150.25246488018, "centroide_y": 6297382.8845872618, "crs_original": "EPSG:4326", "fecha_normalizacion": "2025-10-10 01:59:23" }, "geometry": { "type": "Point", "coordinates": [ 345150.252464880177286, 6297382.8845872618258 ] } },
{ "type": "Feature", "properties": { "addr_city": "Santiago", "addr_country": "CL", "addr_housenumber": null, "addr_postcode": null, "addr_street": "Avenida Presidente Bulnes", "addr_unit": null, "amenity": null, "attraction": null, "bicycle": null, "board_type": null, "building": "yes", "building_levels": null, "description": null, "ele": null, "historic": null, "information": null, "name": "Altar de la Patria", "name_en": null, "name_es": null, "opening_hours": null, "operator": "Escuela Militar del Libertador Bernardo O'Higgins", "phone": null, "ref": null, "source_transform": null, "tourism": "museum", "website": null, "wheelchair": null, "zoo": null, "objectid": 10020526, "osm_id2": "10702579775", "centroide_x": 346326.48939020938, "centroide_y": 6298076.6089826254, "crs_original": "EPSG:4326", "fecha_normalizacion": "2025-10-10 01:59:23" }, "geometry": { "type": "Point", "coordinates": [ 346326.489390209375415, 6298076.608982625417411 ] } },
{ "type": "Feature", "properties": { "addr_city": "Santiago", "addr_country": null, "addr_housenumber": null, "addr_postcode": null, "addr_street": "Virginia Opazo", "addr_unit": null, "amenity": null, "attraction": null, "bicycle": null, "board_type": null, "building": null, "building_levels": null, "description": null, "ele": null, "historic": null, "information": null, "name": "Conjunto Virginia Opazo", "name_en": null, "name_es": null, "opening_hours": null, "operator": null, "phone": null, "ref": null, "source_transform": null, "tourism": "attraction", "website": null, "wheelchair": null, "zoo": null, "objectid": 10227513, "osm_id2": "10863898391", "centroide_x": 344864.87707968755, "centroide_y": 6297647.0304328604, "crs_original": "EPSG:4326", "fecha_normalizacion": "2025-10-10 01:59:23" }, "geometry": { "type": "Point", "coordinates": [ 344864.877079687546939, 6297647.030432860367 ] } },
{ "type": "Feature", "properties": { "addr_city": "Santiago", "addr_country": "CL", "addr_housenumber": null, "addr_postcode": null, "addr_street": "Plaza de Armas", "addr_unit": null, "amenity": null, "attraction": null, "bicycle": null, "board_type": null, "building": null, "building_levels": null, "description": null, "ele": null, "historic": null, "information": null, "name": "STGO", "name_en": null, "name_es": null, "opening_hours": null, "operator": "Municipalidad de Santiago", "phone": null, "ref": null, "source_transform": null, "tourism": "attraction", "website": null, "wheelchair": null, "zoo": null, "objectid": 10255738, "osm_id2": "10882467334", "centroide_x": 346622.55396493, "centroide_y": 6299007.9019489959, "crs_original": "EPSG:4326", "fecha_normalizacion": "2025-10-10 01:59:23" }, "geometry": { "type": "Point", "coordinates": [ 346622.55396493000444, 6299007.901948995888233 ] } },
{ "type": "Feature", "properties": { "addr_city": "Santiago", "addr_country": null, "addr_housenumber": "25", "addr_postcode": null, "addr_street": "Morandé", "addr_unit": null, "amenity": null, "attraction": null, "bicycle": null, "board_type": null, "building": null, "building_levels": null, "description": null, "ele": null, "historic": null, "information": null, "name": "Museo del Ahorro", "name_en": null, "name_es": null, "opening_hours": "Mo-Fr 09:00-14:00", "operator": "Banco Estado", "phone": null, "ref": null, "source_transform": null, "tourism": "museum", "website": null, "wheelchair": null, "zoo": null, "objectid": 10296987, "osm_id2": "10915399287", "centroide_x": 346366.82569020975, "centroide_y": 6298310.4368679989, "crs_original": "EPSG:4326", "fecha_normalizacion": "2025-10-10 01:59:23" }, "geometry": { "type": "Point", "coordinates": [ 346366.825690209749155, 6298310.43686799891293 ] } },
{ "type": "Feature", "properties": { "addr_city": "Santiago", "addr_country": null, "addr_housenumber": "650", "addr_postcode": null, "addr_street": "José Miguel de la Barra", "addr_unit": null, "amenity": null, "attraction": null, "bicycle": null, "board_type": null, "building": null, "building_levels": null, "description": null, "ele": null, "historic": null, "information": null, "name": "Museo Nacional de Bellas Artes", "name_en": null, "name_es": null, "opening_hours": null, "operator": "Servicio Nacional del Patrimonio Cultural", "phone": null, "ref": null, "source_transform": null, "tourism": "museum", "website": "http://www.mnba.cl/", "wheelchair": null, "zoo": null, "objectid": 10312259, "osm_id2": "10925461823", "centroide_x": 347226.77749404538, "centroide_y": 6299240.9646624681, "crs_original": "EPSG:4326", "fecha_normalizacion": "2025-10-10 01:59:23" }, "geometry": { "type": "Point", "coordinates": [ 347226.7774940453819, 6299240.964662468060851 ] } },
{ "type": "Feature", "properties": { "addr_city": "Santiago", "addr_country": null, "addr_housenumber": "438", "addr_postcode": null, "addr_street": "Dieciocho", "addr_unit": null, "amenity": null, "attraction": null, "bicycle": null, "board_type": null, "building": null, "building_levels": null, "description": null, "ele": null, "historic": null, "information": null, "name": "Museo Palacio Cousiño", "name_en": null, "name_es": null, "opening_hours": null, "operator": "Santiago Cultura", "phone": null, "ref": null, "source_transform": null, "tourism": "museum", "website": "http://www.palaciocousino.cl/", "wheelchair": null, "zoo": null, "objectid": 10317714, "osm_id2": "10928002663", "centroide_x": 346034.81483219279, "centroide_y": 6297332.8295474509, "crs_original": "EPSG:4326", "fecha_normalizacion": "2025-10-10 01:59:23" }, "geometry": { "type": "Point", "coordinates": [ 346034.814832192787435, 6297332.829547450877726 ] } },
{ "type": "Feature", "properties": { "addr_city": "Santiago", "addr_country": null, "addr_housenumber": "50", "addr_postcode": null, "addr_street": "Merced", "addr_unit": null, "amenity": null, "attraction": null, "bicycle": null, "board_type": null, "building": null, "building_levels": null, "description": null, "ele": null, "historic": null, "information": null, "name": "Museo de Química y Farmacia", "name_en": null, "name_es": null, "opening_hours": null, "operator": null, "phone": null, "ref": null, "source_transform": null, "tourism": "museum", "website": null, "wheelchair": null, "zoo": null, "objectid": 10317719, "osm_id2": "10927993051", "centroide_x": 347914.85626716295, "centroide_y": 6299068.4782894515, "crs_original": "EPSG:4326", "fecha_normalizacion": "2025-10-10 01:59:23" }, "geometry": { "type": "Point", "coordinates": [ 347914.856267162947915, 6299068.478289451450109 ] } },
{ "type": "Feature", "properties": { "addr_city": "Santiago", "addr_country": null, "addr_housenumber": "1755", "addr_postcode": null, "addr_street": "Domeyko", "addr_unit": null, "amenity": null, "attraction": null, "bicycle": null, "board_type": null, "building": null, "building_levels": null, "description": null, "ele": null, "historic": null, "information": null, "name": "Alojamiento Domeyko Ceer", "name_en": null, "name_es": null, "opening_hours": null, "operator": null, "phone": null, "ref": null, "source_transform": null, "tourism": "guest_house", "website": null, "wheelchair": null, "zoo": null, "objectid": 6544916, "osm_id2": "6103024065", "centroide_x": 345791.64027933305, "centroide_y": 6297024.6880518449, "crs_original": "EPSG:4326", "fecha_normalizacion": "2025-10-10 01:59:23" }, "geometry": { "type": "Point", "coordinates": [ 345791.640279333048966, 6297024.68805184494704 ] } },
{ "type": "Feature", "properties": { "addr_city": "Santiago", "addr_country": null, "addr_housenumber": null, "addr_postcode": null, "addr_street": "Avenida Libertador Bernardo O'Higgins", "addr_unit": null, "amenity": null, "attraction": null, "bicycle": null, "board_type": null, "building": null, "building_levels": null, "description": null, "ele": null, "historic": null, "information": null, "name": "Sala de Exposiciones Museo de Arte Popular Americano", "name_en": null, "name_es": null, "opening_hours": null, "operator": "Facultad de Artes de la Universidad de Chile", "phone": null, "ref": null, "source_transform": null, "tourism": "gallery", "website": null, "wheelchair": null, "zoo": null, "objectid": 10299342, "osm_id2": "10916736194", "centroide_x": 347617.65706495754, "centroide_y": 6298853.8925144151, "crs_original": "EPSG:4326", "fecha_normalizacion": "2025-10-10 01:59:23" }, "geometry": { "type": "Point", "coordinates": [ 347617.657064957544208, 6298853.892514415085316 ] } },
{ "type": "Feature", "properties": { "addr_city": "Santiago", "addr_country": null, "addr_housenumber": null, "addr_postcode": null, "addr_street": "Catedral", "addr_unit": null, "amenity": null, "attraction": null, "bicycle": null, "board_type": null, "building": null, "building_levels": null, "description": null, "ele": null, "historic": null, "information": null, "name": "Pinacoteca MINREL", "name_en": null, "name_es": null, "opening_hours": null, "operator": "Ministerio RR.EE.", "phone": null, "ref": null, "source_transform": null, "tourism": "gallery", "website": null, "wheelchair": null, "zoo": null, "objectid": 10299923, "osm_id2": "10917526068", "centroide_x": 346249.14415455499, "centroide_y": 6299034.4767172746, "crs_original": "EPSG:4326", "fecha_normalizacion": "2025-10-10 01:59:23" }, "geometry": { "type": "Point", "coordinates": [ 346249.144154554989655, 6299034.47671727463603 ] } },
{ "type": "Feature", "properties": { "addr_city": "Santiago", "addr_country": null, "addr_housenumber": "741", "addr_postcode": null, "addr_street": "Franklin", "addr_unit": null, "amenity": null, "attraction": null, "bicycle": null, "board_type": null, "building": null, "building_levels": null, "description": null, "ele": null, "historic": null, "information": null, "name": "Galerí AFA", "name_en": null, "name_es": null, "opening_hours": null, "operator": null, "phone": null, "ref": null, "source_transform": null, "tourism": "gallery", "website": null, "wheelchair": null, "zoo": null, "objectid": 10341582, "osm_id2": "10943405360", "centroide_x": 347317.32100897125, "centroide_y": 6295100.8026888631, "crs_original": "EPSG:4326", "fecha_normalizacion": "2025-10-10 01:59:23" }, "geometry": { "type": "Point", "coordinates": [ 347317.321008971252013, 6295100.802688863128424 ] } },
{ "type": "Feature", "properties": { "addr_city": "Santiago", "addr_country": null, "addr_housenumber": "1381", "addr_postcode": null, "addr_street": "Avenida Libertador Bernardo O'Higgins", "addr_unit": null, "amenity": null, "attraction": null, "bicycle": null, "board_type": null, "building": null, "building_levels": null, "description": null, "ele": null, "historic": null, "information": null, "name": "Galería de Arte Contemporáneo Gabriela Mistral", "name_en": null, "name_es": null, "opening_hours": null, "operator": "MINEDUC", "phone": null, "ref": null, "source_transform": null, "tourism": "gallery", "website": "http://galeriagm.cultura.gob.cl/", "wheelchair": null, "zoo": null, "objectid": 10364161, "osm_id2": "10962883556", "centroide_x": 346134.06402466993, "centroide_y": 6298211.3793303911, "crs_original": "EPSG:4326", "fecha_normalizacion": "2025-10-10 01:59:23" }, "geometry": { "type": "Point", "coordinates": [ 346134.064024669933133, 6298211.379330391064286 ] } },
{ "type": "Feature", "properties": { "addr_city": "Santiago", "addr_country": null, "addr_housenumber": "1301", "addr_postcode": null, "addr_street": "Avenida Presidente Balmaceda", "addr_unit": null, "amenity": null, "attraction": null, "bicycle": null, "board_type": null, "building": null, "building_levels": null, "description": null, "ele": null, "historic": null, "information": null, "name": "Museo del Circo Nacional", "name_en": null, "name_es": null, "opening_hours": null, "operator": null, "phone": null, "ref": null, "source_transform": null, "tourism": "museum", "website": null, "wheelchair": null, "zoo": null, "objectid": 10341493, "osm_id2": "10943273386", "centroide_x": 346062.07604341808, "centroide_y": 6299581.9107783604, "crs_original": "EPSG:4326", "fecha_normalizacion": "2025-10-10 01:59:23" }, "geometry": { "type": "Point", "coordinates": [ 346062.076043418084737, 6299581.910778360441327 ] } },
{ "type": "Feature", "properties": { "addr_city": "Santiago", "addr_country": null, "addr_housenumber": "1180", "addr_postcode": null, "addr_street": "Agustinas", "addr_unit": null, "amenity": null, "attraction": null, "bicycle": null, "board_type": null, "building": null, "building_levels": null, "description": null, "ele": null, "historic": null, "information": null, "name": "Museo Numismático", "name_en": null, "name_es": null, "opening_hours": null, "operator": "Banco Central de Chile", "phone": null, "ref": null, "source_transform": null, "tourism": "museum", "website": "https://www.museobancocentral.cl/", "wheelchair": null, "zoo": null, "objectid": 10341494, "osm_id2": "10943273387", "centroide_x": 346364.89893625572, "centroide_y": 6298585.3849299792, "crs_original": "EPSG:4326", "fecha_normalizacion": "2025-10-10 01:59:23" }, "geometry": { "type": "Point", "coordinates": [ 346364.898936255718581, 6298585.384929979220033 ] } },
{ "type": "Feature", "properties": { "addr_city": "Santiago", "addr_country": null, "addr_housenumber": null, "addr_postcode": null, "addr_street": "Plaza de Armas", "addr_unit": null, "amenity": null, "attraction": null, "bicycle": null, "board_type": null, "building": null, "building_levels": null, "description": null, "ele": null, "historic": null, "information": null, "name": "Museo de Arte Sagrado", "name_en": null, "name_es": null, "opening_hours": null, "operator": "Catedral Metropolitana de Santiago", "phone": null, "ref": null, "source_transform": null, "tourism": "museum", "website": "https://www.iglesiadesantiago.cl/", "wheelchair": null, "zoo": null, "objectid": 10341497, "osm_id2": "10943273390", "centroide_x": 346470.79410073883, "centroide_y": 6298948.703897032, "crs_original": "EPSG:4326", "fecha_normalizacion": "2025-10-10 01:59:23" }, "geometry": { "type": "Point", "coordinates": [ 346470.794100738829002, 6298948.703897031955421 ] } },
{ "type": "Feature", "properties": { "addr_city": "Santiago", "addr_country": null, "addr_housenumber": "951", "addr_postcode": null, "addr_street": "Libertador Bernardo O'Higgins", "addr_unit": null, "amenity": null, "attraction": null, "bicycle": null, "board_type": null, "building": "yes", "building_levels": null, "description": null, "ele": null, "historic": null, "information": null, "name": "Museo Histórico Nacional", "name_en": null, "name_es": null, "opening_hours": null, "operator": null, "phone": "+56 2 2360 5272", "ref": null, "source_transform": null, "tourism": "museum", "website": null, "wheelchair": null, "zoo": null, "objectid": 10365024, "osm_id2": "10963945038", "centroide_x": 346562.22451859433, "centroide_y": 6299034.0626661908, "crs_original": "EPSG:4326", "fecha_normalizacion": "2025-10-10 01:59:23" }, "geometry": { "type": "Point", "coordinates": [ 346562.224518594332039, 6299034.06266619078815 ] } },
{ "type": "Feature", "properties": { "addr_city": "Santiago", "addr_country": null, "addr_housenumber": null, "addr_postcode": null, "addr_street": "Paseo República", "addr_unit": null, "amenity": null, "attraction": null, "bicycle": null, "board_type": null, "building": null, "building_levels": null, "description": null, "ele": null, "historic": null, "information": null, "name": "Casonas de Avenida República", "name_en": null, "name_es": null, "opening_hours": null, "operator": null, "phone": null, "ref": null, "source_transform": null, "tourism": "attraction", "website": null, "wheelchair": null, "zoo": null, "objectid": 10368122, "osm_id2": "10967136577", "centroide_x": 345033.20651387365, "centroide_y": 6297243.7051543146, "crs_original": "EPSG:4326", "fecha_normalizacion": "2025-10-10 01:59:23" }, "geometry": { "type": "Point", "coordinates": [ 345033.206513873650692, 6297243.705154314637184 ] } },
{ "type": "Feature", "properties": { "addr_city": "Santiago", "addr_country": null, "addr_housenumber": null, "addr_postcode": null, "addr_street": "Avenida Libertador Bernardo O'Higgins", "addr_unit": null, "amenity": null, "attraction": null, "bicycle": null, "board_type": null, "building": null, "building_levels": null, "description": null, "ele": null, "historic": null, "information": null, "name": "Museo del Juguete Chileno", "name_en": null, "name_es": null, "opening_hours": null, "operator": "U. Católica", "phone": null, "ref": null, "source_transform": "https://www.registromuseoschile.cl/663/w3-article-118016.html", "tourism": "museum", "website": null, "wheelchair": null, "zoo": null, "objectid": 10370886, "osm_id2": "10969732660", "centroide_x": 347414.64005928289, "centroide_y": 6298590.3411786109, "crs_original": "EPSG:4326", "fecha_normalizacion": "2025-10-10 01:59:23" }, "geometry": { "type": "Point", "coordinates": [ 347414.640059282886796, 6298590.341178610920906 ] } },
{ "type": "Feature", "properties": { "addr_city": "Santiago", "addr_country": null, "addr_housenumber": "84", "addr_postcode": null, "addr_street": "Merced", "addr_unit": null, "amenity": null, "attraction": null, "bicycle": null, "board_type": null, "building": null, "building_levels": null, "description": null, "ele": null, "historic": null, "information": null, "name": "Luciano K", "name_en": null, "name_es": null, "opening_hours": null, "operator": null, "phone": null, "ref": null, "source_transform": null, "tourism": "hotel", "website": null, "wheelchair": null, "zoo": null, "objectid": 6386057, "osm_id2": "4919896014", "centroide_x": 347875.39885415731, "centroide_y": 6299069.753822119, "crs_original": "EPSG:4326", "fecha_normalizacion": "2025-10-10 01:59:23" }, "geometry": { "type": "Point", "coordinates": [ 347875.398854157305323, 6299069.753822118975222 ] } },
{ "type": "Feature", "properties": { "addr_city": "Santiago", "addr_country": null, "addr_housenumber": "136", "addr_postcode": "6513491", "addr_street": "Avenida Libertador Bernardo O'Higgins", "addr_unit": null, "amenity": null, "attraction": null, "bicycle": null, "board_type": null, "building": null, "building_levels": null, "description": null, "ele": null, "historic": null, "information": null, "name": "Le Meridien Hotel", "name_en": null, "name_es": null, "opening_hours": null, "operator": null, "phone": "+56 2 2685 5030", "ref": null, "source_transform": null, "tourism": "hotel", "website": "https://www.marriott.com/es/hotels/sclhp-le-meridien-santiago/overview/", "wheelchair": null, "zoo": null, "objectid": 6386155, "osm_id2": "252528804", "centroide_x": 347838.50259417691, "centroide_y": 6298907.7940321611, "crs_original": "EPSG:4326", "fecha_normalizacion": "2025-10-10 01:59:23" }, "geometry": { "type": "Point", "coordinates": [ 347838.50259417691268, 6298907.794032161124051 ] } },
{ "type": "Feature", "properties": { "addr_city": "Santiago", "addr_country": null, "addr_housenumber": "526", "addr_postcode": null, "addr_street": "Santo Domingo", "addr_unit": null, "amenity": null, "attraction": null, "bicycle": null, "board_type": null, "building": null, "building_levels": null, "description": null, "ele": null, "historic": null, "information": null, "name": "Hotel Altiplanico", "name_en": null, "name_es": null, "opening_hours": null, "operator": null, "phone": null, "ref": null, "source_transform": null, "tourism": "hotel", "website": null, "wheelchair": null, "zoo": null, "objectid": 6386238, "osm_id2": "1841310713", "centroide_x": 347092.64013417112, "centroide_y": 6299206.578375075, "crs_original": "EPSG:4326", "fecha_normalizacion": "2025-10-10 01:59:23" }, "geometry": { "type": "Point", "coordinates": [ 347092.640134171117097, 6299206.578375075012445 ] } },
{ "type": "Feature", "properties": { "addr_city": "Santiago", "addr_country": "CL", "addr_housenumber": "65", "addr_postcode": null, "addr_street": "Victoria Subercaseaux", "addr_unit": null, "amenity": null, "attraction": null, "bicycle": null, "board_type": null, "building": null, "building_levels": null, "description": null, "ele": null, "historic": null, "information": null, "name": "Hotel Windsor", "name_en": null, "name_es": null, "opening_hours": null, "operator": null, "phone": "+5624693100", "ref": null, "source_transform": null, "tourism": "hotel", "website": "http://www.hotelwindsor.cl", "wheelchair": null, "zoo": null, "objectid": 6388559, "osm_id2": "1130734017", "centroide_x": 347369.68904527335, "centroide_y": 6298696.9734213818, "crs_original": "EPSG:4326", "fecha_normalizacion": "2025-10-10 01:59:23" }, "geometry": { "type": "Point", "coordinates": [ 347369.68904527334962, 6298696.973421381786466 ] } },
{ "type": "Feature", "properties": { "addr_city": "Santiago", "addr_country": null, "addr_housenumber": "1060", "addr_postcode": null, "addr_street": "Santo Domingo", "addr_unit": null, "amenity": null, "attraction": null, "bicycle": null, "board_type": null, "building": null, "building_levels": null, "description": null, "ele": null, "historic": null, "information": null, "name": "Espacio Creativo VETA", "name_en": null, "name_es": null, "opening_hours": null, "operator": "Espacio Creativo VETA", "phone": null, "ref": null, "source_transform": null, "tourism": "gallery", "website": null, "wheelchair": null, "zoo": null, "objectid": 11402323, "osm_id2": "11992918662", "centroide_x": 346407.40795537323, "centroide_y": 6299110.4187396616, "crs_original": "EPSG:4326", "fecha_normalizacion": "2025-10-10 01:59:23" }, "geometry": { "type": "Point", "coordinates": [ 346407.407955373229925, 6299110.418739661574364 ] } },
{ "type": "Feature", "properties": { "addr_city": "Santiago", "addr_country": null, "addr_housenumber": "1061", "addr_postcode": null, "addr_street": "Santo Domingo", "addr_unit": null, "amenity": null, "attraction": null, "bicycle": null, "board_type": null, "building": null, "building_levels": null, "description": null, "ele": null, "historic": null, "information": null, "name": "Sala Gasco", "name_en": null, "name_es": null, "opening_hours": null, "operator": null, "phone": null, "ref": null, "source_transform": null, "tourism": "gallery", "website": null, "wheelchair": null, "zoo": null, "objectid": 11402324, "osm_id2": "11992918663", "centroide_x": 346405.57977292314, "centroide_y": 6299134.1696752207, "crs_original": "EPSG:4326", "fecha_normalizacion": "2025-10-10 01:59:23" }, "geometry": { "type": "Point", "coordinates": [ 346405.579772923141718, 6299134.169675220735371 ] } },
{ "type": "Feature", "properties": { "addr_city": "Santiago", "addr_country": null, "addr_housenumber": "632", "addr_postcode": null, "addr_street": "Avenida Libertador Bernardo O'Higgins", "addr_unit": null, "amenity": null, "attraction": null, "bicycle": null, "board_type": null, "building": null, "building_levels": null, "description": null, "ele": null, "historic": null, "information": null, "name": "Mercure Hotel Santiago Centro", "name_en": null, "name_es": null, "opening_hours": null, "operator": null, "phone": "+56 2 25956622", "ref": null, "source_transform": null, "tourism": "hotel", "website": "https://www.accorhotels.com/gb/hotel-8924-mercure-santiago-centro/index.shtml", "wheelchair": null, "zoo": null, "objectid": 6389321, "osm_id2": "1297908107", "centroide_x": 347074.06641780562, "centroide_y": 6298396.5693395101, "crs_original": "EPSG:4326", "fecha_normalizacion": "2025-10-10 01:59:23" }, "geometry": { "type": "Point", "coordinates": [ 347074.066417805617675, 6298396.569339510053396 ] } },
{ "type": "Feature", "properties": { "addr_city": "Santiago", "addr_country": null, "addr_housenumber": "547", "addr_postcode": null, "addr_street": "Almirante Barroso", "addr_unit": null, "amenity": null, "attraction": null, "bicycle": null, "board_type": null, "building": null, "building_levels": null, "description": null, "ele": null, "historic": null, "information": null, "name": "Hostal Yungay", "name_en": null, "name_es": null, "opening_hours": null, "operator": null, "phone": null, "ref": null, "source_transform": null, "tourism": "hotel", "website": "https://www.hostalyungay.com/", "wheelchair": null, "zoo": null, "objectid": 6534787, "osm_id2": "5265801846", "centroide_x": 345468.63835047686, "centroide_y": 6298927.4162865905, "crs_original": "EPSG:4326", "fecha_normalizacion": "2025-10-10 01:59:23" }, "geometry": { "type": "Point", "coordinates": [ 345468.638350476860069, 6298927.416286590509117 ] } },
{ "type": "Feature", "properties": { "addr_city": "Santiago", "addr_country": null, "addr_housenumber": "1178", "addr_postcode": null, "addr_street": "Paseo Huérfanos", "addr_unit": null, "amenity": null, "attraction": null, "bicycle": null, "board_type": null, "building": null, "building_levels": null, "description": null, "ele": null, "historic": null, "information": null, "name": "Gran Palace", "name_en": null, "name_es": null, "opening_hours": null, "operator": null, "phone": null, "ref": null, "source_transform": null, "tourism": "hotel", "website": null, "wheelchair": null, "zoo": null, "objectid": 6536370, "osm_id2": "2584336815", "centroide_x": 346315.02883827378, "centroide_y": 6298715.2377240332, "crs_original": "EPSG:4326", "fecha_normalizacion": "2025-10-10 01:59:23" }, "geometry": { "type": "Point", "coordinates": [ 346315.028838273778092, 6298715.23772403318435 ] } },
{ "type": "Feature", "properties": { "addr_city": "Santiago", "addr_country": "CL", "addr_housenumber": "320", "addr_postcode": "4323315", "addr_street": "Teatinos", "addr_unit": null, "amenity": null, "attraction": null, "bicycle": null, "board_type": null, "building": null, "building_levels": null, "description": null, "ele": null, "historic": null, "information": null, "name": "Panamericano", "name_en": null, "name_es": null, "opening_hours": null, "operator": null, "phone": null, "ref": null, "source_transform": null, "tourism": "hotel", "website": "http://www.hotelpanamericano.cl", "wheelchair": null, "zoo": null, "objectid": 6536388, "osm_id2": "5247229969", "centroide_x": 346107.69460900855, "centroide_y": 6298729.1294245441, "crs_original": "EPSG:4326", "fecha_normalizacion": "2025-10-10 01:59:23" }, "geometry": { "type": "Point", "coordinates": [ 346107.694609008554835, 6298729.12942454405129 ] } },
{ "type": "Feature", "properties": { "addr_city": "Santiago", "addr_country": null, "addr_housenumber": "1400", "addr_postcode": null, "addr_street": "Huérfanos", "addr_unit": null, "amenity": null, "attraction": null, "bicycle": null, "board_type": null, "building": null, "building_levels": null, "description": null, "ele": null, "historic": null, "information": null, "name": "Windsor Palace Apartment Hotel", "name_en": null, "name_es": null, "opening_hours": null, "operator": null, "phone": null, "ref": null, "source_transform": null, "tourism": "hotel", "website": null, "wheelchair": null, "zoo": null, "objectid": 6536405, "osm_id2": "1276982845", "centroide_x": 345985.05862231884, "centroide_y": 6298667.4589709882, "crs_original": "EPSG:4326", "fecha_normalizacion": "2025-10-10 01:59:23" }, "geometry": { "type": "Point", "coordinates": [ 345985.058622318843845, 6298667.458970988169312 ] } },
{ "type": "Feature", "properties": { "addr_city": "Santiago", "addr_country": null, "addr_housenumber": "65", "addr_postcode": "8320263", "addr_street": null, "addr_unit": null, "amenity": null, "attraction": null, "bicycle": null, "board_type": null, "building": null, "building_levels": null, "description": null, "ele": null, "historic": null, "information": null, "name": "Hotel Galerias", "name_en": null, "name_es": null, "opening_hours": null, "operator": null, "phone": "+56 224707400", "ref": null, "source_transform": "Reconocimiento cartográfico de campo 2016 por KG", "tourism": "hotel", "website": "http://www.hotelgalerias.cl", "wheelchair": null, "zoo": null, "objectid": 6536595, "osm_id2": "470355001", "centroide_x": 346846.44148746855, "centroide_y": 6298510.8318577278, "crs_original": "EPSG:4326", "fecha_normalizacion": "2025-10-10 01:59:23" }, "geometry": { "type": "Point", "coordinates": [ 346846.441487468546256, 6298510.831857727840543 ] } },
{ "type": "Feature", "properties": { "addr_city": "Santiago", "addr_country": null, "addr_housenumber": "816", "addr_postcode": null, "addr_street": "Avenida Libertador Bernardo O'Higgins", "addr_unit": null, "amenity": null, "attraction": null, "bicycle": null, "board_type": null, "building": null, "building_levels": null, "description": null, "ele": null, "historic": null, "information": null, "name": "Hotel Plaza San Francisco", "name_en": null, "name_es": null, "opening_hours": null, "operator": null, "phone": "+56 226393832", "ref": null, "source_transform": null, "tourism": "hotel", "website": "https://www.plazasanfrancisco.cl/", "wheelchair": null, "zoo": null, "objectid": 6537294, "osm_id2": "373489716", "centroide_x": 346789.48485460837, "centroide_y": 6298308.1317971069, "crs_original": "EPSG:4326", "fecha_normalizacion": "2025-10-10 01:59:23" }, "geometry": { "type": "Point", "coordinates": [ 346789.484854608366732, 6298308.131797106936574 ] } },
{ "type": "Feature", "properties": { "addr_city": "Santiago", "addr_country": null, "addr_housenumber": null, "addr_postcode": null, "addr_street": null, "addr_unit": null, "amenity": null, "attraction": null, "bicycle": null, "board_type": null, "building": null, "building_levels": null, "description": null, "ele": null, "historic": null, "information": null, "name": "Sala de Artes Visuales USACH", "name_en": null, "name_es": null, "opening_hours": null, "operator": null, "phone": null, "ref": null, "source_transform": null, "tourism": "gallery", "website": null, "wheelchair": null, "zoo": null, "objectid": 11679677, "osm_id2": "12241457955", "centroide_x": 345223.97990398487, "centroide_y": 6297980.6898857411, "crs_original": "EPSG:4326", "fecha_normalizacion": "2025-10-10 01:59:23" }, "geometry": { "type": "Point", "coordinates": [ 345223.97990398487309, 6297980.689885741099715 ] } },
{ "type": "Feature", "properties": { "addr_city": "Santiago", "addr_country": null, "addr_housenumber": null, "addr_postcode": null, "addr_street": "Avenida Libertador Bernardo O'Higgins", "addr_unit": null, "amenity": null, "attraction": null, "bicycle": null, "board_type": null, "building": null, "building_levels": null, "description": null, "ele": null, "historic": null, "information": null, "name": "Galería Biophilia", "name_en": null, "name_es": null, "opening_hours": null, "operator": null, "phone": null, "ref": null, "source_transform": null, "tourism": "gallery", "website": "https://www.instagram.com/galeria.biophiliaceramicas/", "wheelchair": null, "zoo": null, "objectid": 11679679, "osm_id2": "12241449380", "centroide_x": 347575.09248868877, "centroide_y": 6298849.4057323458, "crs_original": "EPSG:4326", "fecha_normalizacion": "2025-10-10 01:59:23" }, "geometry": { "type": "Point", "coordinates": [ 347575.092488688766025, 6298849.405732345767319 ] } },
{ "type": "Feature", "properties": { "addr_city": "Santiago", "addr_country": null, "addr_housenumber": "301-A", "addr_postcode": null, "addr_street": "Villavicencio", "addr_unit": null, "amenity": null, "attraction": null, "bicycle": null, "board_type": null, "building": null, "building_levels": null, "description": null, "ele": null, "historic": null, "information": null, "name": "Galeria Fotográfica FLACH", "name_en": null, "name_es": null, "opening_hours": null, "operator": null, "phone": null, "ref": null, "source_transform": null, "tourism": "gallery", "website": "https://flach.cl/", "wheelchair": null, "zoo": null, "objectid": 11679680, "osm_id2": "12241449381", "centroide_x": 347613.6581619248, "centroide_y": 6298938.2345959246, "crs_original": "EPSG:4326", "fecha_normalizacion": "2025-10-10 01:59:23" }, "geometry": { "type": "Point", "coordinates": [ 347613.658161924802698, 6298938.23459592461586 ] } },
{ "type": "Feature", "properties": { "addr_city": "Santiago", "addr_country": null, "addr_housenumber": null, "addr_postcode": null, "addr_street": null, "addr_unit": null, "amenity": null, "attraction": null, "bicycle": null, "board_type": null, "building": null, "building_levels": null, "description": null, "ele": null, "historic": null, "information": null, "name": "Sala Museo Centro Nacional de la Fotografía", "name_en": null, "name_es": null, "opening_hours": null, "operator": "UDP", "phone": null, "ref": null, "source_transform": "https://www.registromuseoschile.cl/663/w3-article-91541.html", "tourism": "gallery", "website": "https://bibliotecanicanorparra.udp.cl/", "wheelchair": null, "zoo": null, "objectid": 12227548, "osm_id2": "12542607456", "centroide_x": 345624.74267652567, "centroide_y": 6297459.9135416728, "crs_original": "EPSG:4326", "fecha_normalizacion": "2025-10-10 01:59:23" }, "geometry": { "type": "Point", "coordinates": [ 345624.742676525667775, 6297459.913541672751307 ] } },
{ "type": "Feature", "properties": { "addr_city": "Santiago", "addr_country": null, "addr_housenumber": null, "addr_postcode": null, "addr_street": "La Bolsa", "addr_unit": null, "amenity": null, "attraction": null, "bicycle": null, "board_type": null, "building": null, "building_levels": null, "description": null, "ele": null, "historic": null, "information": "office", "name": "Oficina de Información Turística Regional de Santiago", "name_en": null, "name_es": null, "opening_hours": null, "operator": "Gobierno de Santiago", "phone": null, "ref": null, "source_transform": null, "tourism": "information", "website": null, "wheelchair": null, "zoo": null, "objectid": 11101438, "osm_id2": "11563084820", "centroide_x": 346465.9075035209, "centroide_y": 6298449.8340753643, "crs_original": "EPSG:4326", "fecha_normalizacion": "2025-10-10 01:59:23" }, "geometry": { "type": "Point", "coordinates": [ 346465.907503520895261, 6298449.834075364284217 ] } },
{ "type": "Feature", "properties": { "addr_city": "Santiago", "addr_country": null, "addr_housenumber": null, "addr_postcode": null, "addr_street": "Avenida Libertador Bernardo O'Higgins", "addr_unit": null, "amenity": null, "attraction": null, "bicycle": null, "board_type": null, "building": null, "building_levels": null, "description": null, "ele": null, "historic": null, "information": null, "name": "Sala Museo Gabriela Mistral", "name_en": null, "name_es": null, "opening_hours": null, "operator": "U. De Chile", "phone": null, "ref": null, "source_transform": null, "tourism": "museum", "website": null, "wheelchair": null, "zoo": null, "objectid": 11359488, "osm_id2": "11949131844", "centroide_x": 346517.09806713578, "centroide_y": 6298217.9383344669, "crs_original": "EPSG:4326", "fecha_normalizacion": "2025-10-10 01:59:23" }, "geometry": { "type": "Point", "coordinates": [ 346517.098067135782912, 6298217.938334466889501 ] } },
{ "type": "Feature", "properties": { "addr_city": "Santiago", "addr_country": null, "addr_housenumber": null, "addr_postcode": null, "addr_street": "Avenida Viel", "addr_unit": null, "amenity": null, "attraction": null, "bicycle": null, "board_type": null, "building": null, "building_levels": null, "description": null, "ele": null, "historic": null, "information": null, "name": "Insectario del Parque", "name_en": null, "name_es": null, "opening_hours": null, "operator": null, "phone": null, "ref": null, "source_transform": null, "tourism": "museum", "website": null, "wheelchair": null, "zoo": null, "objectid": 11664991, "osm_id2": "12219866036", "centroide_x": 345923.10211433761, "centroide_y": 6296226.613407271, "crs_original": "EPSG:4326", "fecha_normalizacion": "2025-10-10 01:59:23" }, "geometry": { "type": "Point", "coordinates": [ 345923.102114337612875, 6296226.613407270982862 ] } },
{ "type": "Feature", "properties": { "addr_city": "Santiago", "addr_country": null, "addr_housenumber": "2267", "addr_postcode": null, "addr_street": "Agustinas", "addr_unit": null, "amenity": null, "attraction": null, "bicycle": null, "board_type": null, "building": null, "building_levels": null, "description": null, "ele": null, "historic": null, "information": null, "name": "Museo Ocean Pacific's", "name_en": null, "name_es": null, "opening_hours": null, "operator": null, "phone": null, "ref": null, "source_transform": null, "tourism": "museum", "website": "https://oceanpacifics.cl/museo/", "wheelchair": null, "zoo": null, "objectid": 11679675, "osm_id2": "12241457953", "centroide_x": 345000.30811088928, "centroide_y": 6298455.54701671, "crs_original": "EPSG:4326", "fecha_normalizacion": "2025-10-10 01:59:23" }, "geometry": { "type": "Point", "coordinates": [ 345000.308110889280215, 6298455.547016710042953 ] } },
{ "type": "Feature", "properties": { "addr_city": "Santiago", "addr_country": null, "addr_housenumber": "637", "addr_postcode": null, "addr_street": "Santa Elvira", "addr_unit": null, "amenity": null, "attraction": null, "bicycle": null, "board_type": null, "building": null, "building_levels": null, "description": null, "ele": null, "historic": null, "information": null, "name": "Museo Patrimonial de Salud", "name_en": null, "name_es": null, "opening_hours": null, "operator": null, "phone": null, "ref": null, "source_transform": null, "tourism": "museum", "website": "https://museohospitalsb.wixsite.com/home", "wheelchair": null, "zoo": null, "objectid": 12069010, "osm_id2": "12393038712", "centroide_x": 347482.5042230172, "centroide_y": 6296355.2576824976, "crs_original": "EPSG:4326", "fecha_normalizacion": "2025-10-10 01:59:23" }, "geometry": { "type": "Point", "coordinates": [ 347482.504223017196637, 6296355.257682497613132 ] } },
{ "type": "Feature", "properties": { "addr_city": "Santiago", "addr_country": null, "addr_housenumber": "674", "addr_postcode": null, "addr_street": "General Baquedano", "addr_unit": null, "amenity": null, "attraction": null, "bicycle": null, "board_type": null, "building": null, "building_levels": null, "description": null, "ele": null, "historic": null, "information": null, "name": "Museo Marista", "name_en": null, "name_es": null, "opening_hours": null, "operator": "Colegio Marista Santiago", "phone": null, "ref": null, "source_transform": "https://www.registromuseoschile.cl/663/w3-article-91142.html", "tourism": "museum", "website": "https://www.maristas.cl/obras_y_servicios/museo_marista", "wheelchair": null, "zoo": null, "objectid": 12227547, "osm_id2": "12542607455", "centroide_x": 345102.90643653332, "centroide_y": 6299037.5330422204, "crs_original": "EPSG:4326", "fecha_normalizacion": "2025-10-10 01:59:23" }, "geometry": { "type": "Point", "coordinates": [ 345102.906436533317901, 6299037.533042220398784 ] } },
{ "type": "Feature", "properties": { "addr_city": "Santiago", "addr_country": null, "addr_housenumber": "501", "addr_postcode": null, "addr_street": "Curicó", "addr_unit": null, "amenity": null, "attraction": null, "bicycle": null, "board_type": null, "building": null, "building_levels": null, "description": null, "ele": null, "historic": null, "information": null, "name": "Y las aguas se juntaron", "name_en": null, "name_es": null, "opening_hours": null, "operator": null, "phone": null, "ref": null, "source_transform": null, "tourism": "artwork", "website": null, "wheelchair": null, "zoo": null, "objectid": 6389519, "osm_id2": "1279295349", "centroide_x": 347343.38001394121, "centroide_y": 6298061.0332683716, "crs_original": "EPSG:4326", "fecha_normalizacion": "2025-10-10 01:59:23" }, "geometry": { "type": "Point", "coordinates": [ 347343.380013941205107, 6298061.033268371596932 ] } },
{ "type": "Feature", "properties": { "addr_city": "Santiago", "addr_country": null, "addr_housenumber": "813", "addr_postcode": null, "addr_street": "París", "addr_unit": null, "amenity": null, "attraction": null, "bicycle": null, "board_type": null, "building": null, "building_levels": null, "description": null, "ele": null, "historic": null, "information": null, "name": "Hotel Paris", "name_en": null, "name_es": null, "opening_hours": null, "operator": null, "phone": null, "ref": null, "source_transform": null, "tourism": "hotel", "website": null, "wheelchair": null, "zoo": null, "objectid": 6537471, "osm_id2": "3370832893", "centroide_x": 346855.3315379229, "centroide_y": 6298222.7848986816, "crs_original": "EPSG:4326", "fecha_normalizacion": "2025-10-10 01:59:23" }, "geometry": { "type": "Point", "coordinates": [ 346855.331537922902498, 6298222.784898681566119 ] } },
{ "type": "Feature", "properties": { "addr_city": "Santiago", "addr_country": null, "addr_housenumber": "62", "addr_postcode": null, "addr_street": "Serrano", "addr_unit": null, "amenity": null, "attraction": null, "bicycle": null, "board_type": null, "building": null, "building_levels": null, "description": null, "ele": null, "historic": null, "information": null, "name": "Plaza Paris Amistar", "name_en": null, "name_es": null, "opening_hours": null, "operator": null, "phone": null, "ref": null, "source_transform": null, "tourism": "hotel", "website": "https://www.amistar.cl/", "wheelchair": null, "zoo": null, "objectid": 6537505, "osm_id2": "5328115016", "centroide_x": 346715.6089207246, "centroide_y": 6298145.2249334548, "crs_original": "EPSG:4326", "fecha_normalizacion": "2025-10-10 01:59:23" }, "geometry": { "type": "Point", "coordinates": [ 346715.608920724596828, 6298145.22493345476687 ] } },
{ "type": "Feature", "properties": { "addr_city": "Santiago", "addr_country": null, "addr_housenumber": "1485", "addr_postcode": null, "addr_street": "Avenida Libertador Bernardo O'Higgins", "addr_unit": null, "amenity": null, "attraction": null, "bicycle": null, "board_type": null, "building": null, "building_levels": null, "description": null, "ele": null, "historic": null, "information": null, "name": "Hotel Diego de Almagro", "name_en": null, "name_es": null, "opening_hours": null, "operator": null, "phone": null, "ref": null, "source_transform": "Reconocimiento cortográfico de campo 2016 por KG", "tourism": "hotel", "website": null, "wheelchair": null, "zoo": null, "objectid": 6537900, "osm_id2": "470354998", "centroide_x": 345967.94781577832, "centroide_y": 6298177.0327628255, "crs_original": "EPSG:4326", "fecha_normalizacion": "2025-10-10 01:59:23" }, "geometry": { "type": "Point", "coordinates": [ 345967.947815778315999, 6298177.032762825489044 ] } },
{ "type": "Feature", "properties": { "addr_city": "Santiago", "addr_country": null, "addr_housenumber": null, "addr_postcode": null, "addr_street": "Cerro Santa Lucía", "addr_unit": null, "amenity": null, "attraction": null, "bicycle": null, "board_type": null, "building": null, "building_levels": null, "description": null, "ele": null, "historic": null, "information": "office", "name": "Oficina de Turismo", "name_en": null, "name_es": null, "opening_hours": null, "operator": "Municipalidad de Santiago", "phone": null, "ref": null, "source_transform": null, "tourism": "information", "website": null, "wheelchair": null, "zoo": null, "objectid": 6388681, "osm_id2": "6878646586", "centroide_x": 347167.4135569483, "centroide_y": 6298552.3497813102, "crs_original": "EPSG:4326", "fecha_normalizacion": "2025-10-10 01:59:23" }, "geometry": { "type": "Point", "coordinates": [ 347167.413556948304176, 6298552.34978131018579 ] } },
{ "type": "Feature", "properties": { "addr_city": "Santiago", "addr_country": null, "addr_housenumber": "2149", "addr_postcode": null, "addr_street": "Agustinas", "addr_unit": null, "amenity": null, "attraction": null, "bicycle": null, "board_type": null, "building": null, "building_levels": null, "description": null, "ele": null, "historic": null, "information": null, "name": "Matildas Hotel Boutique", "name_en": null, "name_es": null, "opening_hours": null, "operator": null, "phone": null, "ref": null, "source_transform": null, "tourism": "hotel", "website": null, "wheelchair": "no", "zoo": null, "objectid": 10177338, "osm_id2": "10814470832", "centroide_x": 345126.15986089624, "centroide_y": 6298468.080036832, "crs_original": "EPSG:4326", "fecha_normalizacion": "2025-10-10 01:59:23" }, "geometry": { "type": "Point", "coordinates": [ 345126.15986089623766, 6298468.080036832019687 ] } }
]
}
