{
"type": "FeatureCollection",
"name": "comunas_buffer",
"crs": { "type": "name", "properties": { "name": "urn:ogc:def:crs:EPSG::32719" } },
"features": [
{ "type": "Feature", "properties": { "comuna": "Estación Central", "area_m2": 31393938.980304528, "perimeter_m": 26827.494494733495, "centroide_x": 341923.29073734028, "centroide_y": 6295954.1390415858, "crs_original": "EPSG:4326", "fecha_normalizacion": "2025-10-10 01:59:23" }, "geometry": { "type": "Polygon", "coordinates": [ [ [ 338376.566991389147006, 6296303.858326992020011 ], [ 338327.675966131384484, 6296314.023308906704187 ], [ 338426.489871470083017, 6297820.958760166540742 ], [ 339489.032431827392429, 6297596.909728093072772 ], [ 339844.64075748657342, 6297521.041472973302007 ], [ 340374.828448678250425, 6297407.927332904189825 ], [ 340642.4541537478799, 6297351.043360404670238 ], [ 340641.078215388813987, 6297364.886346559971571 ], [ 340635.979055026138667, 6297398.805027553811669 ], [ 340622.358437871560454, 6297485.9270452382043 ], [ 340615.993735955213197, 6297546.779271431267262 ], [ 340615.033108934760094, 6297555.84414076898247 ], [ 340487.038134293979965, 6298324.321069514378905 ], [ 341278.681174055440351, 6298377.85432393476367 ], [ 341477.574749105318915, 6298410.768020283430815 ], [ 341620.160437327926047, 6298434.840678653679788 ], [ 341735.220539195230231, 6298453.728292804211378 ], [ 341842.735088804038242, 6298472.101796469651163 ], [ 341982.203702163998969, 6298494.115951970219612 ], [ 342034.060542859893758, 6298502.968170406296849 ], [ 342050.072631708229892, 6298827.597365971654654 ], [ 342892.976509314670693, 6298894.530336834490299 ], [ 343328.517345641041175, 6298926.274876233190298 ], [ 343618.679852170520462, 6298947.383345799520612 ], [ 344564.318234741745982, 6298997.600229110568762 ], [ 344599.200372007966507, 6298417.581497095525265 ], [ 344600.248981670534704, 6298417.874296370893717 ], [ 344785.869915816991124, 6297517.931024260818958 ], [ 344774.176557910570409, 6297266.944545358419418 ], [ 344769.587900648999494, 6297147.13003115169704 ], [ 344763.917614607838914, 6297024.033575021661818 ], [ 344759.58128231135197, 6296919.148336304351687 ], [ 344753.810913622321095, 6296784.853844591416419 ], [ 344746.457610918674618, 6296620.370769795030355 ], [ 344719.835886182379909, 6296012.502890259027481 ], [ 345249.277524043573067, 6296020.869781566783786 ], [ 345276.537839790282305, 6295159.9338951818645 ], [ 345379.932147551327944, 6295090.668574248440564 ], [ 345350.135654692188837, 6293871.93412602879107 ], [ 344533.098925587954, 6293911.468006132170558 ], [ 344515.84580972394906, 6293909.197884620167315 ], [ 344503.054487707267981, 6293689.920357339084148 ], [ 344033.392711086606141, 6293682.675579838454723 ], [ 342934.125145520898513, 6292891.179614866152406 ], [ 342997.663039334642235, 6293693.519270247779787 ], [ 342872.647109481040388, 6293690.105281611904502 ], [ 342838.492576077987906, 6293694.239618709310889 ], [ 342722.070467393146828, 6293660.462140705436468 ], [ 342671.39767229591962, 6293644.349391356110573 ], [ 342620.87751911272062, 6293625.812561863102019 ], [ 342556.832906741299666, 6293600.991952020674944 ], [ 342504.945269890828058, 6293580.924108363687992 ], [ 342439.30184871313395, 6293555.104354964569211 ], [ 342356.558587340987287, 6293523.723923144862056 ], [ 342265.016923545277677, 6293499.729951265268028 ], [ 342174.429767640307546, 6293476.859200592152774 ], [ 342085.646556401392445, 6293462.762144694104791 ], [ 342057.765173493768089, 6293458.665075450204313 ], [ 342044.550646664458327, 6293456.029937257990241 ], [ 342031.447489996207878, 6293453.388496555387974 ], [ 342004.189772816142067, 6293446.573229180648923 ], [ 341962.944175447046291, 6293435.358630616217852 ], [ 341753.746109559899196, 6293368.792202679440379 ], [ 341645.455588673881721, 6293337.451708784326911 ], [ 341644.912183582549915, 6293336.797606498003006 ], [ 341416.733892756397836, 6293271.257079228758812 ], [ 341351.590613093809225, 6293252.403881905600429 ], [ 341351.096774671459571, 6293252.403877584263682 ], [ 340572.986198085942306, 6293028.904186712577939 ], [ 340323.146921809937339, 6293525.593513078987598 ], [ 340148.075609402148984, 6293705.394089806824923 ], [ 339958.734917449066415, 6293899.861330568790436 ], [ 339824.744694354187232, 6294028.794784115627408 ], [ 339803.791661775787361, 6294063.142852837219834 ], [ 339770.518505528336391, 6294099.387264959514141 ], [ 339699.060698191169649, 6294175.63654531724751 ], [ 339655.452616491122171, 6294222.38856547512114 ], [ 339622.993896032159682, 6294252.501406878232956 ], [ 339391.263346477062441, 6294333.101346374489367 ], [ 339374.991937464103103, 6294371.823412353172898 ], [ 339327.131450763670728, 6294388.319541111588478 ], [ 339254.333166869240813, 6294411.409697692841291 ], [ 339200.495444158208556, 6294429.690163679420948 ], [ 339141.481612261617556, 6294448.785481790080667 ], [ 338947.816907564993016, 6294516.292088001966476 ], [ 338934.016645867261104, 6294521.10251485183835 ], [ 338882.386413363274187, 6294537.260929726995528 ], [ 338784.776551985647529, 6294571.356357654556632 ], [ 338688.993819805094972, 6294604.915471637621522 ], [ 337399.845113089773804, 6295078.965611314401031 ], [ 338381.404944508336484, 6295828.542346955277026 ], [ 338379.842880673939362, 6295952.944935696199536 ], [ 338377.927242939476855, 6296180.059774771332741 ], [ 338377.386482758447528, 6296245.02096030768007 ], [ 338376.566991389147006, 6296303.858326992020011 ] ] ] } },
{ "type": "Feature", "properties": { "comuna": "La Reina", "area_m2": 44698146.054066055, "perimeter_m": 34095.587305932197, "centroide_x": 356859.73159175669, "centroide_y": 6298138.3033511108, "crs_original": "EPSG:4326", "fecha_normalizacion": "2025-10-10 01:59:23" }, "geometry": { "type": "Polygon", "coordinates": [ [ [ 349208.160738403908908, 6298757.601152520626783 ], [ 349144.589613351621665, 6299028.364349155686796 ], [ 352561.047474010963924, 6300446.604880541563034 ], [ 353042.47730809811037, 6300487.87907874956727 ], [ 353199.30574177519884, 6300501.179454449564219 ], [ 353571.926040833932348, 6300519.893965850584209 ], [ 353606.788149763131514, 6300520.888467050157487 ], [ 353998.615248128247913, 6300545.733087645843625 ], [ 354466.546299595851451, 6300566.481408073566854 ], [ 354581.002411897177808, 6300573.519123135134578 ], [ 354951.085994420805946, 6300598.252477414906025 ], [ 355167.046504819649272, 6300615.930864259600639 ], [ 355432.30118312430568, 6300635.947015900164843 ], [ 355464.869935558876023, 6300637.432516623288393 ], [ 355667.443357222655322, 6300662.930494919419289 ], [ 356296.457810058956966, 6300747.267011863179505 ], [ 356312.699992073525209, 6300738.139118080958724 ], [ 356330.849010498845018, 6300740.92948148958385 ], [ 356401.680972148838919, 6300751.979437487199903 ], [ 356502.396778573049232, 6300767.586622050963342 ], [ 356616.116040480497759, 6300785.208643883466721 ], [ 356720.89306766045047, 6300800.915284965187311 ], [ 357637.967125896015204, 6300999.427421571686864 ], [ 357641.340071358368732, 6300435.487988909706473 ], [ 357661.104811602795962, 6300438.664753229357302 ], [ 357720.387269051163457, 6300448.337846770882607 ], [ 357784.602763838367537, 6300458.883071781136096 ], [ 357892.743426887900569, 6300476.346995843574405 ], [ 358013.828713764378335, 6300495.664230642840266 ], [ 358117.028789258911274, 6300512.468407040461898 ], [ 358307.839222354697995, 6300543.552518928423524 ], [ 358553.210704510449432, 6300570.66818331182003 ], [ 358669.341204195050523, 6300510.705207758583128 ], [ 358745.719526128727011, 6300517.206343726255 ], [ 358815.926758909947239, 6300460.44671606272459 ], [ 358899.659434091183357, 6300492.385986415669322 ], [ 359257.485721287957858, 6300186.631555827334523 ], [ 359329.703106423025019, 6300137.670629407279193 ], [ 359624.777778788586147, 6300124.502098673954606 ], [ 359850.04470958665479, 6300101.978662378154695 ], [ 360146.936771942884661, 6299988.460109896957874 ], [ 360326.552776350232307, 6299863.278346810489893 ], [ 360588.019882792257704, 6299697.677436951547861 ], [ 360752.160154639743268, 6299544.851818289607763 ], [ 360857.083656473900191, 6299439.928242165595293 ], [ 360979.241463540820405, 6299265.428235180675983 ], [ 361146.765045638661832, 6299001.43840672634542 ], [ 361257.899711543228477, 6298906.176782155409455 ], [ 361380.894468237296678, 6298772.974731650203466 ], [ 361392.852661019016523, 6298753.03827334754169 ], [ 361459.643788119312376, 6298706.293348086997867 ], [ 361660.887790724169463, 6298404.352284926921129 ], [ 361682.516760754515417, 6298144.360835619270802 ], [ 361682.516701857908629, 6298040.93249305523932 ], [ 361749.587374178459868, 6297959.742662956938148 ], [ 361810.812631379172672, 6297910.757067350670695 ], [ 361843.209265853860416, 6297883.347193111665547 ], [ 361961.326995185518172, 6297815.837971236556768 ], [ 362246.228756425902247, 6297530.999895178712904 ], [ 362261.054812836810015, 6297397.333104070276022 ], [ 362313.852751846774481, 6297291.712721526622772 ], [ 362325.830109945847653, 6297225.951715344563127 ], [ 362402.947160031588282, 6297125.121138849295676 ], [ 362417.246318789140787, 6297063.199912790209055 ], [ 362441.803563880966976, 6297033.726929372176528 ], [ 362529.475141742150299, 6296770.664555467665195 ], [ 362539.234263400838245, 6296614.601195698603988 ], [ 362582.441504896502011, 6295793.319266507402062 ], [ 361165.266102578025311, 6295819.268984094262123 ], [ 360219.214523854432628, 6295859.186847664415836 ], [ 359854.87037447525654, 6295885.779075690545142 ], [ 359822.281144537089858, 6295891.257623758167028 ], [ 359467.921835443354212, 6295933.851703694090247 ], [ 359087.470139401382767, 6295958.472563745453954 ], [ 358862.661369939218275, 6295958.500346763059497 ], [ 358758.378335570800118, 6295972.073959974572062 ], [ 358732.739792562671937, 6295978.013254744932055 ], [ 358568.368029527366161, 6295999.391463376581669 ], [ 358541.397285595419817, 6295999.134066111408174 ], [ 358503.35594326548744, 6296001.850332666188478 ], [ 358465.686127292108722, 6296004.539999224245548 ], [ 358452.454932339722291, 6296005.484639547765255 ], [ 358439.475029154447839, 6295957.649966372177005 ], [ 358425.865729924407788, 6295908.118148131296039 ], [ 358399.537773701013066, 6295830.826183160766959 ], [ 358371.669438204844482, 6295773.799461890012026 ], [ 358173.010833340347745, 6295367.286167185753584 ], [ 357591.61434708267916, 6295329.928713895380497 ], [ 357410.202286500600167, 6295392.187516964040697 ], [ 357384.684917073696852, 6295400.209225898608565 ], [ 357315.865549949463457, 6295421.738053010776639 ], [ 357192.348768853116781, 6295461.236029603518546 ], [ 357075.22186974727083, 6295499.62569182086736 ], [ 357059.253946256649215, 6295504.481755159795284 ], [ 357043.045212448108941, 6295509.600944669917226 ], [ 356972.151637575298082, 6295531.991659417748451 ], [ 356933.738723726186436, 6295545.035249006003141 ], [ 356888.056584731442854, 6295559.312468521296978 ], [ 356843.292590358643793, 6295574.360841957852244 ], [ 356807.365805884706788, 6295585.765594479627907 ], [ 356623.441420496441424, 6295501.334648142568767 ], [ 356353.346890281303786, 6295530.3123181713745 ], [ 356282.393003091099672, 6295540.147693317383528 ], [ 356226.109663059818558, 6295547.554129805415869 ], [ 356062.220421530073509, 6295571.722354397177696 ], [ 355948.682116388226859, 6295592.907741998322308 ], [ 355830.896112521993928, 6295615.12211643718183 ], [ 355796.765507382689975, 6295621.945780772715807 ], [ 355684.868980366270989, 6295621.991951429285109 ], [ 355632.982497846358456, 6295621.991715244948864 ], [ 355512.402238778537139, 6295621.040860379114747 ], [ 355370.995937393861823, 6295618.6440847851336 ], [ 355342.022169888950884, 6295618.856103887781501 ], [ 355232.165180580224842, 6295619.660444332286716 ], [ 355077.959149431961123, 6295618.03627950605005 ], [ 354991.555773011408746, 6295619.971757867373526 ], [ 354976.49161284242291, 6295620.497740847989917 ], [ 354951.952421097143088, 6295620.192941335961223 ], [ 354922.686397201090585, 6295620.002585621550679 ], [ 354895.850291171693243, 6295619.688379863277078 ], [ 354797.245352455531247, 6295619.688547126948833 ], [ 354718.890422134893015, 6295628.902462213300169 ], [ 354644.237888693169225, 6295641.738703111186624 ], [ 354560.111283198930323, 6295667.146574765443802 ], [ 354499.189136751345359, 6295689.747306247241795 ], [ 354482.361691429570783, 6295696.111364802345634 ], [ 354452.710376446135342, 6295707.735966347157955 ], [ 354376.532740276481491, 6295700.229945661500096 ], [ 354204.616682253952604, 6295803.840597987174988 ], [ 354087.152998206438497, 6295848.792256658896804 ], [ 354022.642249866796192, 6295876.506956025958061 ], [ 353982.041940220748074, 6295893.636779805645347 ], [ 353893.495564813609235, 6295930.995814833790064 ], [ 353862.980819304706529, 6295945.93342106230557 ], [ 353816.097195076115895, 6295966.880152481608093 ], [ 353795.732959344459232, 6295976.332427030429244 ], [ 353766.067857647896744, 6295989.29601854365319 ], [ 353718.638708260376006, 6296007.688863461837173 ], [ 353703.360540250898339, 6296013.811097463592887 ], [ 353629.447491004539188, 6296039.74212402664125 ], [ 353621.154887774900999, 6296043.384103650227189 ], [ 352993.90999919816386, 6296256.923106811009347 ], [ 353201.314257144695148, 6297025.960671138949692 ], [ 353245.940835096291266, 6297264.58889452368021 ], [ 353273.738475915917661, 6297376.844164196401834 ], [ 353142.012105286354199, 6298254.373455045744777 ], [ 353117.125598118640482, 6298355.823985735885799 ], [ 353102.429949156241491, 6298442.941641103476286 ], [ 353082.191426569595933, 6298552.228600424714386 ], [ 353079.213438938953914, 6298574.82066342420876 ], [ 352928.172163368319161, 6298633.798622876405716 ], [ 352732.019583823857829, 6298746.259493090212345 ], [ 352532.860053276701365, 6298883.67947300709784 ], [ 352482.134215700963978, 6298921.254509635269642 ], [ 352409.81338246865198, 6298974.825212033465505 ], [ 349208.160738403908908, 6298757.601152520626783 ] ] ] } },
{ "type": "Feature", "properties": { "comuna": "Ñuñoa", "area_m2": 31767659.08978162, "perimeter_m": 23113.190444368876, "centroide_x": 351399.40314755338, "centroide_y": 6296898.8501222767, "crs_original": "EPSG:4326", "fecha_normalizacion": "2025-10-10 01:59:23" }, "geometry": { "type": "Polygon", "coordinates": [ [ [ 348181.027881560963579, 6295463.738392814993858 ], [ 348162.997113215737045, 6295534.12176026403904 ], [ 348092.209573493397329, 6295814.045537056401372 ], [ 348028.934235052787699, 6296058.700909588485956 ], [ 347951.689630371751264, 6296355.804057648405433 ], [ 347847.254791531711817, 6296760.089849365875125 ], [ 347824.237982675316744, 6296852.141542829573154 ], [ 347721.785996819031425, 6297231.155440011993051 ], [ 347665.100232584867626, 6297440.613921159878373 ], [ 347474.164332204149105, 6298208.543283888138831 ], [ 348213.823571486864239, 6298362.328350946307182 ], [ 348303.097251788945869, 6298384.596938675269485 ], [ 348421.405681763368193, 6298413.712206419557333 ], [ 348511.076855997322127, 6298436.849087284877896 ], [ 348616.185481313965283, 6298462.541227594017982 ], [ 348634.883816240238957, 6298468.311808497644961 ], [ 348752.470930116134696, 6298504.759340096265078 ], [ 348791.144975353614427, 6298512.413417687639594 ], [ 348905.804086422896944, 6298541.83474319241941 ], [ 348948.669567027362064, 6298552.380190595984459 ], [ 349036.715182714979164, 6298575.46767495945096 ], [ 349166.658241910394281, 6298608.7979756873101 ], [ 349263.313876720669214, 6298632.630141323432326 ], [ 350036.842197971767746, 6298832.579290542751551 ], [ 350056.810168421303388, 6298765.492668124847114 ], [ 350150.009912967449054, 6298796.757606461644173 ], [ 350152.145078629720956, 6298797.548246899619699 ], [ 350153.572302124171983, 6298797.952651340514421 ], [ 350281.102464733878151, 6298840.734127724543214 ], [ 350403.521097962046042, 6298865.24499474838376 ], [ 350511.087537739775144, 6298881.011141182854772 ], [ 350583.441025989828631, 6298891.739003097638488 ], [ 350590.845212759682909, 6298892.841584496200085 ], [ 350665.995380393578671, 6298906.661774264648557 ], [ 350762.417910074116662, 6298924.306331714615226 ], [ 350824.875833784928545, 6298932.670332592912018 ], [ 350912.429774511256255, 6298944.716248610056937 ], [ 350976.427547386614606, 6298953.790343517437577 ], [ 351037.198383108014241, 6298962.064823694527149 ], [ 351093.633691183873452, 6298968.566822068765759 ], [ 351135.928360195772257, 6298973.809954735450447 ], [ 351154.309221166418865, 6298976.082800895906985 ], [ 351195.600633408059366, 6298981.203375145792961 ], [ 351738.222756568226032, 6299048.432684784755111 ], [ 351746.435219548642635, 6299063.605567981489003 ], [ 351756.055183703661896, 6299081.378838423639536 ], [ 351760.042942969244905, 6299088.746260844171047 ], [ 351765.140800139401108, 6299098.164650212973356 ], [ 351774.356143759505358, 6299116.997119472362101 ], [ 351785.881555930478498, 6299138.387678882107139 ], [ 351794.128610178478993, 6299153.693054569885135 ], [ 351801.921453514136374, 6299168.155952365137637 ], [ 351811.180742976721376, 6299185.279518414288759 ], [ 351816.12577871629037, 6299194.4248201623559 ], [ 351836.958450510166585, 6299233.942998358979821 ], [ 351863.373174507694785, 6299275.45495468378067 ], [ 351878.745608683035243, 6299299.613780875690281 ], [ 351906.288341631530784, 6299338.351813368499279 ], [ 351921.435128997894935, 6299359.655150974169374 ], [ 351980.897325883619487, 6299442.307225249707699 ], [ 352037.268223026418127, 6299519.429093282669783 ], [ 352065.791298833326437, 6299561.108331753872335 ], [ 352114.438710583257489, 6299625.97180213034153 ], [ 352179.356608561472967, 6299714.877988571301103 ], [ 352246.575028821476735, 6299809.180556880310178 ], [ 352258.356064257503022, 6299825.499069457873702 ], [ 352277.53272343496792, 6299852.062365915626287 ], [ 352660.261317178956233, 6300593.789538973942399 ], [ 353376.385833790060133, 6300063.322104072198272 ], [ 353505.713478148798458, 6299974.086091905832291 ], [ 353555.925748047186062, 6299945.297708998434246 ], [ 353679.077098993468098, 6299897.210089536383748 ], [ 353850.606694131856784, 6299829.722896480001509 ], [ 353978.269985992577858, 6299745.533213557675481 ], [ 354033.357315491535701, 6299732.534415593370795 ], [ 354340.761330758337863, 6299492.290596360340714 ], [ 354453.113319507043343, 6299159.652145598083735 ], [ 354474.669112484902143, 6299035.283140449784696 ], [ 354487.293210735311732, 6298955.539649419486523 ], [ 354495.143960005836561, 6298916.303398602642119 ], [ 354505.944779398967512, 6298846.499703852459788 ], [ 354514.823184997949284, 6298779.144992088899016 ], [ 354530.300489614193793, 6298695.568359798751771 ], [ 354538.064743428840302, 6298649.540886657312512 ], [ 354566.085732394014485, 6298535.312554747797549 ], [ 354721.256902107736096, 6297501.599670460447669 ], [ 354723.855140090803616, 6297459.264778600074351 ], [ 354754.18904393306002, 6297322.952783949673176 ], [ 354723.683808232774027, 6297199.763428334146738 ], [ 354754.095454092195723, 6297189.41009958088398 ], [ 354548.198054541717283, 6296391.060615417547524 ], [ 354431.341949500259943, 6296068.898640280589461 ], [ 354413.435862768208608, 6296008.683647188358009 ], [ 354336.418559748562984, 6295786.108895808458328 ], [ 354219.51555793103762, 6295418.968464744277298 ], [ 353979.827629491395783, 6294571.684824233874679 ], [ 353537.625019840081222, 6294698.140271847136319 ], [ 353405.394793363055214, 6294612.725555537268519 ], [ 353378.367899397038855, 6294595.455137455835938 ], [ 353270.981215511856135, 6294526.833110447973013 ], [ 353204.05936310312245, 6294487.550449861213565 ], [ 353112.216202998301014, 6294440.73015521094203 ], [ 353040.360090253292583, 6294415.005573645234108 ], [ 352993.840608392027207, 6294389.234458403661847 ], [ 352940.969947914942168, 6294381.795753844082355 ], [ 352935.132094000466168, 6294375.121900511905551 ], [ 352650.064240918145515, 6294279.05023624189198 ], [ 352468.161776039516553, 6294259.921985981985927 ], [ 352339.920240197563544, 6294272.608315870165825 ], [ 352332.000765782548115, 6294271.618087400682271 ], [ 352190.608837998413946, 6294295.662887500599027 ], [ 352158.53264969488373, 6294299.884707629680634 ], [ 352113.657538966159336, 6294305.786343798041344 ], [ 352024.999949535354972, 6294317.274366123601794 ], [ 352003.287436670681927, 6294319.886782782152295 ], [ 351972.040484442608431, 6294321.473432848230004 ], [ 351924.10017214861, 6294323.536194643005729 ], [ 351816.266819625918288, 6294329.395997079089284 ], [ 351764.071966311661527, 6294331.278920859098434 ], [ 351667.186612063320354, 6294337.142605758272111 ], [ 351601.34863500535721, 6294337.785619245842099 ], [ 351500.290645503555425, 6294330.65686584636569 ], [ 351438.148690404603258, 6294325.84938108921051 ], [ 351334.654903551796451, 6294317.901227105408907 ], [ 351273.751254114613403, 6294313.032185558229685 ], [ 351136.115514934877865, 6294301.848413717001677 ], [ 351040.023762875352986, 6294294.764993757940829 ], [ 350979.182921644707676, 6294288.04784968867898 ], [ 350946.312678515445441, 6294287.749365137889981 ], [ 350801.582714904623572, 6294275.933232264593244 ], [ 350691.013903255283367, 6294267.496384534984827 ], [ 350630.747789560584351, 6294263.54589376039803 ], [ 350469.062783023167867, 6294250.828206846490502 ], [ 350363.988612682442181, 6294242.889537135139108 ], [ 350251.339662412239704, 6294233.793663427233696 ], [ 350132.696505258558318, 6294225.208666630089283 ], [ 350100.180616976809688, 6294223.319625036790967 ], [ 349991.239064687222708, 6294214.864418226294219 ], [ 349944.261299098900054, 6294211.21364171244204 ], [ 349875.052499951445498, 6294205.842320639640093 ], [ 349823.302079137065448, 6294201.429604548960924 ], [ 349754.147113984683529, 6294196.204745789989829 ], [ 349655.085703261545859, 6294188.918611796572804 ], [ 349576.854308544192463, 6294182.338030766695738 ], [ 349536.330777860537637, 6294180.139630807563663 ], [ 348634.967733936617151, 6294113.160558387637138 ], [ 348451.369709500111639, 6294875.585578195750713 ], [ 348422.017195093852933, 6294986.431039581075311 ], [ 348396.837861561274622, 6295005.231599069200456 ], [ 348192.725379237788729, 6295307.565963191911578 ], [ 348181.027881560963579, 6295463.738392814993858 ] ] ] } },
{ "type": "Feature", "properties": { "comuna": "Santiago", "area_m2": 42030479.454320125, "perimeter_m": 28855.998705501177, "centroide_x": 345827.55917597876, "centroide_y": 6297182.7518309169, "crs_original": "EPSG:4326", "fecha_normalizacion": "2025-10-10 01:59:23" }, "geometry": { "type": "Polygon", "coordinates": [ [ [ 342391.148729688604362, 6299391.265966684557498 ], [ 342426.04708943614969, 6299436.305605673231184 ], [ 342649.812458540545776, 6299457.869763921946287 ], [ 342649.82140471751336, 6299612.463036980479956 ], [ 342877.555747970705852, 6299622.38699649926275 ], [ 343034.090428154042456, 6299664.782189225777984 ], [ 343032.513578519865405, 6299687.123105261474848 ], [ 343023.0823280896293, 6299813.182727098464966 ], [ 343050.871002741740085, 6300057.564120980910957 ], [ 343118.331655777990818, 6300238.850234722718596 ], [ 343189.238734029408079, 6300372.918672945350409 ], [ 343275.123684204183519, 6300484.620302468538284 ], [ 343350.35192419658415, 6300563.248465814627707 ], [ 343450.93055919802282, 6300668.708101047202945 ], [ 343553.631596569903195, 6300717.353285318240523 ], [ 343761.324617653386667, 6300849.368581676855683 ], [ 343898.951873018289916, 6300853.898966361768544 ], [ 343967.259044267004356, 6301735.809042642824352 ], [ 344692.45272072206717, 6300932.034475212916732 ], [ 345195.602367300540209, 6300720.990980437025428 ], [ 345777.52487426053267, 6300506.902893256396055 ], [ 346195.205033874546643, 6300396.084966800175607 ], [ 346499.191967314458452, 6300319.166211284697056 ], [ 346621.57795661513228, 6300291.429755201563239 ], [ 346648.149406501906924, 6300284.369757061824203 ], [ 347222.152714437572286, 6300131.842729746364057 ], [ 347670.634433859144337, 6300008.086404426954687 ], [ 348678.855261454242282, 6299767.25973801407963 ], [ 348703.632472839904949, 6299203.907199069857597 ], [ 348744.499756331671961, 6299030.759107728488743 ], [ 348760.700097048538737, 6298964.273822476156056 ], [ 348929.31659126735758, 6298327.228914139792323 ], [ 349061.58668299682904, 6297833.400272198952734 ], [ 349068.652498954441398, 6297804.982109166681767 ], [ 349121.464067248627543, 6297609.839095203205943 ], [ 349227.591859286185354, 6297217.22693432867527 ], [ 349252.58011556242127, 6297117.290782388299704 ], [ 349355.32084416935686, 6296719.5631919875741 ], [ 349432.512240943149664, 6296422.664695585146546 ], [ 349496.998826788854785, 6296173.326010530814528 ], [ 349551.855422280612402, 6295956.399903866462409 ], [ 350021.846722065936774, 6295619.124179825186729 ], [ 349583.066314244351815, 6294934.416837869212031 ], [ 349452.052738187310752, 6294802.172264538705349 ], [ 349353.166518428712152, 6294714.913153640925884 ], [ 349327.557355598546565, 6294635.758710628375411 ], [ 348839.399992982856929, 6294409.074736745096743 ], [ 348675.400572856888175, 6294337.494326065294445 ], [ 348328.886932097491808, 6294186.209838398732245 ], [ 348326.830652900738642, 6294187.341074030846357 ], [ 348145.21835308894515, 6294091.751118905842304 ], [ 347739.294592684367672, 6293951.432583255693316 ], [ 347547.046282613882795, 6293920.434788417071104 ], [ 347518.652019475586712, 6293917.27137079462409 ], [ 347503.186824315402191, 6293915.54812952876091 ], [ 347396.375920350197703, 6293903.682704232633114 ], [ 346854.586212790338323, 6293895.835137891583145 ], [ 346832.289429502678104, 6293895.835166061297059 ], [ 346812.990578340657521, 6293895.835105396807194 ], [ 346756.395185022673104, 6293895.835302623920143 ], [ 346607.359473178978078, 6293892.197984468191862 ], [ 346454.216505790012889, 6293892.197907185181975 ], [ 346270.550507817883044, 6293897.164612932130694 ], [ 346120.965835776820313, 6293917.567320108413696 ], [ 346069.346402961062267, 6293924.59837681055069 ], [ 345990.676290513947606, 6293935.843044802546501 ], [ 345938.745720836974215, 6293943.26004708558321 ], [ 345864.130451629171148, 6293948.789882821962237 ], [ 345663.950320249365177, 6293964.18839175440371 ], [ 345622.595214585773647, 6293968.539293147623539 ], [ 345610.028274663025513, 6293968.539282571524382 ], [ 345453.655860235914588, 6293965.279812436550856 ], [ 345417.537386457086541, 6293963.472854243591428 ], [ 345425.90675782202743, 6293704.131309423595667 ], [ 343049.282067112100776, 6293667.50715085119009 ], [ 343100.451285230694339, 6294544.684631649404764 ], [ 342729.544944047462195, 6294546.892427563667297 ], [ 343254.628415930957999, 6295627.995669528841972 ], [ 343270.964355315081775, 6296070.006165655329823 ], [ 343293.431532592047006, 6296583.011072183027864 ], [ 343220.862636604171712, 6297464.582131015136838 ], [ 343003.069589650025591, 6297448.70821200683713 ], [ 341978.041826417145785, 6297367.313221149146557 ], [ 342032.097755272348877, 6298463.151848085224628 ], [ 342035.784975323709659, 6298701.836458226665854 ], [ 342056.364307620911859, 6299347.283588547259569 ], [ 342391.148729688604362, 6299391.265966684557498 ] ] ] } }
]
}
