{
"type": "FeatureCollection",
"name": "Lineas_de_metro_de_Santiago",
"crs": { "type": "name", "properties": { "name": "urn:ogc:def:crs:EPSG::32719" } },
"features": [
{ "type": "Feature", "properties": { "FID": 1, "objectid": 1, "id": "1", "lenght": 9913.341, "nombre": "LINEA DE METRO ACTUAL", "linea": "LINEA 1", "layer": "LINEA DE METRO ACTUAL", "shape_leng": 9913.2759182000009, "GlobalID": "a209f9c0-1b70-4bf0-bb9d-b80b572c67a5", "centroide_x": 343501.75082167046, "centroide_y": 6297577.4988450333, "crs_original": "EPSG:4326", "fecha_normalizacion": "2025-10-10 01:59:22" }, "geometry": { "type": "MultiLineString", "coordinates": [ [ [ 340761.495600029826164, 6296646.592599999159575 ], [ 340927.829700024565682, 6296642.303799998015165 ], [ 341141.68420003040228, 6296675.607200000435114 ], [ 343049.816900021862239, 6297199.540300000458956 ], [ 347256.272800023551099, 6298517.650299996137619 ], [ 347726.199700020602904, 6298918.806700002402067 ], [ 348035.664000023854896, 6299079.273599999025464 ] ], [ [ 339800.380200031911954, 6298162.272500002756715 ], [ 339843.68760003009811, 6297868.734300004318357 ], [ 339872.524100026581436, 6297261.901899995282292 ], [ 339890.145700034569018, 6297099.755999998189509 ], [ 339904.246300024911761, 6296923.523 ], [ 339932.447000029555056, 6296870.654099998995662 ], [ 339964.168600032920949, 6296828.353099999018013 ], [ 340024.090800026489887, 6296800.159200003370643 ], [ 340760.415400030731689, 6296638.074499998241663 ] ] ] } },
{ "type": "Feature", "properties": { "FID": 2, "objectid": 2, "id": "2", "lenght": 5456.886, "nombre": "LINEA DE METRO ACTUAL", "linea": "LINEA 1", "layer": "LINEA DE METRO ACTUAL", "shape_leng": 5456.8502264999997, "GlobalID": "acf6b60f-1e6a-4cde-93d5-30be17efa5dd", "centroide_x": 350282.81889061554, "centroide_y": 6300509.5533888126, "crs_original": "EPSG:4326", "fecha_normalizacion": "2025-10-10 01:59:22" }, "geometry": { "type": "LineString", "coordinates": [ [ 348035.664000023854896, 6299079.273599999025464 ], [ 348215.928800022345968, 6299096.691500003449619 ], [ 348318.399800021725241, 6299138.233999999240041 ], [ 348703.358200016024057, 6299348.715699996799231 ], [ 349060.621400017989799, 6299747.522300003096461 ], [ 349204.634400021401234, 6299880.457999998703599 ], [ 349392.95950002130121, 6299960.773399997502565 ], [ 349644.982600020593964, 6300121.40400000475347 ], [ 349883.158100021653809, 6300342.963399996981025 ], [ 350137.950700016343035, 6300475.899199994280934 ], [ 350531.217300020041876, 6300835.933199997060001 ], [ 350689.077800020226277, 6301013.180500003509223 ], [ 351110.039500016660895, 6301201.506400000303984 ], [ 351242.97480001632357, 6301262.435300003737211 ], [ 351486.689500021515414, 6301348.289699994958937 ], [ 351794.102500016568229, 6301425.835899999365211 ], [ 352198.447400015138555, 6301531.076999999582767 ], [ 352608.331400013121311, 6301636.318199999630451 ], [ 352685.876900017843582, 6301669.552099999040365 ] ] } },
{ "type": "Feature", "properties": { "FID": 3, "objectid": 3, "id": "5", "lenght": 1349.751, "nombre": "LINEA DE METRO ACTUAL", "linea": "LINEA 2", "layer": "LINEA DE METRO ACTUAL", "shape_leng": 6712.23473999, "GlobalID": "be6fbb14-6258-49ef-8a5f-beac857723ea", "centroide_x": 347112.13554911315, "centroide_y": 6302354.4430583958, "crs_original": "EPSG:4326", "fecha_normalizacion": "2025-10-10 01:59:22" }, "geometry": { "type": "LineString", "coordinates": [ [ 346321.599000017624348, 6299473.338700000196695 ], [ 346529.31050002144184, 6299484.416999997571111 ], [ 346723.174700025352649, 6299467.800400005653501 ], [ 346800.720100020058453, 6299561.96309999935329 ], [ 346903.190500020282343, 6299955.230399996042252 ], [ 346999.345400018559303, 6300368.256200001575053 ], [ 347081.196700021973811, 6300717.48919999692589 ], [ 347138.684200023533776, 6300962.769399994984269 ], [ 347171.091100022313185, 6301210.024800002574921 ], [ 347210.96400001575239, 6302776.491900000721216 ], [ 347233.37540002015885, 6303496.896200004965067 ], [ 347254.185400023940019, 6304535.87950000166893 ], [ 347379.054900022398215, 6304902.485500004142523 ], [ 347385.458500022417866, 6304926.498899998143315 ], [ 347410.857800018391572, 6305004.108400005847216 ], [ 347413.240200018044561, 6305023.380399996414781 ], [ 347344.963400019798428, 6305073.141199997626245 ], [ 347268.586100022424944, 6305121.74480000231415 ], [ 347218.825000025215559, 6305152.990000003948808 ], [ 347149.39110001642257, 6305195.807399999350309 ], [ 347076.485400023811962, 6305237.467699997127056 ], [ 346998.950900016934611, 6305276.813399995677173 ], [ 346845.038900024490431, 6305350.875999996438622 ] ] } },
{ "type": "Feature", "properties": { "FID": 4, "objectid": 4, "id": "6", "lenght": 10177.762, "nombre": "LINEA DE METRO ACTUAL", "linea": "LINEA 2", "layer": "LINEA DE METRO ACTUAL", "shape_leng": 12773.5979327, "GlobalID": "bcebec8d-b270-4ea8-9992-5ee74ce17d1b", "centroide_x": 346092.90815413347, "centroide_y": 6293953.7662326861, "crs_original": "EPSG:4326", "fecha_normalizacion": "2025-10-10 01:59:22" }, "geometry": { "type": "MultiLineString", "coordinates": [ [ [ 346011.431300023221411, 6290417.116100005805492 ], [ 346454.545900023542345, 6292436.072699996642768 ], [ 346714.875500024762005, 6293790.352199998684227 ], [ 346811.806700018583797, 6294319.324299998581409 ], [ 346842.270600023970474, 6294540.883299998939037 ], [ 346775.802800025558099, 6294668.279600001871586 ], [ 346689.948500024387613, 6294729.208199996501207 ], [ 346638.58416206453694, 6294748.024321067146957 ], [ 346496.08450002403697, 6294740.285799998790026 ], [ 346404.691300024511293, 6294779.058400003239512 ], [ 346304.989700017671566, 6294828.909000006504357 ], [ 346280.064100018062163, 6294959.074899999424815 ], [ 346205.287700022628997, 6295097.549099996685982 ], [ 346149.897800022852607, 6295180.633599998429418 ], [ 346122.20290002413094, 6295258.179199999198318 ], [ 346100.011300020501949, 6295756.488600006327033 ], [ 346019.398500026436523, 6296952.817099997773767 ], [ 345902.802800020901486, 6297104.385000001639128 ], [ 345674.203300025255885, 6297955.795699998736382 ], [ 345673.541400024318136, 6298024.895900005474687 ], [ 345643.07680002390407, 6298224.298999995924532 ], [ 345728.930000019143336, 6298697.881400002166629 ], [ 345701.23480002337601, 6298927.748799994587898 ], [ 345676.308900021889713, 6299240.700799998827279 ], [ 345690.156200019933749, 6299359.788699999451637 ], [ 345840.378300021286123, 6299459.569999994710088 ], [ 345982.090400020184461, 6299485.144900005310774 ], [ 346313.290500018047169, 6299476.108199995011091 ] ], [ [ 346011.431300023221411, 6290419.885600005276501 ], [ 345756.640400025469717, 6289262.239699994213879 ], [ 345474.155100025585853, 6287880.265300001949072 ] ] ] } },
{ "type": "Feature", "properties": { "FID": 5, "objectid": 5, "id": "7", "lenght": 9882.089, "nombre": "LINEA DE METRO ACTUAL", "linea": "LINEA 4", "layer": "LINEA DE METRO ACTUAL", "shape_leng": 9885.5468792400006, "GlobalID": "aa997047-1ad1-4ab7-8108-04858a193517", "centroide_x": 352867.14054390712, "centroide_y": 6284883.7156268572, "crs_original": "EPSG:4326", "fecha_normalizacion": "2025-10-10 01:59:22" }, "geometry": { "type": "LineString", "coordinates": [ [ 351563.942800020973664, 6289625.936499992385507 ], [ 351691.522400014451705, 6289277.596100002527237 ], [ 352273.799100014439318, 6287752.5932 ], [ 352609.609200017759576, 6286917.692600004374981 ], [ 352698.953900014457759, 6286326.176100002601743 ], [ 353170.323100013483781, 6283550.361699997447431 ], [ 353299.718300017295405, 6282869.501600004732609 ], [ 353576.994200016721152, 6281313.690099998377264 ], [ 353678.662000017473474, 6280746.820199994370341 ], [ 353801.895800011465326, 6280038.232799998484552 ] ] } },
{ "type": "Feature", "properties": { "FID": 6, "objectid": 6, "id": "8", "lenght": 1905.774, "nombre": "LINEA DE METRO ACTUAL", "linea": "LINEA 5", "layer": "LINEA DE METRO ACTUAL", "shape_leng": 1905.76180656, "GlobalID": "f616feef-3d0d-44e1-9d41-d4944b13f3af", "centroide_x": 339794.84989226476, "centroide_y": 6296411.6400238555, "crs_original": "EPSG:4326", "fecha_normalizacion": "2025-10-10 01:59:22" }, "geometry": { "type": "MultiLineString", "coordinates": [ [ [ 336785.839551572571509, 6290729.998449030332267 ], [ 336781.68516893661581, 6290896.710005387663841 ], [ 336774.278086445876397, 6291289.920270362868905 ], [ 336764.754694658215158, 6291605.779431005008519 ], [ 336748.882375031069387, 6292184.272573791444302 ], [ 336746.7660657458473, 6292426.69580227509141 ], [ 336754.173148239962757, 6292487.010616862215102 ], [ 336767.929158588638529, 6292536.743885040283203 ], [ 336794.231012458563782, 6292588.88520575221628 ], [ 336836.594242449966259, 6292645.369512410834432 ], [ 336993.725695609929971, 6292762.964708934538066 ], [ 337090.773622379521839, 6292843.064585686661303 ], [ 337142.286592958436813, 6292919.344600885175169 ], [ 337164.909274860401638, 6292977.214813984930515 ], [ 337211.540545109601226, 6293076.841492068953812 ], [ 337233.880529679707251, 6293140.510448082350194 ], [ 337441.642386133142281, 6293370.612289091572165 ], [ 337578.363091667124536, 6293453.49363183695823 ], [ 337616.341065428801812, 6293488.120607902295887 ], [ 337645.383045354974456, 6293528.33258012495935 ], [ 337684.334313732979354, 6293593.297483196482062 ], [ 337831.326954825024586, 6293850.734841253608465 ], [ 337900.307091449853033, 6293981.710155764594674 ], [ 337980.731035879347473, 6294104.580070869997144 ], [ 338098.190344726899639, 6294260.528453538194299 ], [ 338185.348995747452136, 6294405.812597937881947 ], [ 338376.459040236775763, 6294724.080253944732249 ], [ 338603.587338984129019, 6295063.666658656671643 ], [ 338485.957804947625846, 6296246.932638071477413 ], [ 338403.181466180598363, 6297026.772882243618369 ], [ 338360.745871739345603, 6297378.552786816842854 ], [ 338311.496993059001397, 6297474.0182353137061 ], [ 338267.999044995987788, 6297547.630147414281964 ], [ 338206.098118917958345, 6297619.569061500951648 ], [ 338148.10085484420415, 6297664.182341556064785 ], [ 338076.719606752158143, 6297717.71827763132751 ], [ 338003.665360660525039, 6297771.811879696324468 ], [ 337947.341094592004083, 6297842.635461788624525 ], [ 337942.87976658338448, 6297927.40069389436394 ], [ 337983.031718632555567, 6297985.397957977838814 ], [ 338032.106326698558405, 6298007.704598000273108 ], [ 338213.626609932107385, 6298054.464892165735364 ], [ 338951.418728876509704, 6298079.55986219830811 ], [ 339543.66002163849771, 6298102.145335225388408 ], [ 339816.002022107713856, 6298131.03591947350651 ] ], [ [ 341306.684366562403738, 6298461.604847360402346 ], [ 341257.939544987981208, 6298445.242949209176004 ], [ 341230.328841862152331, 6298436.380254365503788 ], [ 341151.587207007280085, 6298406.042568213306367 ], [ 341130.793961449642666, 6298398.543364891782403 ], [ 341111.364207391219679, 6298392.066780207678676 ], [ 341103.183258313103579, 6298389.339797193184495 ], [ 341054.438436743570492, 6298374.68226342368871 ], [ 341025.805114979972132, 6298365.819568594917655 ], [ 341000.23964911676012, 6298358.661238159053028 ], [ 340973.310691746650264, 6298350.480289079248905 ], [ 340881.956760404864326, 6298323.210458824411035 ], [ 340853.937009821762331, 6298316.904310576617718 ], [ 340743.49419730657246, 6298300.542412435635924 ], [ 340523.972063783905469, 6298267.818616137839854 ], [ 340142.087289658957161, 6298181.026622012257576 ], [ 340108.200892493652645, 6298174.685754455626011 ], [ 339995.211138917482458, 6298157.302715443074703 ], [ 339818.288509637466632, 6298130.393584860488772 ] ], [ [ 343840.94170617533382, 6298633.913361825980246 ], [ 343804.197818327462301, 6298631.792171703651547 ], [ 343764.222280218848027, 6298627.988129528239369 ], [ 343730.77024270221591, 6298627.05890625808388 ], [ 343692.672088869614527, 6298626.129683003760874 ], [ 343651.786265239818022, 6298627.058906264603138 ], [ 343615.546557930007111, 6298627.988129530102015 ], [ 343581.16529714781791, 6298629.846576051786542 ], [ 343547.71325963747222, 6298631.70502257719636 ], [ 343506.827436003775802, 6298629.846576061099768 ], [ 343467.800058902590536, 6298629.846576051786542 ], [ 343430.63112833048217, 6298630.775799321010709 ], [ 343393.462197754706722, 6298636.351138902828097 ], [ 343367.443946352810599, 6298641.926478495821357 ], [ 343337.70880189264426, 6298650.289487869478762 ], [ 343305.185987640928943, 6298662.369390310719609 ], [ 343277.309289708733559, 6298672.590846221894026 ], [ 343255.937154637882486, 6298681.88307886198163 ], [ 343238.830788244958967, 6298688.234574975445867 ], [ 343223.41434038215084, 6298697.679874355904758 ] ], [ [ 343841.587600025522988, 6298634.021900003775954 ], [ 345699.319400024309289, 6298892.813599994406104 ], [ 345725.853400019812398, 6298907.005900006741285 ] ], [ [ 343224.34356364508858, 6298697.679874350316823 ], [ 343205.383149530738592, 6298713.011697622016072 ], [ 343187.839940479025245, 6298727.389204699546099 ], [ 343169.814164615818299, 6298741.15685872733593 ], [ 343151.327012071968056, 6298754.298475217074156 ], [ 343132.400215349625796, 6298766.798605578020215 ], [ 343113.05602377851028, 6298778.642555318772793 ], [ 343093.317177351447754, 6298789.816401333548129 ], [ 343073.206880002398975, 6298800.307008256204426 ], [ 343052.748772313294467, 6298810.102043889462948 ], [ 343031.966903749154881, 6298819.189993703737855 ], [ 343010.88570434646681, 6298827.560174403712153 ], [ 342989.529956043348648, 6298835.202746443450451 ], [ 342967.924763503833674, 6298842.10872563906014 ], [ 342946.095524646982085, 6298848.269993675872684 ], [ 342924.067900739028119, 6298853.679307702928782 ], [ 342901.867786286282353, 6298858.330308822914958 ], [ 342879.521278548752889, 6298862.217529565095901 ], [ 342857.05464689200744, 6298865.336400326341391 ], [ 342834.494301869999617, 6298867.683254724368453 ], [ 342811.866764217673335, 6298869.255333926528692 ], [ 342789.806339130969718, 6298870.029464663937688 ] ], [ [ 342789.806339130969718, 6298870.029464663937688 ], [ 342705.436750610242598, 6298846.732475845143199 ], [ 342623.77977586875204, 6298826.597879331558943 ], [ 342558.901631552842446, 6298810.937637598253787 ], [ 342482.837600290658884, 6298797.514573268592358 ], [ 342329.590949074365199, 6298775.142799356020987 ], [ 342184.174418713082559, 6298753.889614157378674 ], [ 342161.802644806564786, 6298751.652436766773462 ], [ 342055.536718782503158, 6298715.857598518021405 ], [ 341938.084905805066228, 6298675.588405506685376 ], [ 341794.905552838521544, 6298625.251914219930768 ], [ 341749.043416335480288, 6298609.591672495938838 ], [ 341586.848055554146413, 6298554.780826439149678 ], [ 341306.082293100073002, 6298460.819376052357256 ] ], [ [ 342789.806339130969718, 6298870.029464663937688 ], [ 342789.198633661319036, 6298870.050789885222912 ] ], [ [ 342791.581889867200516, 6298870.519747795537114 ], [ 342789.806339130969718, 6298870.029464663937688 ] ] ] } },
{ "type": "Feature", "properties": { "FID": 7, "objectid": 7, "id": "9", "lenght": 12752.06, "nombre": "LINEA DE METRO ACTUAL", "linea": "LINEA 5", "layer": "LINEA DE METRO ACTUAL", "shape_leng": 12752.4073561, "GlobalID": "c63eddaf-9f3a-431c-bf23-986be40cf7b2", "centroide_x": 349032.20521035854, "centroide_y": 6295111.7988034794, "crs_original": "EPSG:4326", "fecha_normalizacion": "2025-10-10 01:59:22" }, "geometry": { "type": "LineString", "coordinates": [ [ 345699.319400026055519, 6298898.97520000115037 ], [ 346537.301300019142218, 6299000.643499998375773 ], [ 347221.242300022859126, 6299108.473299996927381 ], [ 347264.373700023279525, 6299130.03899999987334 ], [ 347600.182800023583695, 6299071.503999995067716 ], [ 347988.365700021036901, 6299074.585499998182058 ], [ 348176.404600022127852, 6299046.427699997089803 ], [ 348376.289100022753701, 6298257.059100003913045 ], [ 348599.888500025263056, 6297366.054999995045364 ], [ 349047.087500017951243, 6295614.537499999627471 ], [ 349084.35400001925882, 6295499.350699994713068 ], [ 349125.192900019115768, 6295368.365399999544024 ], [ 349122.112200019706506, 6295266.698500004597008 ], [ 349239.184100021724589, 6294693.666900003328919 ], [ 349442.519300017680507, 6293880.331699995324016 ], [ 349467.165900023304857, 6293812.5537 ], [ 349633.530500020366162, 6293510.634099993854761 ], [ 349950.857000014162622, 6292010.277199999429286 ], [ 350052.524800020852126, 6291501.942699994891882 ], [ 350098.789500018348917, 6291365.537900004535913 ], [ 350283.586400015978143, 6291193.861399997025728 ], [ 350400.657600018545054, 6291082.952200001105666 ], [ 350807.326000017812476, 6290688.60840000025928 ], [ 351186.266900019487366, 6290340.476800000295043 ], [ 351512.834200018376578, 6289835.223500001244247 ], [ 351563.885100013227202, 6289625.705799991264939 ] ] } },
{ "type": "Feature", "properties": { "FID": 8, "objectid": 8, "id": "3", "lenght": 20677.039, "nombre": "LINEA DE METRO ACTUAL", "linea": "LINEA 4", "layer": "LINEA DE METRO ACTUAL", "shape_leng": 13369.710035399999, "GlobalID": "476b5a8e-a6ec-4bff-af5b-6f0d7aa48974", "centroide_x": 352928.54183868994, "centroide_y": 6295737.2621609839, "crs_original": "EPSG:4326", "fecha_normalizacion": "2025-10-10 01:59:22" }, "geometry": { "type": "LineString", "coordinates": [ [ 351090.653200019267388, 6301195.967299999669194 ], [ 351323.290400014026091, 6300996.564700003713369 ], [ 351485.39480001933407, 6300866.053700003772974 ], [ 351791.916000015859026, 6300582.423700001090765 ], [ 352045.177600018796511, 6300357.161399999633431 ], [ 352439.574300013075117, 6299988.209499998018146 ], [ 352683.110500016249716, 6299717.063799997791648 ], [ 352744.039500014740042, 6299611.823299996554852 ], [ 352907.439400019065943, 6299476.118699997663498 ], [ 353303.476400012092199, 6299224.096099998801947 ], [ 353425.333900016150437, 6299188.09290000423789 ], [ 353743.825200014049187, 6299024.693700002506375 ], [ 353854.605700013518799, 6298376.633900001645088 ], [ 353926.613100019865669, 6297936.285600004717708 ], [ 353993.081400017603301, 6297529.171100002713501 ], [ 354009.698600015370175, 6297332.537499998696148 ], [ 353965.387100014137104, 6297086.053100000135601 ], [ 353882.303100018179975, 6296723.250199999660254 ], [ 353846.439400012954138, 6296606.041600003838539 ], [ 353799.218900015868712, 6296468.457199996337295 ], [ 353741.059900012623984, 6296343.830299997702241 ], [ 353522.271600015694275, 6295590.529499993659556 ], [ 353314.370700010913424, 6294418.191299995407462 ], [ 353165.011100014729891, 6293405.403799997642636 ], [ 353159.472300018591341, 6293319.549599997699261 ], [ 352552.537500021164306, 6292114.094400001689792 ], [ 352377.595700012636371, 6291568.058800003491342 ], [ 352336.93800001393538, 6291217.50789999961853 ], [ 352270.471000014804304, 6290807.623699994757771 ], [ 352245.545700016897172, 6290680.227300000376999 ], [ 352107.071800019941293, 6290464.207100002095103 ], [ 351896.591300020343624, 6290165.102199998684227 ], [ 351663.954900017473847, 6289774.604200005531311 ], [ 351586.409500014851801, 6289647.207700004801154 ], [ 351563.166200012899935, 6289624.989800002425909 ] ] } },
{ "type": "Feature", "properties": { "FID": 9, "objectid": 9, "id": "3", "lenght": 20677.039, "nombre": "LINEA DE METRO ACTUAL", "linea": "LINEA 4A", "layer": "LINEA DE METRO ACTUAL", "shape_leng": 7307.1920152599996, "GlobalID": "9b4ac88f-7b6b-4118-8c60-601eb3bdd113", "centroide_x": 348877.96924276953, "centroide_y": 6287897.0415580375, "crs_original": "EPSG:4326", "fecha_normalizacion": "2025-10-10 01:59:22" }, "geometry": { "type": "LineString", "coordinates": [ [ 351563.166200012899935, 6289624.989800002425909 ], [ 351398.084700019389857, 6289467.190799994394183 ], [ 351290.074800018453971, 6289367.489100002683699 ], [ 350583.857800022524316, 6288049.212300000712276 ], [ 350459.231400016753469, 6287788.880400002934039 ], [ 350414.919700022146571, 6287708.565100001171231 ], [ 350359.53000001469627, 6287655.944799998775125 ], [ 350312.448800016369205, 6287617.171899991109967 ], [ 350245.981200017384253, 6287589.477000001817942 ], [ 349963.493700021819677, 6287539.625700004398823 ], [ 348769.84510001540184, 6287329.142800003290176 ], [ 348279.645900016766973, 6287370.68439999781549 ], [ 347335.250700023258105, 6287517.465699998661876 ], [ 346579.18060002301354, 6287650.399699995294213 ], [ 345756.642800026223995, 6287811.028599999845028 ], [ 345471.385600023437291, 6287883.034799998626113 ] ] } },
{ "type": "Feature", "properties": { "FID": 10, "objectid": 10, "id": "", "lenght": 0.0, "nombre": "LINEA DE METRO ACTUAL", "linea": "LINEA 1", "layer": "LINEA DE METRO ACTUAL", "shape_leng": 3791.1933485599998, "GlobalID": "b336b980-fb80-46c8-854f-5835a8e07ea0", "centroide_x": 354486.97820906289, "centroide_y": 6302220.8168337699, "crs_original": "EPSG:4326", "fecha_normalizacion": "2025-10-10 01:59:22" }, "geometry": { "type": "LineString", "coordinates": [ [ 352690.540200019720942, 6301674.890800002962351 ], [ 352824.260700018261559, 6301735.673100002110004 ], [ 352972.569000018178485, 6301811.043100005015731 ], [ 353089.270500019425526, 6301866.962799994274974 ], [ 353286.204400018497836, 6301932.607799995690584 ], [ 353473.413200013805181, 6302000.684100002981722 ], [ 353881.86870002001524, 6302156.286900004372001 ], [ 354278.167800013965461, 6302297.302000000141561 ], [ 354665.768000015465077, 6302427.979299996048212 ], [ 354793.599700019112788, 6302457.767499999143183 ], [ 354980.808600013027899, 6302450.474000005051494 ], [ 355087.785100010922179, 6302445.611600000411272 ], [ 355228.746266399743035, 6302425.354659341275692 ], [ 355244.962209649151191, 6302424.669478632509708 ], [ 355295.437187930918299, 6302416.218916660174727 ], [ 355333.807307169714477, 6302407.083173984661698 ], [ 355369.687936531496234, 6302401.373334811069071 ], [ 355602.101230199157726, 6302354.050187755376101 ], [ 355717.487900015548803, 6302362.948899999260902 ], [ 356347.234233160852455, 6302425.998088283464313 ] ] } },
{ "type": "Feature", "properties": { "FID": 11, "objectid": 0, "id": "", "lenght": 0.0, "nombre": "LINEA DE METRO PROYECTADA", "linea": "LINEA 6", "layer": "LINEA DE METRO PROYECTADA", "shape_leng": 0.0, "GlobalID": "882adbcf-0b5c-4747-a608-a8592e78238b", "centroide_x": 347981.21422067168, "centroide_y": 6296162.2868964374, "crs_original": "EPSG:4326", "fecha_normalizacion": "2025-10-10 01:59:22" }, "geometry": { "type": "LineString", "coordinates": [ [ 342502.354770202189684, 6293858.790986159816384 ], [ 342906.423884492076468, 6294442.91035501472652 ], [ 343249.381886278570164, 6294561.016591661609709 ], [ 343840.653861965402029, 6294579.927217131480575 ], [ 344318.231146364763845, 6294582.048702942207456 ], [ 344558.661700341966935, 6294620.4237594101578 ], [ 345109.59129553893581, 6294636.176310766488314 ], [ 345288.160398081119638, 6294683.046953223645687 ], [ 345327.732970442913938, 6294711.55847199074924 ], [ 345587.343222806463018, 6294720.884560521692038 ], [ 345727.443146011093631, 6294714.468025540933013 ], [ 345919.623642095888499, 6294695.958321725949645 ], [ 346174.626427100272849, 6294661.72165410593152 ], [ 346249.898273712839, 6294654.21456104516983 ], [ 346330.445976656861603, 6294652.605957728810608 ], [ 346780.741250007587951, 6294654.029671743512154 ], [ 346863.856460254639387, 6294656.822468675673008 ], [ 347428.884297488373704, 6294707.171483881771564 ], [ 347434.478632509300951, 6294687.591311292722821 ], [ 347635.452828223467804, 6294714.523396686650813 ], [ 347904.278015301271807, 6294810.974997501820326 ], [ 348858.236895628564525, 6295255.416316037066281 ], [ 348837.190807600796688, 6295346.012299548834562 ], [ 348921.044645640009549, 6295531.281594598665833 ], [ 348964.272404503659345, 6295637.288859259337187 ], [ 349015.52575525798602, 6295752.151993495412171 ], [ 349933.847900636901613, 6295935.994334505870938 ], [ 350131.723574095754884, 6295934.369053761474788 ], [ 350389.737650553113781, 6295894.969899277202785 ], [ 350407.441102445765864, 6295900.273205451667309 ], [ 350424.9071150184609, 6295906.312714532017708 ], [ 350442.105087883828674, 6295913.077845312654972 ], [ 350459.004890257492661, 6295920.556745292618871 ], [ 350475.576913728029467, 6295928.736311493441463 ], [ 350491.792124182626139, 6295937.602213324047625 ], [ 350507.622112609329633, 6295947.138917744159698 ], [ 350523.039144940499682, 6295957.329716509208083 ], [ 350538.016210578032769, 6295968.156755350530148 ], [ 350552.527069756004494, 6295979.601065335795283 ], [ 350566.546299502369948, 6295991.642596080899239 ], [ 350580.049338155426085, 6296004.26025084964931 ], [ 350593.012528464663774, 6296017.431923577561975 ], [ 350605.413158938579727, 6296031.13453752361238 ], [ 350617.229503733571619, 6296045.344085750170052 ], [ 350628.440860644448549, 6296060.035673187114298 ], [ 350639.027587411226705, 6296075.183560220524669 ], [ 350648.971136128413491, 6296090.761207796633244 ], [ 350658.254085735825356, 6296106.741323941387236 ], [ 350666.860172524233349, 6296123.095911530777812 ], [ 350674.774318669224158, 6296139.7963173892349 ], [ 350681.982658609864302, 6296156.813282465562224 ], [ 350688.472563355986495, 6296174.11699309386313 ], [ 350694.232662625028752, 6296191.677133232355118 ], [ 350699.252864735317416, 6296209.462937574833632 ], [ 350703.524374313768931, 6296227.443245444446802 ], [ 350707.039707691175863, 6296245.58655540831387 ], [ 350709.792706007719971, 6296263.861080447211862 ], [ 350716.333475438237656, 6296279.881257109344006 ], [ 350722.542424219544046, 6296295.66844620835036 ], [ 350735.848620433476754, 6296330.459060940891504 ], [ 350765.848345087375492, 6296592.966202339157462 ], [ 350838.317364054732025, 6297209.061420476995409 ], [ 350840.963169517344795, 6297231.539109911769629 ], [ 350844.513025235384703, 6297301.811461839824915 ], [ 350804.110661101294681, 6297574.820396762341261 ], [ 350692.213552805827931, 6298330.356297681108117 ], [ 350632.147175766818691, 6298650.496531439945102 ], [ 350581.500745793164242, 6298944.534767058677971 ], [ 350480.144133550929837, 6299333.667261105962098 ], [ 350426.773503237753175, 6299532.849165080115199 ], [ 350295.67769447225146, 6300000.376449038274586 ], [ 350177.751619318325538, 6300360.809791477397084 ], [ 350137.784254841448274, 6300469.650780327618122 ], [ 350179.17033188091591, 6300508.341926772147417 ], [ 350402.827659031026997, 6300716.630297297611833 ] ] } },
{ "type": "Feature", "properties": { "FID": 12, "objectid": 0, "id": "", "lenght": 0.0, "nombre": "LINEA DE METRO PROYECTADA", "linea": "LINEA 3", "layer": "LINEA DE METRO PROYECTADA", "shape_leng": 0.0, "GlobalID": "58e3e888-c17d-4ad0-8c04-e163f7756d48", "centroide_x": 347697.88383135328, "centroide_y": 6299762.0294310609, "crs_original": "EPSG:4326", "fecha_normalizacion": "2025-10-10 01:59:22" }, "geometry": { "type": "LineString", "coordinates": [ [ 342829.278172032674775, 6306805.432572916150093 ], [ 342854.117354996502399, 6306701.910745824687183 ], [ 342994.440287169127259, 6306275.605041736736894 ], [ 343195.603828456019983, 6305887.347082260064781 ], [ 343365.262339596753009, 6305595.026027485728264 ], [ 343402.822347201989032, 6305391.548875440843403 ], [ 343488.904530790750869, 6305140.620565254241228 ], [ 343582.273329291143455, 6304981.526314731687307 ], [ 343815.458584421081468, 6304668.53490868024528 ], [ 344231.174507464165799, 6304085.517677375115454 ], [ 344384.209463237202726, 6303810.681200683116913 ], [ 344482.174913712311536, 6303635.784603215754032 ], [ 344614.976107788854279, 6303464.785826981067657 ], [ 344725.381474473397247, 6303353.022764438763261 ], [ 344826.292677671997808, 6303260.461300976574421 ], [ 345089.443461952381767, 6302988.479888912290335 ], [ 345288.572419281699695, 6302736.311319302767515 ], [ 345507.830299220979214, 6302453.656116588041186 ], [ 345563.999337591230869, 6302325.185918429866433 ], [ 345678.590032610227354, 6301994.914230769500136 ], [ 345806.732666435651481, 6301646.528221655637026 ], [ 345923.473171718418598, 6301385.331064373254776 ], [ 345969.551089770975523, 6301266.117012549191713 ], [ 346029.919742996105924, 6300963.720400009304285 ], [ 346344.033568676677532, 6299633.562474135309458 ], [ 346310.766897681285627, 6299478.246540443040431 ], [ 346327.198643148702104, 6299366.996296329423785 ], [ 346345.98103983362671, 6299221.576982853002846 ], [ 346382.589524941286072, 6298985.219746852293611 ], [ 346417.978988043498248, 6298690.42768126912415 ], [ 346441.685823676059954, 6298553.259262091480196 ], [ 346479.458271099254489, 6298270.268432194367051 ], [ 346753.612524627125822, 6296540.722636269405484 ], [ 347494.209393879573327, 6296742.033337203785777 ], [ 348329.294665141555015, 6296965.969765897840261 ], [ 348540.615074992238078, 6297029.442737300880253 ], [ 348672.866150908696, 6297070.587504823692143 ], [ 348598.144733987748623, 6297362.233601346611977 ], [ 348916.740331811248325, 6297390.062393287196755 ], [ 349240.73270718799904, 6297235.41909072548151 ], [ 349676.948244577331934, 6297326.61579829826951 ], [ 350112.889353399688844, 6297291.016965548507869 ], [ 350633.457789318403229, 6297233.570008209906518 ], [ 351048.740934622357599, 6297183.937017438933253 ], [ 351547.177845736034214, 6297130.263873401097953 ], [ 351864.312146839452907, 6297097.080043658614159 ], [ 352304.702356118359603, 6297083.222858498804271 ], [ 352518.235060707957018, 6297078.790230102837086 ], [ 352615.888376684044488, 6297092.260075055062771 ], [ 352836.025102060695644, 6297157.747527744621038 ], [ 352962.314296478871256, 6297177.137737866491079 ], [ 353151.435260728932917, 6297204.694343443959951 ], [ 353286.271057969483081, 6297219.150170126929879 ], [ 353512.935712804319337, 6297238.705480374395847 ], [ 353548.744148259749636, 6297253.357428876683116 ], [ 353625.701544530398678, 6297327.43894793651998 ], [ 353653.553604631393682, 6297342.126323704607785 ], [ 353691.890593644464388, 6297347.34158181771636 ], [ 353831.025626871851273, 6297337.663849630393088 ], [ 354035.985385105537716, 6297329.296567728742957 ], [ 354261.979154863511212, 6297358.545514502562582 ], [ 354362.061083670705557, 6297366.097216456197202 ], [ 355110.791636285604909, 6297494.474575715139508 ] ] } }
]
}
