{
"type": "FeatureCollection",
"name": "municipios_filtrados",
"crs": { "type": "name", "properties": { "name": "urn:ogc:def:crs:EPSG::32719" } },
"features": [
{ "type": "Feature", "properties": { "OBJECTID": 327.0, "DIRECCION": "Av. Lib. Bernado O´Higgins Nº 3920", "COD_REG": "13", "NOM_REG": "Metropolitana de Santiago", "COD_PROV": "131", "NOM_PROV": "Santiago", "NOM_COM": "Estación Central", "CUT_2018": "13106", "centroide_x": 342942.37063173507, "centroide_y": 6297089.8382328013, "crs_original": "EPSG:4326", "fecha_normalizacion": "2025-10-10 01:59:24" }, "geometry": { "type": "Point", "coordinates": [ 342942.370631735073403, 6297089.838232801295817 ] } },
{ "type": "Feature", "properties": { "OBJECTID": 330.0, "DIRECCION": "Alcalde Fernando Castillo Velasco N° 9925", "COD_REG": "13", "NOM_REG": "Metropolitana de Santiago", "COD_PROV": "131", "NOM_PROV": "Santiago", "NOM_COM": "La Reina", "CUT_2018": "13113", "centroide_x": 357747.1235653105, "centroide_y": 6297392.0242684335, "crs_original": "EPSG:4326", "fecha_normalizacion": "2025-10-10 01:59:24" }, "geometry": { "type": "Point", "coordinates": [ 357747.123565310495906, 6297392.024268433451653 ] } },
{ "type": "Feature", "properties": { "OBJECTID": 151.0, "DIRECCION": "Av. Irarrázaval Nº 3550", "COD_REG": "13", "NOM_REG": "Metropolitana de Santiago", "COD_PROV": "131", "NOM_PROV": "Santiago", "NOM_COM": "Ñuñoa", "CUT_2018": "13120", "centroide_x": 351885.95666539989, "centroide_y": 6297219.5064887144, "crs_original": "EPSG:4326", "fecha_normalizacion": "2025-10-10 01:59:24" }, "geometry": { "type": "Point", "coordinates": [ 351885.95666539989179, 6297219.506488714367151 ] } },
{ "type": "Feature", "properties": { "OBJECTID": 159.0, "DIRECCION": "Av. Santa Rosa Nº 2606", "COD_REG": "13", "NOM_REG": "Metropolitana de Santiago", "COD_PROV": "131", "NOM_PROV": "Santiago", "NOM_COM": "San Joaquín", "CUT_2018": "13129", "centroide_x": 347481.94244754978, "centroide_y": 6294380.2736898717, "crs_original": "EPSG:4326", "fecha_normalizacion": "2025-10-10 01:59:24" }, "geometry": { "type": "Point", "coordinates": [ 347481.942447549779899, 6294380.273689871653914 ] } },
{ "type": "Feature", "properties": { "OBJECTID": 326.0, "DIRECCION": "Plaza de Armas S/N", "COD_REG": "13", "NOM_REG": "Metropolitana de Santiago", "COD_PROV": "131", "NOM_PROV": "Santiago", "NOM_COM": "Santiago", "CUT_2018": "13101", "centroide_x": 346594.39453673421, "centroide_y": 6299056.0462793773, "crs_original": "EPSG:4326", "fecha_normalizacion": "2025-10-10 01:59:24" }, "geometry": { "type": "Point", "coordinates": [ 346594.394536734209396, 6299056.046279377304018 ] } }
]
}
