{
"type": "FeatureCollection",
"name": "redes_de_clinicas_filtradas",
"crs": { "type": "name", "properties": { "name": "urn:ogc:def:crs:EPSG::32719" } },
"features": [
{ "type": "Feature", "properties": { "FID": 1, "clinica": "HOSPITAL CLINICO MUTUAL DE SEGURIDAD", "direccion": "4848 ALAMEDA", "comuna": "ESTACION CENTRAL", "tipo": "CLINICA PRIVADA", "nombre": "HOSPITAL CLINICO MUTUAL DE SEGURIDAD", "centroide_x": 341908.98680002883, "centroide_y": 6296830.8876999971, "crs_original": "EPSG:3857", "fecha_normalizacion": "2025-10-10 01:59:25" }, "geometry": { "type": "Point", "coordinates": [ 341908.98680002882611, 6296830.88769999705255 ] } },
{ "type": "Feature", "properties": { "FID": 2, "clinica": "HOSPITAL DEL PROFESOR", "direccion": "4860 ALAMEDA", "comuna": "ESTACION CENTRAL", "tipo": "CLINICA PRIVADA", "nombre": "HOSPITAL DEL PROFESOR", "centroide_x": 341726.10150003037, "centroide_y": 6296776.2868999969, "crs_original": "EPSG:3857", "fecha_normalizacion": "2025-10-10 01:59:25" }, "geometry": { "type": "Point", "coordinates": [ 341726.101500030374154, 6296776.28689999692142 ] } },
{ "type": "Feature", "properties": { "FID": 30, "clinica": "CLINICA LOS COIHUES", "direccion": "6561LAGUNA SUR", "comuna": "ESTACION CENTRAL", "tipo": "CLINICA PRIVADA", "nombre": "CLINICA LOS COIHUES", "centroide_x": 339589.73900003493, "centroide_y": 6296459.4158999994, "crs_original": "EPSG:3857", "fecha_normalizacion": "2025-10-10 01:59:25" }, "geometry": { "type": "Point", "coordinates": [ 339589.739000034925994, 6296459.415899999439716 ] } },
{ "type": "Feature", "properties": { "FID": 15, "clinica": "FUNDACION ARTURO LOPEZ PEREZ", "direccion": "878 RANCAGUA", "comuna": "PROVIDENCIA", "tipo": "CLINICA PRIVADA", "nombre": "FUNDACION ARTURO LOPEZ PEREZ", "centroide_x": 349232.20710001851, "centroide_y": 6298840.3074000031, "crs_original": "EPSG:3857", "fecha_normalizacion": "2025-10-10 01:59:25" }, "geometry": { "type": "Point", "coordinates": [ 349232.207100018509664, 6298840.3074000030756 ] } },
{ "type": "Feature", "properties": { "FID": 16, "clinica": "CLINICA MIGUEL CLARO", "direccion": "988 MIGUEL CLARO", "comuna": "PROVIDENCIA", "tipo": "CLINICA PRIVADA", "nombre": "CLINICA MIGUEL CLARO", "centroide_x": 349546.3634000211, "centroide_y": 6298923.7751999982, "crs_original": "EPSG:3857", "fecha_normalizacion": "2025-10-10 01:59:25" }, "geometry": { "type": "Point", "coordinates": [ 349546.363400021102279, 6298923.775199998170137 ] } },
{ "type": "Feature", "properties": { "FID": 17, "clinica": "CLINICA VICTORIA ROUSSEAU", "direccion": "1628 RICARDO LYON", "comuna": "PROVIDENCIA", "tipo": "CLINICA PRIVADA", "nombre": "CLINICA VICTORIA ROUSSEAU", "centroide_x": 350847.49230001483, "centroide_y": 6299246.861800001, "crs_original": "EPSG:3857", "fecha_normalizacion": "2025-10-10 01:59:25" }, "geometry": { "type": "Point", "coordinates": [ 350847.492300014826469, 6299246.861800001002848 ] } },
{ "type": "Feature", "properties": { "FID": 7, "clinica": "CLINICA COLONIAL", "direccion": "2652 PEDRO DE VALDIVIA", "comuna": "NUNOA", "tipo": "CLINICA PRIVADA", "nombre": "CLINICA COLONIAL", "centroide_x": 350743.89610001829, "centroide_y": 6297996.0958000002, "crs_original": "EPSG:3857", "fecha_normalizacion": "2025-10-10 01:59:25" }, "geometry": { "type": "Point", "coordinates": [ 350743.896100018289872, 6297996.095800000242889 ] } },
{ "type": "Feature", "properties": { "FID": 12, "clinica": "CLINICA SARA MONCADA", "direccion": "2219 PEDRO DE VALDIVIA", "comuna": "PROVIDENCIA", "tipo": "CLINICA PRIVADA", "nombre": "CLINICA SARA MONCADA", "centroide_x": 350672.68100001919, "centroide_y": 6298457.3425999982, "crs_original": "EPSG:3857", "fecha_normalizacion": "2025-10-10 01:59:25" }, "geometry": { "type": "Point", "coordinates": [ 350672.681000019190833, 6298457.342599998228252 ] } },
{ "type": "Feature", "properties": { "FID": 11, "clinica": "HOSPITAL DEL TRABAJADOR", "direccion": "185 RAMON CARNICER", "comuna": "PROVIDENCIA", "tipo": "CLINICA PRIVADA", "nombre": "HOSPITAL DEL TRABAJADOR", "centroide_x": 348299.41920002055, "centroide_y": 6298428.2265999988, "crs_original": "EPSG:3857", "fecha_normalizacion": "2025-10-10 01:59:25" }, "geometry": { "type": "Point", "coordinates": [ 348299.419200020551216, 6298428.226599998772144 ] } },
{ "type": "Feature", "properties": { "FID": 19, "clinica": "CLINICA DAVILA", "direccion": "464 RECOLETA", "comuna": "RECOLETA", "tipo": "CLINICA PRIVADA", "nombre": "CLINICA DAVILA", "centroide_x": 346944.01800002088, "centroide_y": 6300115.3457999974, "crs_original": "EPSG:3857", "fecha_normalizacion": "2025-10-10 01:59:25" }, "geometry": { "type": "Point", "coordinates": [ 346944.018000020878389, 6300115.345799997448921 ] } },
{ "type": "Feature", "properties": { "FID": 20, "clinica": "CLINICA Y MATERNIDAD JUAN PABLO II", "direccion": "1448 SANTA ROSA", "comuna": "SANTIAGO", "tipo": "CLINICA PRIVADA", "nombre": "CLINICA Y MATERNIDAD JUAN PABLO II", "centroide_x": 347369.64670001739, "centroide_y": 6296045.9191999994, "crs_original": "EPSG:3857", "fecha_normalizacion": "2025-10-10 01:59:25" }, "geometry": { "type": "Point", "coordinates": [ 347369.646700017387047, 6296045.919199999421835 ] } },
{ "type": "Feature", "properties": { "FID": 21, "clinica": "HOSPITAL CLINICO UNIVERSIDAD CATOLICA", "direccion": "367 MARCOLETA", "comuna": "SANTIAGO", "tipo": "CLINICA PRIVADA", "nombre": "HOSPITAL CLINICO UNIVERSIDAD CATOLICA", "centroide_x": 347526.39400002325, "centroide_y": 6298461.6522000041, "crs_original": "EPSG:3857", "fecha_normalizacion": "2025-10-10 01:59:25" }, "geometry": { "type": "Point", "coordinates": [ 347526.394000023254193, 6298461.652200004085898 ] } },
{ "type": "Feature", "properties": { "FID": 22, "clinica": "CLINICA PRESBITERIANA MADRE E HIJO", "direccion": "1503 SANTA ROSA", "comuna": "SANTIAGO", "tipo": "CLINICA PRIVADA", "nombre": "CLINICA PRESBITERIANA MADRE E HIJO", "centroide_x": 347371.92150002078, "centroide_y": 6295969.6536999959, "crs_original": "EPSG:3857", "fecha_normalizacion": "2025-10-10 01:59:25" }, "geometry": { "type": "Point", "coordinates": [ 347371.921500020776875, 6295969.653699995949864 ] } },
{ "type": "Feature", "properties": { "FID": 23, "clinica": "CLINICA CENTRAL", "direccion": "231 SAN ISIDRO", "comuna": "SANTIAGO", "tipo": "CLINICA PRIVADA", "nombre": "CLINICA CENTRAL", "centroide_x": 347198.14810002269, "centroide_y": 6298022.9149000039, "crs_original": "EPSG:3857", "fecha_normalizacion": "2025-10-10 01:59:25" }, "geometry": { "type": "Point", "coordinates": [ 347198.148100022692233, 6298022.914900003932416 ] } }
]
}
